<?xml version="1.0" encoding="UTF-8"?>
<kml xmlns="http://www.opengis.net/kml/2.2">
<Document>
  <name>ChefMinistry — 🇨🇳 จีน &amp; ติ่มซำ</name>
  <description>อัปเดต 2026-07-30 — chefministry.com</description>
  <Style id="cm0"><IconStyle><color>ff3ba7e8</color><Icon><href>http://maps.google.com/mapfiles/kml/shapes/dining.png</href></Icon></IconStyle></Style>
  <Folder>
    <name>🇨🇳 จีน &amp; ติ่มซำ</name>
    <Placemark>
      <styleUrl>#cm0</styleUrl>
      <name>ฮัวหม่าล่า</name>
      <description>⭐ 4.9 (5,034 รีวิว) · Chinese · Lat Phrao · ฿฿
79 Pradit Manutham Rd, Khwaeng Lat Phrao, Khet Lat Phrao, Krung Thep Maha Nakhon 10230, Thailand
https://www.google.com/maps/place/?q=place_id:ChIJBVjCBACd4jARoVRvuegvF_Y
ข้อมูลจาก ChefMinistry — chefministry.com</description>
      <ExtendedData>
        <Data name="rating"><value>4.9</value></Data>
        <Data name="reviews"><value>5034</value></Data>
        <Data name="cuisine"><value>Chinese</value></Data>
        <Data name="area"><value>Lat Phrao</value></Data>
        <Data name="google_maps"><value>https://www.google.com/maps/place/?q=place_id:ChIJBVjCBACd4jARoVRvuegvF_Y</value></Data>
      </ExtendedData>
      <Point><coordinates>100.6159016,13.803443,0</coordinates></Point>
    </Placemark>
    <Placemark>
      <styleUrl>#cm0</styleUrl>
      <name>ฮะเก๋า เยาวราช</name>
      <description>⭐ 4.7 (3,183 รีวิว) · Chinese · Yaowarat · ฿฿
387 Yaowarat Rd, Khwaeng Samphanthawong, Khet Samphanthawong, Krung Thep Maha Nakhon 10100, Thailand
https://www.google.com/maps/place/?q=place_id:ChIJg_OawsSZ4jARhar1F01_csQ
ข้อมูลจาก ChefMinistry — chefministry.com</description>
      <ExtendedData>
        <Data name="rating"><value>4.7</value></Data>
        <Data name="reviews"><value>3183</value></Data>
        <Data name="cuisine"><value>Chinese</value></Data>
        <Data name="area"><value>Yaowarat</value></Data>
        <Data name="google_maps"><value>https://www.google.com/maps/place/?q=place_id:ChIJg_OawsSZ4jARhar1F01_csQ</value></Data>
      </ExtendedData>
      <Point><coordinates>100.5093962,13.7407445,0</coordinates></Point>
    </Placemark>
    <Placemark>
      <styleUrl>#cm0</styleUrl>
      <name>ประจักษ์ (เป็ดย่าง)</name>
      <description>⭐ 4.3 (4,181 รีวิว) · Chinese · บางรัก · ฿
1415 ถ. เจริญกรุง Si Lom, Khet Bang Rak, Krung Thep Maha Nakhon 10500, Thailand
https://www.google.com/maps/place/?q=place_id:ChIJVR1_rsWY4jAR0BqRhCK_sbM
ข้อมูลจาก ChefMinistry — chefministry.com</description>
      <ExtendedData>
        <Data name="rating"><value>4.3</value></Data>
        <Data name="reviews"><value>4181</value></Data>
        <Data name="cuisine"><value>Chinese</value></Data>
        <Data name="area"><value>บางรัก</value></Data>
        <Data name="google_maps"><value>https://www.google.com/maps/place/?q=place_id:ChIJVR1_rsWY4jAR0BqRhCK_sbM</value></Data>
      </ExtendedData>
      <Point><coordinates>100.5160568,13.7203757,0</coordinates></Point>
    </Placemark>
    <Placemark>
      <styleUrl>#cm0</styleUrl>
      <name>ตวง ติ่มซำ</name>
      <description>⭐ 4.3 (3,827 รีวิว) · Chinese · Bang Kho Laem · ฿฿
2329 Soi Charoen Krung 89, Khwaeng Wat Phraya Krai, Khet Bang Kho Laem, Krung Thep Maha Nakhon 10120, Thailand
https://www.google.com/maps/place/?q=place_id:ChIJHxU3Z76Y4jARFusSCmswJqc
ข้อมูลจาก ChefMinistry — chefministry.com</description>
      <ExtendedData>
        <Data name="rating"><value>4.3</value></Data>
        <Data name="reviews"><value>3827</value></Data>
        <Data name="cuisine"><value>Chinese</value></Data>
        <Data name="area"><value>Bang Kho Laem</value></Data>
        <Data name="google_maps"><value>https://www.google.com/maps/place/?q=place_id:ChIJHxU3Z76Y4jARFusSCmswJqc</value></Data>
      </ExtendedData>
      <Point><coordinates>100.5059022,13.705070599999999,0</coordinates></Point>
    </Placemark>
    <Placemark>
      <styleUrl>#cm0</styleUrl>
      <name>เหล่าเต๊ง</name>
      <description>⭐ 4.6 (2,701 รีวิว) · Chinese · Yaowarat · ฿฿
Floor, 2, 438 ถ. เยาวราช แขวงสัมพันธวงศ์ เขตสัมพันธวงศ์ กรุงเทพมหานคร 10100, Thailand
https://www.google.com/maps/place/?q=place_id:ChIJJ03QjGOZ4jARdUW-bCQ2u2s
ข้อมูลจาก ChefMinistry — chefministry.com</description>
      <ExtendedData>
        <Data name="rating"><value>4.6</value></Data>
        <Data name="reviews"><value>2701</value></Data>
        <Data name="cuisine"><value>Chinese</value></Data>
        <Data name="area"><value>Yaowarat</value></Data>
        <Data name="google_maps"><value>https://www.google.com/maps/place/?q=place_id:ChIJJ03QjGOZ4jARdUW-bCQ2u2s</value></Data>
      </ExtendedData>
      <Point><coordinates>100.5099084,13.7402038,0</coordinates></Point>
    </Placemark>
    <Placemark>
      <styleUrl>#cm0</styleUrl>
      <name>แกรนด์แสนยอด</name>
      <description>⭐ 4.3 (2,316 รีวิว) · Chinese · Bang Rak · ฿฿
89 Charat Wiang Rd, Si Lom, Khet Bang Rak, Krung Thep Maha Nakhon 10500, Thailand
https://www.google.com/maps/place/?q=place_id:ChIJi8XyU9Oe4jARrOjDdixXim0
ข้อมูลจาก ChefMinistry — chefministry.com</description>
      <ExtendedData>
        <Data name="rating"><value>4.3</value></Data>
        <Data name="reviews"><value>2316</value></Data>
        <Data name="cuisine"><value>Chinese</value></Data>
        <Data name="area"><value>Bang Rak</value></Data>
        <Data name="google_maps"><value>https://www.google.com/maps/place/?q=place_id:ChIJi8XyU9Oe4jARrOjDdixXim0</value></Data>
      </ExtendedData>
      <Point><coordinates>100.5176718,13.718838499999999,0</coordinates></Point>
    </Placemark>
    <Placemark>
      <styleUrl>#cm0</styleUrl>
      <name>กงฟูติ่มซำ</name>
      <description>⭐ 4.8 (1,189 รีวิว) · Chinese · Huai Khwang · ฿฿
2040 New Petchaburi Rd, Khwaeng Bang Kapi, Khet Huai Khwang, Krung Thep Maha Nakhon 10310, Thailand
https://www.google.com/maps/place/?q=place_id:ChIJMffmMACf4jARuL6oF923Pgs
ข้อมูลจาก ChefMinistry — chefministry.com</description>
      <ExtendedData>
        <Data name="rating"><value>4.8</value></Data>
        <Data name="reviews"><value>1189</value></Data>
        <Data name="cuisine"><value>Chinese</value></Data>
        <Data name="area"><value>Huai Khwang</value></Data>
        <Data name="google_maps"><value>https://www.google.com/maps/place/?q=place_id:ChIJMffmMACf4jARuL6oF923Pgs</value></Data>
      </ExtendedData>
      <Point><coordinates>100.57455879999999,13.7468911,0</coordinates></Point>
    </Placemark>
    <Placemark>
      <styleUrl>#cm0</styleUrl>
      <name>คูณสินเป็ดย่าง</name>
      <description>⭐ 4.4 (1,333 รีวิว) · Chinese · Lat Krabang · ฿
3 Lat Krabang 7, Khwaeng Lat Krabang, Khet Lat Krabang, Krung Thep Maha Nakhon 10520, Thailand
https://www.google.com/maps/place/?q=place_id:ChIJr6SgUABnHTERPpcbPGAlhdA
ข้อมูลจาก ChefMinistry — chefministry.com</description>
      <ExtendedData>
        <Data name="rating"><value>4.4</value></Data>
        <Data name="reviews"><value>1333</value></Data>
        <Data name="cuisine"><value>Chinese</value></Data>
        <Data name="area"><value>Lat Krabang</value></Data>
        <Data name="google_maps"><value>https://www.google.com/maps/place/?q=place_id:ChIJr6SgUABnHTERPpcbPGAlhdA</value></Data>
      </ExtendedData>
      <Point><coordinates>100.7528694,13.7224764,0</coordinates></Point>
    </Placemark>
    <Placemark>
      <styleUrl>#cm0</styleUrl>
      <name>อาฟู​ เป็ดย่าง</name>
      <description>⭐ 4.6 (1,094 รีวิว) · Chinese · พลับพลา · ฿฿
1889 D2-D5, Thanon Siwara, Khwaeng Phlabphla, เขต งทองหลาง, Krung Thep Maha Nakhon 10312, Thailand
https://www.google.com/maps/place/?q=place_id:ChIJT99KUA-e4jARfqZrvLcMn4c
ข้อมูลจาก ChefMinistry — chefministry.com</description>
      <ExtendedData>
        <Data name="rating"><value>4.6</value></Data>
        <Data name="reviews"><value>1094</value></Data>
        <Data name="cuisine"><value>Chinese</value></Data>
        <Data name="area"><value>พลับพลา</value></Data>
        <Data name="google_maps"><value>https://www.google.com/maps/place/?q=place_id:ChIJT99KUA-e4jARfqZrvLcMn4c</value></Data>
      </ExtendedData>
      <Point><coordinates>100.60708729999999,13.769792899999999,0</coordinates></Point>
    </Placemark>
    <Placemark>
      <styleUrl>#cm0</styleUrl>
      <name>โชคดีติ่มซำ สาขาบรรทัดทอง</name>
      <description>⭐ 4.3 (1,248 รีวิว) · Chinese · ปทุมวัน · ฿฿
42 46 ซอย จุฬาลงกรณ์ 7 Khwaeng Wang Mai, Pathum Wan, Krung Thep Maha Nakhon 10330, Thailand
https://www.google.com/maps/place/?q=place_id:ChIJSWhxfi6Z4jARhGQPscLf85g
ข้อมูลจาก ChefMinistry — chefministry.com</description>
      <ExtendedData>
        <Data name="rating"><value>4.3</value></Data>
        <Data name="reviews"><value>1248</value></Data>
        <Data name="cuisine"><value>Chinese</value></Data>
        <Data name="area"><value>ปทุมวัน</value></Data>
        <Data name="google_maps"><value>https://www.google.com/maps/place/?q=place_id:ChIJSWhxfi6Z4jARhGQPscLf85g</value></Data>
      </ExtendedData>
      <Point><coordinates>100.5253805,13.743529599999999,0</coordinates></Point>
    </Placemark>
    <Placemark>
      <styleUrl>#cm0</styleUrl>
      <name>จงติ่มซำ</name>
      <description>⭐ 4.4 (1,107 รีวิว) · Chinese · Phaya Thai · ฿
524, 4 Phahon Yothin Road, Khwaeng Samsen Nai, Khet Phaya Thai, Krung Thep Maha Nakhon 10400, Thailand
https://www.google.com/maps/place/?q=place_id:ChIJK8Yrohmc4jAR7FqVpG-wwrw
ข้อมูลจาก ChefMinistry — chefministry.com</description>
      <ExtendedData>
        <Data name="rating"><value>4.4</value></Data>
        <Data name="reviews"><value>1107</value></Data>
        <Data name="cuisine"><value>Chinese</value></Data>
        <Data name="area"><value>Phaya Thai</value></Data>
        <Data name="google_maps"><value>https://www.google.com/maps/place/?q=place_id:ChIJK8Yrohmc4jAR7FqVpG-wwrw</value></Data>
      </ExtendedData>
      <Point><coordinates>100.5482364,13.7892582,0</coordinates></Point>
    </Placemark>
    <Placemark>
      <styleUrl>#cm0</styleUrl>
      <name>Lhong Men</name>
      <description>⭐ 4.8 (679 รีวิว) · Chinese · Yaowarat · ฿฿
อยู่ก่อนถึงวัดไตรมิตร เลยแยกหมอมี 611 ถ. เจริญกรุง แขวงตลาดน้อย เขตสัมพันธวงศ์ Krung Thep Maha Nakhon 10100, Thailand
https://www.google.com/maps/place/?q=place_id:ChIJ5XHnLY6Z4jARMrEZ7AScL9M
ข้อมูลจาก ChefMinistry — chefministry.com</description>
      <ExtendedData>
        <Data name="rating"><value>4.8</value></Data>
        <Data name="reviews"><value>679</value></Data>
        <Data name="cuisine"><value>Chinese</value></Data>
        <Data name="area"><value>Yaowarat</value></Data>
        <Data name="google_maps"><value>https://www.google.com/maps/place/?q=place_id:ChIJ5XHnLY6Z4jARMrEZ7AScL9M</value></Data>
      </ExtendedData>
      <Point><coordinates>100.5126406,13.739408099999999,0</coordinates></Point>
    </Placemark>
    <Placemark>
      <styleUrl>#cm0</styleUrl>
      <name>ข้าวต้มเป็ด เป็ดอ้วน เจ้าเก่า(ประตูผี)</name>
      <description>⭐ 4.5 (716 รีวิว) · Chinese · พระนคร · ฿
เลขที่ 112 Soi Samran Rat, Khwaeng Samran Rat, Khet Phra Nakhon, Krung Thep Maha Nakhon 10200, Thailand
https://www.google.com/maps/place/?q=place_id:ChIJ97RhgBaZ4jAR_ZOFaDAOZws
ข้อมูลจาก ChefMinistry — chefministry.com</description>
      <ExtendedData>
        <Data name="rating"><value>4.5</value></Data>
        <Data name="reviews"><value>716</value></Data>
        <Data name="cuisine"><value>Chinese</value></Data>
        <Data name="area"><value>พระนคร</value></Data>
        <Data name="google_maps"><value>https://www.google.com/maps/place/?q=place_id:ChIJ97RhgBaZ4jAR_ZOFaDAOZws</value></Data>
      </ExtendedData>
      <Point><coordinates>100.5037394,13.7528461,0</coordinates></Point>
    </Placemark>
    <Placemark>
      <styleUrl>#cm0</styleUrl>
      <name>Laoteng</name>
      <description>⭐ 4.7 (589 รีวิว) · Chinese · Pathumwan · ฿฿
โรงแรมอโนมา ชั้นที่ 2 เลขที่ 99 Thanon Ratchadamri, ลุมพินี Pathum Wan, Krung Thep Maha Nakhon 10330, Thailand
https://www.google.com/maps/place/?q=place_id:ChIJxZck1Saf4jARmu-2U6gOqws
ข้อมูลจาก ChefMinistry — chefministry.com</description>
      <ExtendedData>
        <Data name="rating"><value>4.7</value></Data>
        <Data name="reviews"><value>589</value></Data>
        <Data name="cuisine"><value>Chinese</value></Data>
        <Data name="area"><value>Pathumwan</value></Data>
        <Data name="google_maps"><value>https://www.google.com/maps/place/?q=place_id:ChIJxZck1Saf4jARmu-2U6gOqws</value></Data>
      </ExtendedData>
      <Point><coordinates>100.54100609999999,13.7465415,0</coordinates></Point>
    </Placemark>
    <Placemark>
      <styleUrl>#cm0</styleUrl>
      <name>Laoteng 楼顶 - Banthat Thong ติ่มซำ เป็ดปักกิ่ง</name>
      <description>⭐ 4.7 (548 รีวิว) · Chinese · Pathumwan · ฿฿
1525 Khwaeng Wang Mai, Pathum Wan, Krung Thep Maha Nakhon 10330, Thailand
https://www.google.com/maps/place/?q=place_id:ChIJhydlPe2Z4jARyJL9inrBSaE
ข้อมูลจาก ChefMinistry — chefministry.com</description>
      <ExtendedData>
        <Data name="rating"><value>4.7</value></Data>
        <Data name="reviews"><value>548</value></Data>
        <Data name="cuisine"><value>Chinese</value></Data>
        <Data name="area"><value>Pathumwan</value></Data>
        <Data name="google_maps"><value>https://www.google.com/maps/place/?q=place_id:ChIJhydlPe2Z4jARyJL9inrBSaE</value></Data>
      </ExtendedData>
      <Point><coordinates>100.5227,13.741039599999999,0</coordinates></Point>
    </Placemark>
    <Placemark>
      <styleUrl>#cm0</styleUrl>
      <name>ก๋วยเตี๋ยวเป็ด เต้นระบำ</name>
      <description>⭐ 4.3 (712 รีวิว) · Chinese · Khlong Toei · ฿
1212, 4 Thanon Rama IV, Khwaeng Khlong Toei, Khet Khlong Toei, Krung Thep Maha Nakhon 10110, Thailand
https://www.google.com/maps/place/?q=place_id:ChIJ8wbkaxef4jAR-2ND2eIGgy4
ข้อมูลจาก ChefMinistry — chefministry.com</description>
      <ExtendedData>
        <Data name="rating"><value>4.3</value></Data>
        <Data name="reviews"><value>712</value></Data>
        <Data name="cuisine"><value>Chinese</value></Data>
        <Data name="area"><value>Khlong Toei</value></Data>
        <Data name="google_maps"><value>https://www.google.com/maps/place/?q=place_id:ChIJ8wbkaxef4jAR-2ND2eIGgy4</value></Data>
      </ExtendedData>
      <Point><coordinates>100.55614279999999,13.720331799999999,0</coordinates></Point>
    </Placemark>
    <Placemark>
      <styleUrl>#cm0</styleUrl>
      <name>เป็ดตุ๋น เจ้าท่า</name>
      <description>⭐ 4.4 (621 รีวิว) · Chinese · Yaowarat · ฿
945 Soi Wanit 2, Khwaeng Talat Noi, Khet Samphanthawong, Krung Thep Maha Nakhon 10100, Thailand
https://www.google.com/maps/place/?q=place_id:ChIJRcDs0diY4jAR7JBCSsjopXE
ข้อมูลจาก ChefMinistry — chefministry.com</description>
      <ExtendedData>
        <Data name="rating"><value>4.4</value></Data>
        <Data name="reviews"><value>621</value></Data>
        <Data name="cuisine"><value>Chinese</value></Data>
        <Data name="area"><value>Yaowarat</value></Data>
        <Data name="google_maps"><value>https://www.google.com/maps/place/?q=place_id:ChIJRcDs0diY4jAR7JBCSsjopXE</value></Data>
      </ExtendedData>
      <Point><coordinates>100.5131923,13.7330348,0</coordinates></Point>
    </Placemark>
    <Placemark>
      <styleUrl>#cm0</styleUrl>
      <name>หอฝัน</name>
      <description>⭐ 4.8 (439 รีวิว) · Chinese · Yaowarat · ฿฿
74 Thanon Phat Sai, Khwaeng Samphanthawong, Khet Samphanthawong, Krung Thep Maha Nakhon 10100, Thailand
https://www.google.com/maps/place/?q=place_id:ChIJubjvFuiZ4jARnzjKNQw9Q9k
ข้อมูลจาก ChefMinistry — chefministry.com</description>
      <ExtendedData>
        <Data name="rating"><value>4.8</value></Data>
        <Data name="reviews"><value>439</value></Data>
        <Data name="cuisine"><value>Chinese</value></Data>
        <Data name="area"><value>Yaowarat</value></Data>
        <Data name="google_maps"><value>https://www.google.com/maps/place/?q=place_id:ChIJubjvFuiZ4jARnzjKNQw9Q9k</value></Data>
      </ExtendedData>
      <Point><coordinates>100.51025519999999,13.739285299999999,0</coordinates></Point>
    </Placemark>
    <Placemark>
      <styleUrl>#cm0</styleUrl>
      <name>เป็ดย่างพัฒนาการ 50</name>
      <description>⭐ 4.3 (585 รีวิว) · Chinese · Suan Luang · ฿
588 38 Phatthanakan Rd, Khwaeng Suan Luang, Khet Suan Luang, Krung Thep Maha Nakhon 10250, Thailand
https://www.google.com/maps/place/?q=place_id:ChIJjeh7g85hHTER2KzycSr1P7g
ข้อมูลจาก ChefMinistry — chefministry.com</description>
      <ExtendedData>
        <Data name="rating"><value>4.3</value></Data>
        <Data name="reviews"><value>585</value></Data>
        <Data name="cuisine"><value>Chinese</value></Data>
        <Data name="area"><value>Suan Luang</value></Data>
        <Data name="google_maps"><value>https://www.google.com/maps/place/?q=place_id:ChIJjeh7g85hHTER2KzycSr1P7g</value></Data>
      </ExtendedData>
      <Point><coordinates>100.6342567,13.7362652,0</coordinates></Point>
    </Placemark>
    <Placemark>
      <styleUrl>#cm0</styleUrl>
      <name>โตเป็ดย่าง</name>
      <description>⭐ 4.5 (425 รีวิว) · Chinese · Bang Sue · ฿
Pracha Rat Sai 1 Soi 20, Khwaeng Bang Sue, Khet Bang Sue, Krung Thep Maha Nakhon 10800, Thailand
https://www.google.com/maps/place/?q=place_id:ChIJxya9RYyb4jARKrIqfI_hDes
ข้อมูลจาก ChefMinistry — chefministry.com</description>
      <ExtendedData>
        <Data name="rating"><value>4.5</value></Data>
        <Data name="reviews"><value>425</value></Data>
        <Data name="cuisine"><value>Chinese</value></Data>
        <Data name="area"><value>Bang Sue</value></Data>
        <Data name="google_maps"><value>https://www.google.com/maps/place/?q=place_id:ChIJxya9RYyb4jARKrIqfI_hDes</value></Data>
      </ExtendedData>
      <Point><coordinates>100.52200099999999,13.8074373,0</coordinates></Point>
    </Placemark>
    <Placemark>
      <styleUrl>#cm0</styleUrl>
      <name>ติ่มซำไจ๋</name>
      <description>⭐ 4.8 (328 รีวิว) · Chinese · Pom Prap · ฿฿
195/8-9, Boriphat Rd, Khwaeng Pom Prap, Khet Pom Prap Sattru Phai, Krung Thep Maha Nakhon 10100, Thailand
https://www.google.com/maps/place/?q=place_id:ChIJ4bKx4ymZ4jARDJgMkAYFKGw
ข้อมูลจาก ChefMinistry — chefministry.com</description>
      <ExtendedData>
        <Data name="rating"><value>4.8</value></Data>
        <Data name="reviews"><value>328</value></Data>
        <Data name="cuisine"><value>Chinese</value></Data>
        <Data name="area"><value>Pom Prap</value></Data>
        <Data name="google_maps"><value>https://www.google.com/maps/place/?q=place_id:ChIJ4bKx4ymZ4jARDJgMkAYFKGw</value></Data>
      </ExtendedData>
      <Point><coordinates>100.50498220000001,13.7499174,0</coordinates></Point>
    </Placemark>
    <Placemark>
      <styleUrl>#cm0</styleUrl>
      <name>เหอ เฉิน ฟง</name>
      <description>⭐ 4.3 (446 รีวิว) · Chinese · สัมพันธวงศ์ · ฿฿
464 ถ. เจริญกรุง Khwaeng Samphanthawong, Khet Samphanthawong, Krung Thep Maha Nakhon 10100, Thailand
https://www.google.com/maps/place/?q=place_id:ChIJ0zW2RyKZ4jARGEFNs2z1XY0
ข้อมูลจาก ChefMinistry — chefministry.com</description>
      <ExtendedData>
        <Data name="rating"><value>4.3</value></Data>
        <Data name="reviews"><value>446</value></Data>
        <Data name="cuisine"><value>Chinese</value></Data>
        <Data name="area"><value>สัมพันธวงศ์</value></Data>
        <Data name="google_maps"><value>https://www.google.com/maps/place/?q=place_id:ChIJ0zW2RyKZ4jARGEFNs2z1XY0</value></Data>
      </ExtendedData>
      <Point><coordinates>100.5090053,13.742792999999999,0</coordinates></Point>
    </Placemark>
    <Placemark>
      <styleUrl>#cm0</styleUrl>
      <name>จิ๊บกี่ 洽記</name>
      <description>⭐ 4.4 (393 รีวิว) · Chinese · Pom Prap · ฿
335 359 Soi Nakhon Sawan 7, Khwaeng Wat Sommanat, Khet Pom Prap Sattru Phai, Krung Thep Maha Nakhon 10100, Thailand
https://www.google.com/maps/place/?q=place_id:ChIJ2WCHx0CZ4jARX0m0HyqZyTM
ข้อมูลจาก ChefMinistry — chefministry.com</description>
      <ExtendedData>
        <Data name="rating"><value>4.4</value></Data>
        <Data name="reviews"><value>393</value></Data>
        <Data name="cuisine"><value>Chinese</value></Data>
        <Data name="area"><value>Pom Prap</value></Data>
        <Data name="google_maps"><value>https://www.google.com/maps/place/?q=place_id:ChIJ2WCHx0CZ4jARX0m0HyqZyTM</value></Data>
      </ExtendedData>
      <Point><coordinates>100.5118907,13.7597132,0</coordinates></Point>
    </Placemark>
    <Placemark>
      <styleUrl>#cm0</styleUrl>
      <name>ภัตตาคารเซียง ปิง เหลา 香賓樓</name>
      <description>⭐ 4.3 (420 รีวิว) · Chinese · Yaowarat · ฿฿
8th Floor Grand China Bangkok Yaowarat Rd, Khwaeng Samphanthawong, Khet Samphanthawong, Krung Thep Maha Nakhon 10100, Thailand
https://www.google.com/maps/place/?q=place_id:ChIJaf_D9yGZ4jARMX51rNIHrNE
ข้อมูลจาก ChefMinistry — chefministry.com</description>
      <ExtendedData>
        <Data name="rating"><value>4.3</value></Data>
        <Data name="reviews"><value>420</value></Data>
        <Data name="cuisine"><value>Chinese</value></Data>
        <Data name="area"><value>Yaowarat</value></Data>
        <Data name="google_maps"><value>https://www.google.com/maps/place/?q=place_id:ChIJaf_D9yGZ4jARMX51rNIHrNE</value></Data>
      </ExtendedData>
      <Point><coordinates>100.507042,13.742870799999999,0</coordinates></Point>
    </Placemark>
    <Placemark>
      <styleUrl>#cm0</styleUrl>
      <name>แมนดารินเป็ดย่าง ภัตตาคาร</name>
      <description>⭐ 4.4 (383 รีวิว) · Chinese · Watthana · ฿฿
729 729/2 Soi Thong Lo, Khwaeng Phra Khanong Nuea, Watthana, Krung Thep Maha Nakhon 10110, Thailand
https://www.google.com/maps/place/?q=place_id:ChIJw-rVT1Ke4jAR8vyAhe_0c00
ข้อมูลจาก ChefMinistry — chefministry.com</description>
      <ExtendedData>
        <Data name="rating"><value>4.4</value></Data>
        <Data name="reviews"><value>383</value></Data>
        <Data name="cuisine"><value>Chinese</value></Data>
        <Data name="area"><value>Watthana</value></Data>
        <Data name="google_maps"><value>https://www.google.com/maps/place/?q=place_id:ChIJw-rVT1Ke4jAR8vyAhe_0c00</value></Data>
      </ExtendedData>
      <Point><coordinates>100.5847708,13.740759299999999,0</coordinates></Point>
    </Placemark>
    <Placemark>
      <styleUrl>#cm0</styleUrl>
      <name>ง้วนติ่มซำ</name>
      <description>⭐ 4.3 (397 รีวิว) · Chinese · Khlong San · ฿฿
274/1 Lat Ya Rd, Khwaeng Khlong San, Khet Khlong San, Krung Thep Maha Nakhon 10600, Thailand
https://www.google.com/maps/place/?q=place_id:ChIJgSZatf-Z4jARzS2VMwlMseI
ข้อมูลจาก ChefMinistry — chefministry.com</description>
      <ExtendedData>
        <Data name="rating"><value>4.3</value></Data>
        <Data name="reviews"><value>397</value></Data>
        <Data name="cuisine"><value>Chinese</value></Data>
        <Data name="area"><value>Khlong San</value></Data>
        <Data name="google_maps"><value>https://www.google.com/maps/place/?q=place_id:ChIJgSZatf-Z4jARzS2VMwlMseI</value></Data>
      </ExtendedData>
      <Point><coordinates>100.4974392,13.7271688,0</coordinates></Point>
    </Placemark>
    <Placemark>
      <styleUrl>#cm0</styleUrl>
      <name>ฮะเซ้ง โภชนา • ราชาเป็ดย่าง อ่อนนุช</name>
      <description>⭐ 4.6 (313 รีวิว) · Chinese · สวนหลวง · ฿
2033 On Nut Rd, แขวง อ่อนนุช Khet Suan Luang, Krung Thep Maha Nakhon 10250, Thailand
https://www.google.com/maps/place/?q=place_id:ChIJGRIs2T5gHTER_YP9-GsMpt4
ข้อมูลจาก ChefMinistry — chefministry.com</description>
      <ExtendedData>
        <Data name="rating"><value>4.6</value></Data>
        <Data name="reviews"><value>313</value></Data>
        <Data name="cuisine"><value>Chinese</value></Data>
        <Data name="area"><value>สวนหลวง</value></Data>
        <Data name="google_maps"><value>https://www.google.com/maps/place/?q=place_id:ChIJGRIs2T5gHTER_YP9-GsMpt4</value></Data>
      </ExtendedData>
      <Point><coordinates>100.6391488,13.711662899999999,0</coordinates></Point>
    </Placemark>
    <Placemark>
      <styleUrl>#cm0</styleUrl>
      <name>Lhong Ma Lhao</name>
      <description>⭐ 4.7 (287 รีวิว) · Chinese · Yaowarat · ฿
118 Phadung Dao Rd, สัมพันธวงศ์ Khet Samphanthawong, Krung Thep Maha Nakhon 10100, Thailand
https://www.google.com/maps/place/?q=place_id:ChIJC1U0FIuZ4jARIROEG3wN_ZQ
ข้อมูลจาก ChefMinistry — chefministry.com</description>
      <ExtendedData>
        <Data name="rating"><value>4.7</value></Data>
        <Data name="reviews"><value>287</value></Data>
        <Data name="cuisine"><value>Chinese</value></Data>
        <Data name="area"><value>Yaowarat</value></Data>
        <Data name="google_maps"><value>https://www.google.com/maps/place/?q=place_id:ChIJC1U0FIuZ4jARIROEG3wN_ZQ</value></Data>
      </ExtendedData>
      <Point><coordinates>100.5101021,13.739680799999999,0</coordinates></Point>
    </Placemark>
    <Placemark>
      <styleUrl>#cm0</styleUrl>
      <name>Tinn feng</name>
      <description>⭐ 4.4 (233 รีวิว) · Chinese · Phra Nakhon · ฿
51 Thanon Mahannop, Khwaeng Sao Chingcha, Khet Phra Nakhon, Krung Thep Maha Nakhon 10200, Thailand
https://www.google.com/maps/place/?q=place_id:ChIJuXuaKmmZ4jARBjQskgg7sjU
ข้อมูลจาก ChefMinistry — chefministry.com</description>
      <ExtendedData>
        <Data name="rating"><value>4.4</value></Data>
        <Data name="reviews"><value>233</value></Data>
        <Data name="cuisine"><value>Chinese</value></Data>
        <Data name="area"><value>Phra Nakhon</value></Data>
        <Data name="google_maps"><value>https://www.google.com/maps/place/?q=place_id:ChIJuXuaKmmZ4jARBjQskgg7sjU</value></Data>
      </ExtendedData>
      <Point><coordinates>100.5001231,13.753670099999999,0</coordinates></Point>
    </Placemark>
    <Placemark>
      <styleUrl>#cm0</styleUrl>
      <name>เป็ดย่างคลังเชลล์</name>
      <description>⭐ 4.4 (212 รีวิว) · Chinese · Khlong Toei · ฿
177 Na Ranong Rd, Khwaeng Khlong Toei, Khet Khlong Toei, Krung Thep Maha Nakhon 10110, Thailand
https://www.google.com/maps/place/?q=place_id:ChIJh7kAOROf4jARIO-uCg69FLU
ข้อมูลจาก ChefMinistry — chefministry.com</description>
      <ExtendedData>
        <Data name="rating"><value>4.4</value></Data>
        <Data name="reviews"><value>212</value></Data>
        <Data name="cuisine"><value>Chinese</value></Data>
        <Data name="area"><value>Khlong Toei</value></Data>
        <Data name="google_maps"><value>https://www.google.com/maps/place/?q=place_id:ChIJh7kAOROf4jARIO-uCg69FLU</value></Data>
      </ExtendedData>
      <Point><coordinates>100.55933449999999,13.711451499999999,0</coordinates></Point>
    </Placemark>
    <Placemark>
      <styleUrl>#cm0</styleUrl>
      <name>นันฟ้าเป็ดย่าง สูตรฮ่องกง</name>
      <description>⭐ 4.4 (209 รีวิว) · Chinese · Phra Nakhon · ฿
164 Dinso Rd, Khwaeng Sao Chingcha, Khet Phra Nakhon, Krung Thep Maha Nakhon 10200, Thailand
https://www.google.com/maps/place/?q=place_id:ChIJVTI38ROZ4jAR7MQAb0T9HiE
ข้อมูลจาก ChefMinistry — chefministry.com</description>
      <ExtendedData>
        <Data name="rating"><value>4.4</value></Data>
        <Data name="reviews"><value>209</value></Data>
        <Data name="cuisine"><value>Chinese</value></Data>
        <Data name="area"><value>Phra Nakhon</value></Data>
        <Data name="google_maps"><value>https://www.google.com/maps/place/?q=place_id:ChIJVTI38ROZ4jAR7MQAb0T9HiE</value></Data>
      </ExtendedData>
      <Point><coordinates>100.5010956,13.7540144,0</coordinates></Point>
    </Placemark>
    <Placemark>
      <styleUrl>#cm0</styleUrl>
      <name>เป็ดย่างประตูทอง</name>
      <description>⭐ 4.3 (212 รีวิว) · Chinese · คลองจั่น · ฿
102 ซอย Thanon Happy Land Sai 2, Khwaeng Khlong Chan, Khet Bang Kapi, Krung Thep Maha Nakhon 10240, Thailand
https://www.google.com/maps/place/?q=place_id:ChIJy1ejpYxhHTER2AYf1rKX-WM
ข้อมูลจาก ChefMinistry — chefministry.com</description>
      <ExtendedData>
        <Data name="rating"><value>4.3</value></Data>
        <Data name="reviews"><value>212</value></Data>
        <Data name="cuisine"><value>Chinese</value></Data>
        <Data name="area"><value>คลองจั่น</value></Data>
        <Data name="google_maps"><value>https://www.google.com/maps/place/?q=place_id:ChIJy1ejpYxhHTER2AYf1rKX-WM</value></Data>
      </ExtendedData>
      <Point><coordinates>100.6429983,13.7693329,0</coordinates></Point>
    </Placemark>
    <Placemark>
      <styleUrl>#cm0</styleUrl>
      <name>สุชิน เป็ดย่าง</name>
      <description>⭐ 4.3 (204 รีวิว) · Chinese · Huai Khwang · ฿
520 Soi Pracha Rat Bamphen 24, Lane 2, Khwaeng Samsen Nok, Khet Huai Khwang, Krung Thep Maha Nakhon 10310, Thailand
https://www.google.com/maps/place/?q=place_id:ChIJVVXF4Ned4jAROZoIbogygLI
ข้อมูลจาก ChefMinistry — chefministry.com</description>
      <ExtendedData>
        <Data name="rating"><value>4.3</value></Data>
        <Data name="reviews"><value>204</value></Data>
        <Data name="cuisine"><value>Chinese</value></Data>
        <Data name="area"><value>Huai Khwang</value></Data>
        <Data name="google_maps"><value>https://www.google.com/maps/place/?q=place_id:ChIJVVXF4Ned4jAROZoIbogygLI</value></Data>
      </ExtendedData>
      <Point><coordinates>100.58462709999999,13.7783654,0</coordinates></Point>
    </Placemark>
  </Folder>
</Document></kml>