<?xml version="1.0" encoding="UTF-8"?>
<kml xmlns="http://www.opengis.net/kml/2.2">
<Document>
  <name>ChefMinistry — 🍽️ Fine Dining &amp; Omakase</name>
  <description>อัปเดต 2026-07-31 — chefministry.com</description>
  <Style id="cm0"><IconStyle><color>ff2b52c9</color><Icon><href>http://maps.google.com/mapfiles/kml/shapes/dining.png</href></Icon></IconStyle></Style>
  <Folder>
    <name>🍽️ Fine Dining &amp; Omakase</name>
    <Placemark>
      <styleUrl>#cm0</styleUrl>
      <name>Octave Rooftop Lounge and Bar Bangkok Marriott Hotel Sukhumvit</name>
      <description>⭐ 4.4 (6,131 รีวิว) · Other · Thonglor · ฿฿฿฿
2 ซอย, Sukhumvit Rd, Khwaeng Khlong Tan Nuea, Watthana, Krung Thep Maha Nakhon 10110, Thailand
https://www.google.com/maps/place/?q=place_id:ChIJhxshNqWf4jARgYxEW8hBGcE
ข้อมูลจาก ChefMinistry — chefministry.com</description>
      <ExtendedData>
        <Data name="rating"><value>4.4</value></Data>
        <Data name="reviews"><value>6131</value></Data>
        <Data name="cuisine"><value>Other</value></Data>
        <Data name="area"><value>Thonglor</value></Data>
        <Data name="google_maps"><value>https://www.google.com/maps/place/?q=place_id:ChIJhxshNqWf4jARgYxEW8hBGcE</value></Data>
      </ExtendedData>
      <Point><coordinates>100.58054260000002,13.723502300000002,0</coordinates></Point>
    </Placemark>
    <Placemark>
      <styleUrl>#cm0</styleUrl>
      <name>Sühring</name>
      <description>⭐ 4.6 (1,740 รีวิว) · Modern German Fine Dining · Yan Nawa · ฿฿฿
10 Soi Yen Akat 3, Khwaeng Chong Nonsi, Khet Yan Nawa, Krung Thep Maha Nakhon 10120, Thailand
https://www.google.com/maps/place/?q=place_id:ChIJa4FyWkef4jARYosTC995W8U
ข้อมูลจาก ChefMinistry — chefministry.com</description>
      <ExtendedData>
        <Data name="rating"><value>4.6</value></Data>
        <Data name="reviews"><value>1740</value></Data>
        <Data name="cuisine"><value>Modern German Fine Dining</value></Data>
        <Data name="area"><value>Yan Nawa</value></Data>
        <Data name="google_maps"><value>https://www.google.com/maps/place/?q=place_id:ChIJa4FyWkef4jARYosTC995W8U</value></Data>
      </ExtendedData>
      <Point><coordinates>100.54548709999999,13.7108133,0</coordinates></Point>
    </Placemark>
    <Placemark>
      <styleUrl>#cm0</styleUrl>
      <name>Su Ra Kan</name>
      <description>⭐ 4.8 (1,212 รีวิว) · Korean · Ekkamai · ฿฿฿
เลขที่ 126/7-8, ปาร์ค อเวนิว, Thanon Ekkamai, Khwaeng Khlong Tan Nuea, Watthana, Krung Thep Maha Nakhon 10110, Thailand
https://www.google.com/maps/place/?q=place_id:ChIJiT2icQCf4jAR_jS4pyWfgUs
ข้อมูลจาก ChefMinistry — chefministry.com</description>
      <ExtendedData>
        <Data name="rating"><value>4.8</value></Data>
        <Data name="reviews"><value>1212</value></Data>
        <Data name="cuisine"><value>Korean</value></Data>
        <Data name="area"><value>Ekkamai</value></Data>
        <Data name="google_maps"><value>https://www.google.com/maps/place/?q=place_id:ChIJiT2icQCf4jAR_jS4pyWfgUs</value></Data>
      </ExtendedData>
      <Point><coordinates>100.5871379,13.731514899999999,0</coordinates></Point>
    </Placemark>
    <Placemark>
      <styleUrl>#cm0</styleUrl>
      <name>Khao เอกมัย</name>
      <description>⭐ 4.4 (1,602 รีวิว) · Thai · Ekkamai · ฿฿฿฿
15 Soi Charoen Mit, Khwaeng Khlong Tan Nuea, Khlongtun Nua, Krung Thep Maha Nakhon 10110, Thailand
https://www.google.com/maps/place/?q=place_id:ChIJ90yP-aqf4jARQCQP5J9K69c
ข้อมูลจาก ChefMinistry — chefministry.com</description>
      <ExtendedData>
        <Data name="rating"><value>4.4</value></Data>
        <Data name="reviews"><value>1602</value></Data>
        <Data name="cuisine"><value>Thai</value></Data>
        <Data name="area"><value>Ekkamai</value></Data>
        <Data name="google_maps"><value>https://www.google.com/maps/place/?q=place_id:ChIJ90yP-aqf4jARQCQP5J9K69c</value></Data>
      </ExtendedData>
      <Point><coordinates>100.58784449999999,13.7292347,0</coordinates></Point>
    </Placemark>
    <Placemark>
      <styleUrl>#cm0</styleUrl>
      <name>Gogilang โกกิลัง 고기랑</name>
      <description>⭐ 4.8 (1,182 รีวิว) · Korean · Pathumwan · ฿฿฿
2030 Banthat Thong Rd, Khwaeng Wang Mai, Pathum Wan, Krung Thep Maha Nakhon 10330, Thailand
https://www.google.com/maps/place/?q=place_id:ChIJJ9awVP6Z4jARG63KgxNla-Y
ข้อมูลจาก ChefMinistry — chefministry.com</description>
      <ExtendedData>
        <Data name="rating"><value>4.8</value></Data>
        <Data name="reviews"><value>1182</value></Data>
        <Data name="cuisine"><value>Korean</value></Data>
        <Data name="area"><value>Pathumwan</value></Data>
        <Data name="google_maps"><value>https://www.google.com/maps/place/?q=place_id:ChIJJ9awVP6Z4jARG63KgxNla-Y</value></Data>
      </ExtendedData>
      <Point><coordinates>100.521701,13.7369237,0</coordinates></Point>
    </Placemark>
    <Placemark>
      <styleUrl>#cm0</styleUrl>
      <name>YAKINIKU MASTER SHOUTAIAN (MATSUSAKA WAGYU)</name>
      <description>⭐ 4.9 (992 รีวิว) · Yakiniku · Watthana · ฿฿฿
27 Hotel Nikko Bangkok,3rdFloor,315 Room, ถ. ทองหล่อ klongton-nua, เขตวัฒนา กรุงเทพมหานคร 10110, Thailand
https://www.google.com/maps/place/?q=place_id:ChIJFb6qt_ef4jAR3BgU450v7D4
ข้อมูลจาก ChefMinistry — chefministry.com</description>
      <ExtendedData>
        <Data name="rating"><value>4.9</value></Data>
        <Data name="reviews"><value>992</value></Data>
        <Data name="cuisine"><value>Yakiniku</value></Data>
        <Data name="area"><value>Watthana</value></Data>
        <Data name="google_maps"><value>https://www.google.com/maps/place/?q=place_id:ChIJFb6qt_ef4jAR3BgU450v7D4</value></Data>
      </ExtendedData>
      <Point><coordinates>100.578863,13.725210299999999,0</coordinates></Point>
    </Placemark>
    <Placemark>
      <styleUrl>#cm0</styleUrl>
      <name>肉々亭 Shishitei 肉々亭 Shishitei</name>
      <description>⭐ 4.8 (999 รีวิว) · Japanese · Ekkamai · ฿฿฿
111/3 Soi Ekkamai 5, Khwaeng Khlong Tan Nuea, Watthana, Krung Thep Maha Nakhon 10110, Thailand
https://www.google.com/maps/place/?q=place_id:ChIJM_5XpNqf4jAR_Zd0Vf4erZc
ข้อมูลจาก ChefMinistry — chefministry.com</description>
      <ExtendedData>
        <Data name="rating"><value>4.8</value></Data>
        <Data name="reviews"><value>999</value></Data>
        <Data name="cuisine"><value>Japanese</value></Data>
        <Data name="area"><value>Ekkamai</value></Data>
        <Data name="google_maps"><value>https://www.google.com/maps/place/?q=place_id:ChIJM_5XpNqf4jAR_Zd0Vf4erZc</value></Data>
      </ExtendedData>
      <Point><coordinates>100.58514319999999,13.7309013,0</coordinates></Point>
    </Placemark>
    <Placemark>
      <styleUrl>#cm0</styleUrl>
      <name>ROKUTAN Yakiniku</name>
      <description>⭐ 4.9 (783 รีวิว) · Yakiniku · Wang Thonglang · ฿฿฿
445/4 Pradit Manutham Rd, Khwaeng Wang Thonglang, Khet Wang Thonglang, Krung Thep Maha Nakhon 10310, Thailand
https://www.google.com/maps/place/?q=place_id:ChIJl0irLMmf4jAR45V8S7VGbxo
ข้อมูลจาก ChefMinistry — chefministry.com</description>
      <ExtendedData>
        <Data name="rating"><value>4.9</value></Data>
        <Data name="reviews"><value>783</value></Data>
        <Data name="cuisine"><value>Yakiniku</value></Data>
        <Data name="area"><value>Wang Thonglang</value></Data>
        <Data name="google_maps"><value>https://www.google.com/maps/place/?q=place_id:ChIJl0irLMmf4jAR45V8S7VGbxo</value></Data>
      </ExtendedData>
      <Point><coordinates>100.60628969999999,13.776408799999999,0</coordinates></Point>
    </Placemark>
    <Placemark>
      <styleUrl>#cm0</styleUrl>
      <name>Sushi Masato</name>
      <description>⭐ 4.8 (799 รีวิว) · Japanese Omakase · Watthana · ฿฿฿
3 22 Soi Sawatdi, Khwaeng Khlong Toei Nuea, Watthana, Krung Thep Maha Nakhon 10110, Thailand
https://www.google.com/maps/place/?q=place_id:ChIJob7bn_2e4jARUP-ZMAVjLc8
ข้อมูลจาก ChefMinistry — chefministry.com</description>
      <ExtendedData>
        <Data name="rating"><value>4.8</value></Data>
        <Data name="reviews"><value>799</value></Data>
        <Data name="cuisine"><value>Japanese Omakase</value></Data>
        <Data name="area"><value>Watthana</value></Data>
        <Data name="google_maps"><value>https://www.google.com/maps/place/?q=place_id:ChIJob7bn_2e4jARUP-ZMAVjLc8</value></Data>
      </ExtendedData>
      <Point><coordinates>100.5661069,13.734469899999999,0</coordinates></Point>
    </Placemark>
    <Placemark>
      <styleUrl>#cm0</styleUrl>
      <name>Nihon No Yakiniku นิฮนโนะยากินิกุ 日本の焼肉</name>
      <description>⭐ 4.9 (745 รีวิว) · Yakiniku · Bang Rak · ฿฿฿
9 2 Soi Anuman 1/1, Khwaeng Suriya Wong, Khet Bang Rak, Krung Thep Maha Nakhon 10500, Thailand
https://www.google.com/maps/place/?q=place_id:ChIJp-wvAQCf4jAR2aisa7fWnU8
ข้อมูลจาก ChefMinistry — chefministry.com</description>
      <ExtendedData>
        <Data name="rating"><value>4.9</value></Data>
        <Data name="reviews"><value>745</value></Data>
        <Data name="cuisine"><value>Yakiniku</value></Data>
        <Data name="area"><value>Bang Rak</value></Data>
        <Data name="google_maps"><value>https://www.google.com/maps/place/?q=place_id:ChIJp-wvAQCf4jAR2aisa7fWnU8</value></Data>
      </ExtendedData>
      <Point><coordinates>100.5300542,13.728992,0</coordinates></Point>
    </Placemark>
    <Placemark>
      <styleUrl>#cm0</styleUrl>
      <name>298 Nikuya Yakiniku</name>
      <description>⭐ 4.9 (714 รีวิว) · Yakiniku · Watthana · ฿฿฿
2/34 Soi Sukhumvit 41, Khwaeng Khlong Tan Nuea, Watthana, Krung Thep Maha Nakhon 10110, Thailand
https://www.google.com/maps/place/?q=place_id:ChIJf9_CQHaf4jARb9vVCkBnhnI
ข้อมูลจาก ChefMinistry — chefministry.com</description>
      <ExtendedData>
        <Data name="rating"><value>4.9</value></Data>
        <Data name="reviews"><value>714</value></Data>
        <Data name="cuisine"><value>Yakiniku</value></Data>
        <Data name="area"><value>Watthana</value></Data>
        <Data name="google_maps"><value>https://www.google.com/maps/place/?q=place_id:ChIJf9_CQHaf4jARb9vVCkBnhnI</value></Data>
      </ExtendedData>
      <Point><coordinates>100.5726534,13.7293722,0</coordinates></Point>
    </Placemark>
    <Placemark>
      <styleUrl>#cm0</styleUrl>
      <name>GAMSA Korean BBQ House</name>
      <description>⭐ 4.8 (745 รีวิว) · Korean · Phaya Thai · ฿฿฿
25/4 Soi King Chamnan Aksorn, Phaya Thai, Khet Phaya Thai, Krung Thep Maha Nakhon 10400, Thailand
https://www.google.com/maps/place/?q=place_id:ChIJ-x8i3-qd4jARdOyx5awArGQ
ข้อมูลจาก ChefMinistry — chefministry.com</description>
      <ExtendedData>
        <Data name="rating"><value>4.8</value></Data>
        <Data name="reviews"><value>745</value></Data>
        <Data name="cuisine"><value>Korean</value></Data>
        <Data name="area"><value>Phaya Thai</value></Data>
        <Data name="google_maps"><value>https://www.google.com/maps/place/?q=place_id:ChIJ-x8i3-qd4jARdOyx5awArGQ</value></Data>
      </ExtendedData>
      <Point><coordinates>100.5455497,13.785862199999999,0</coordinates></Point>
    </Placemark>
    <Placemark>
      <styleUrl>#cm0</styleUrl>
      <name>R.HAAN</name>
      <description>⭐ 4.3 (1,051 รีวิว) · Thai · Thonglor · ฿฿฿
131 ซอย ทองหล่อ 9 Khwaeng Khlong Tan Nuea, Watthana, Krung Thep Maha Nakhon 10110, Thailand
https://www.google.com/maps/place/?q=place_id:ChIJ-dmMWquf4jAREDFTxbjSFh0
ข้อมูลจาก ChefMinistry — chefministry.com</description>
      <ExtendedData>
        <Data name="rating"><value>4.3</value></Data>
        <Data name="reviews"><value>1051</value></Data>
        <Data name="cuisine"><value>Thai</value></Data>
        <Data name="area"><value>Thonglor</value></Data>
        <Data name="google_maps"><value>https://www.google.com/maps/place/?q=place_id:ChIJ-dmMWquf4jAREDFTxbjSFh0</value></Data>
      </ExtendedData>
      <Point><coordinates>100.5795655,13.731832100000002,0</coordinates></Point>
    </Placemark>
    <Placemark>
      <styleUrl>#cm0</styleUrl>
      <name>พีซ โอเรียนทอล ทีเฮ้าส์</name>
      <description>⭐ 4.5 (860 รีวิว) · Matcha Cafe · Watthana · ฿฿฿
47 Soi Sukhumvit 49/1, Khwaeng Khlong Tan Nuea, Watthana, Krung Thep Maha Nakhon 10110, Thailand
https://www.google.com/maps/place/?q=place_id:ChIJl-6ex6qf4jAR6SkFD41m0Og
ข้อมูลจาก ChefMinistry — chefministry.com</description>
      <ExtendedData>
        <Data name="rating"><value>4.5</value></Data>
        <Data name="reviews"><value>860</value></Data>
        <Data name="cuisine"><value>Matcha Cafe</value></Data>
        <Data name="area"><value>Watthana</value></Data>
        <Data name="google_maps"><value>https://www.google.com/maps/place/?q=place_id:ChIJl-6ex6qf4jAR6SkFD41m0Og</value></Data>
      </ExtendedData>
      <Point><coordinates>100.5760389,13.731799100000002,0</coordinates></Point>
    </Placemark>
    <Placemark>
      <styleUrl>#cm0</styleUrl>
      <name>Wolfgang's Steakhouse Bangkok</name>
      <description>⭐ 4.7 (730 รีวิว) · American Steakhouse · Pathumwan · ฿฿฿
One Bangkok 199 Storey's 3rd Floor Khwaeng Lumphini, Pathum Wan, Krung Thep Maha Nakhon 10330, Thailand
https://www.google.com/maps/place/?q=place_id:ChIJlRJUVSif4jARmqSVwEYnLQs
ข้อมูลจาก ChefMinistry — chefministry.com</description>
      <ExtendedData>
        <Data name="rating"><value>4.7</value></Data>
        <Data name="reviews"><value>730</value></Data>
        <Data name="cuisine"><value>American Steakhouse</value></Data>
        <Data name="area"><value>Pathumwan</value></Data>
        <Data name="google_maps"><value>https://www.google.com/maps/place/?q=place_id:ChIJlRJUVSif4jARmqSVwEYnLQs</value></Data>
      </ExtendedData>
      <Point><coordinates>100.54540720000001,13.726869899999999,0</coordinates></Point>
    </Placemark>
    <Placemark>
      <styleUrl>#cm0</styleUrl>
      <name>ยะกินิกุ เอ็น</name>
      <description>⭐ 4.7 (703 รีวิว) · Yakiniku · คลองเตย · ฿฿฿
เลขที่ 18 ห้องเลขที่ A107 Bambini Villa 108 ชั้น 1 ซ. อรรถกระวี 1 Khwaeng Khlong Tan, Khet Khlong Toei, Krung Thep Maha Nakhon 10110, Thailand
https://www.google.com/maps/place/?q=place_id:ChIJMVu6FgGf4jARmGv42i21mZA
ข้อมูลจาก ChefMinistry — chefministry.com</description>
      <ExtendedData>
        <Data name="rating"><value>4.7</value></Data>
        <Data name="reviews"><value>703</value></Data>
        <Data name="cuisine"><value>Yakiniku</value></Data>
        <Data name="area"><value>คลองเตย</value></Data>
        <Data name="google_maps"><value>https://www.google.com/maps/place/?q=place_id:ChIJMVu6FgGf4jARmGv42i21mZA</value></Data>
      </ExtendedData>
      <Point><coordinates>100.57047730000001,13.719352299999999,0</coordinates></Point>
    </Placemark>
    <Placemark>
      <styleUrl>#cm0</styleUrl>
      <name>Saneh Jaan</name>
      <description>⭐ 4.3 (940 รีวิว) · Thai Fine Dining · Pathumwan · ฿฿฿
130 Thanon Witthayu, Khwaeng Lumphini, Pathum Wan, Krung Thep Maha Nakhon 10330, Thailand
https://www.google.com/maps/place/?q=place_id:ChIJUWI9ztie4jARZTiHjCyTWao
ข้อมูลจาก ChefMinistry — chefministry.com</description>
      <ExtendedData>
        <Data name="rating"><value>4.3</value></Data>
        <Data name="reviews"><value>940</value></Data>
        <Data name="cuisine"><value>Thai Fine Dining</value></Data>
        <Data name="area"><value>Pathumwan</value></Data>
        <Data name="google_maps"><value>https://www.google.com/maps/place/?q=place_id:ChIJUWI9ztie4jARZTiHjCyTWao</value></Data>
      </ExtendedData>
      <Point><coordinates>100.5457857,13.735553699999999,0</coordinates></Point>
    </Placemark>
    <Placemark>
      <styleUrl>#cm0</styleUrl>
      <name>Gaa</name>
      <description>⭐ 4.4 (861 รีวิว) · Indian Progressive Fine Dining · Watthana · ฿฿฿
46, 1 Soi Sukhumvit 53, Khwaeng Khlong Tan Nuea, Watthana, Krung Thep Maha Nakhon 10110, Thailand
https://www.google.com/maps/place/?q=place_id:ChIJ9Rn3Stqe4jARvC9rgWzu31Q
ข้อมูลจาก ChefMinistry — chefministry.com</description>
      <ExtendedData>
        <Data name="rating"><value>4.4</value></Data>
        <Data name="reviews"><value>861</value></Data>
        <Data name="cuisine"><value>Indian Progressive Fine Dining</value></Data>
        <Data name="area"><value>Watthana</value></Data>
        <Data name="google_maps"><value>https://www.google.com/maps/place/?q=place_id:ChIJ9Rn3Stqe4jARvC9rgWzu31Q</value></Data>
      </ExtendedData>
      <Point><coordinates>100.5782473,13.7273792,0</coordinates></Point>
    </Placemark>
    <Placemark>
      <styleUrl>#cm0</styleUrl>
      <name>Côte by Mauro Colagreco</name>
      <description>⭐ 4.8 (628 รีวิว) · Mediterranean Fine Dining · Bangkok · ฿฿฿
300/2 ถ. เจริญกรุง Khwaeng Yan Nawa, Khet Sathon, Krung Thep Maha Nakhon 10120, Thailand
https://www.google.com/maps/place/?q=place_id:ChIJf8OOlnmZ4jAR1XxCVTOPfPY
ข้อมูลจาก ChefMinistry — chefministry.com</description>
      <ExtendedData>
        <Data name="rating"><value>4.8</value></Data>
        <Data name="reviews"><value>628</value></Data>
        <Data name="cuisine"><value>Mediterranean Fine Dining</value></Data>
        <Data name="area"><value>Bangkok</value></Data>
        <Data name="google_maps"><value>https://www.google.com/maps/place/?q=place_id:ChIJf8OOlnmZ4jAR1XxCVTOPfPY</value></Data>
      </ExtendedData>
      <Point><coordinates>100.51084689999999,13.7130923,0</coordinates></Point>
    </Placemark>
    <Placemark>
      <styleUrl>#cm0</styleUrl>
      <name>เรนะ ยากินิกุ บุฟเฟต์ปิ้งย่างสไตล์ญี่ปุ่น</name>
      <description>⭐ 4.8 (591 รีวิว) · Yakiniku · Bang Kho Laem · ฿฿฿
101(A, Eatery, Thanon Charoen Rat, Khwaeng Bang Khlo, Khet Bang Kho Laem, Krung Thep Maha Nakhon 10120, Thailand
https://www.google.com/maps/place/?q=place_id:ChIJJbgEqYKf4jARuX1osMXJd5M
ข้อมูลจาก ChefMinistry — chefministry.com</description>
      <ExtendedData>
        <Data name="rating"><value>4.8</value></Data>
        <Data name="reviews"><value>591</value></Data>
        <Data name="cuisine"><value>Yakiniku</value></Data>
        <Data name="area"><value>Bang Kho Laem</value></Data>
        <Data name="google_maps"><value>https://www.google.com/maps/place/?q=place_id:ChIJJbgEqYKf4jARuX1osMXJd5M</value></Data>
      </ExtendedData>
      <Point><coordinates>100.5120972,13.693097,0</coordinates></Point>
    </Placemark>
    <Placemark>
      <styleUrl>#cm0</styleUrl>
      <name>Restaurant POTONG</name>
      <description>⭐ 4.6 (674 รีวิว) · Progressive Thai-Chinese Fine Dining · Yaowarat · ฿฿฿
422 Soi Wanit 1, Khwaeng Samphanthawong, Khet Samphanthawong, Krung Thep Maha Nakhon 10100, Thailand
https://www.google.com/maps/place/?q=place_id:ChIJd7grWxeZ4jAR8KwClMpGmHo
ข้อมูลจาก ChefMinistry — chefministry.com</description>
      <ExtendedData>
        <Data name="rating"><value>4.6</value></Data>
        <Data name="reviews"><value>674</value></Data>
        <Data name="cuisine"><value>Progressive Thai-Chinese Fine Dining</value></Data>
        <Data name="area"><value>Yaowarat</value></Data>
        <Data name="google_maps"><value>https://www.google.com/maps/place/?q=place_id:ChIJd7grWxeZ4jAR8KwClMpGmHo</value></Data>
      </ExtendedData>
      <Point><coordinates>100.5084933,13.739154899999999,0</coordinates></Point>
    </Placemark>
    <Placemark>
      <styleUrl>#cm0</styleUrl>
      <name>Nusara</name>
      <description>⭐ 4.5 (721 รีวิว) · Modern Thai Fine Dining · Phra Nakhon · ฿฿฿
336 Thanon Maha Rat, Khwaeng Phra Borom Maha Ratchawang, Khet Phra Nakhon, Krung Thep Maha Nakhon 10200, Thailand
https://www.google.com/maps/place/?q=place_id:ChIJe_d6d0OZ4jARL0uQgNHQRPI
ข้อมูลจาก ChefMinistry — chefministry.com</description>
      <ExtendedData>
        <Data name="rating"><value>4.5</value></Data>
        <Data name="reviews"><value>721</value></Data>
        <Data name="cuisine"><value>Modern Thai Fine Dining</value></Data>
        <Data name="area"><value>Phra Nakhon</value></Data>
        <Data name="google_maps"><value>https://www.google.com/maps/place/?q=place_id:ChIJe_d6d0OZ4jARL0uQgNHQRPI</value></Data>
      </ExtendedData>
      <Point><coordinates>100.49152819999999,13.7457026,0</coordinates></Point>
    </Placemark>
    <Placemark>
      <styleUrl>#cm0</styleUrl>
      <name>โชไทอัน โตเกียว ชาบู ชาบู</name>
      <description>⭐ 4.8 (563 รีวิว) · Hot Pot / Suki · Pathumwan · ฿฿฿
34-3 Room 104 Vivre, Khwaeng Lumphini, Pathum Wan, Krung Thep Maha Nakhon 10330, Thailand
https://www.google.com/maps/place/?q=place_id:ChIJw1pD2VKf4jARKcEORByRS4M
ข้อมูลจาก ChefMinistry — chefministry.com</description>
      <ExtendedData>
        <Data name="rating"><value>4.8</value></Data>
        <Data name="reviews"><value>563</value></Data>
        <Data name="cuisine"><value>Hot Pot / Suki</value></Data>
        <Data name="area"><value>Pathumwan</value></Data>
        <Data name="google_maps"><value>https://www.google.com/maps/place/?q=place_id:ChIJw1pD2VKf4jARKcEORByRS4M</value></Data>
      </ExtendedData>
      <Point><coordinates>100.5433473,13.741714799999999,0</coordinates></Point>
    </Placemark>
    <Placemark>
      <styleUrl>#cm0</styleUrl>
      <name>คลังเนื้อ Yakiniku Grill &amp; Chill พรานนก</name>
      <description>⭐ 4.9 (514 รีวิว) · Yakiniku · Taling Chan · ฿฿฿
บางเชือกหนัก 59 Phran Nok Phutthamonthon Sai 4 Rd, Khwaeng Bang Chueak Nang, Khet Taling Chan, Krung Thep Maha Nakhon 10170, Thailand
https://www.google.com/maps/place/?q=place_id:ChIJB0KfVwGX4jARf4c7jwNSXRg
ข้อมูลจาก ChefMinistry — chefministry.com</description>
      <ExtendedData>
        <Data name="rating"><value>4.9</value></Data>
        <Data name="reviews"><value>514</value></Data>
        <Data name="cuisine"><value>Yakiniku</value></Data>
        <Data name="area"><value>Taling Chan</value></Data>
        <Data name="google_maps"><value>https://www.google.com/maps/place/?q=place_id:ChIJB0KfVwGX4jARf4c7jwNSXRg</value></Data>
      </ExtendedData>
      <Point><coordinates>100.40905869999999,13.754044799999999,0</coordinates></Point>
    </Placemark>
    <Placemark>
      <styleUrl>#cm0</styleUrl>
      <name>MIA Bangkok</name>
      <description>⭐ 4.8 (548 รีวิว) · Contemporary Fine Dining · Khlong Toei · ฿฿฿
30 Soi Attha Kawi 1, Khwaeng Khlong Tan, Khet Khlong Toei, Krung Thep Maha Nakhon 10110, Thailand
https://www.google.com/maps/place/?q=place_id:ChIJTbzH3iWf4jARdfwR4GLGTZ8
ข้อมูลจาก ChefMinistry — chefministry.com</description>
      <ExtendedData>
        <Data name="rating"><value>4.8</value></Data>
        <Data name="reviews"><value>548</value></Data>
        <Data name="cuisine"><value>Contemporary Fine Dining</value></Data>
        <Data name="area"><value>Khlong Toei</value></Data>
        <Data name="google_maps"><value>https://www.google.com/maps/place/?q=place_id:ChIJTbzH3iWf4jARdfwR4GLGTZ8</value></Data>
      </ExtendedData>
      <Point><coordinates>100.5712787,13.7213487,0</coordinates></Point>
    </Placemark>
    <Placemark>
      <styleUrl>#cm0</styleUrl>
      <name>Domo Yakiniku</name>
      <description>⭐ 4.8 (541 รีวิว) · Yakiniku · Pathumwan · ฿฿฿
Room 424-425 4th Floor, 991, Siam Center, Rama I Rd, Khwaeng Pathum Wan, Pathum Wan, Krung Thep Maha Nakhon 10330, Thailand
https://www.google.com/maps/place/?q=place_id:ChIJ7z7sVQCf4jARrBUgmNK8zJ4
ข้อมูลจาก ChefMinistry — chefministry.com</description>
      <ExtendedData>
        <Data name="rating"><value>4.8</value></Data>
        <Data name="reviews"><value>541</value></Data>
        <Data name="cuisine"><value>Yakiniku</value></Data>
        <Data name="area"><value>Pathumwan</value></Data>
        <Data name="google_maps"><value>https://www.google.com/maps/place/?q=place_id:ChIJ7z7sVQCf4jARrBUgmNK8zJ4</value></Data>
      </ExtendedData>
      <Point><coordinates>100.53477919999999,13.7461302,0</coordinates></Point>
    </Placemark>
    <Placemark>
      <styleUrl>#cm0</styleUrl>
      <name>pink typhoon creative pasta steak ari พิ้งค์ ไต้ฝุ่น ครีเอทีฟ พาสต้า สเต๊ก อารีย</name>
      <description>⭐ 4.8 (528 รีวิว) · Steakhouse · Ari · ฿฿
20, 1 Soi Ari Samphan 7 Alley, Phaya Thai, Khet Phaya Thai, Krung Thep Maha Nakhon 10400, Thailand
https://www.google.com/maps/place/?q=place_id:ChIJK7JIRtKe4jARy83GOjGjIbk
ข้อมูลจาก ChefMinistry — chefministry.com</description>
      <ExtendedData>
        <Data name="rating"><value>4.8</value></Data>
        <Data name="reviews"><value>528</value></Data>
        <Data name="cuisine"><value>Steakhouse</value></Data>
        <Data name="area"><value>Ari</value></Data>
        <Data name="google_maps"><value>https://www.google.com/maps/place/?q=place_id:ChIJK7JIRtKe4jARy83GOjGjIbk</value></Data>
      </ExtendedData>
      <Point><coordinates>100.5355866,13.7781326,0</coordinates></Point>
    </Placemark>
    <Placemark>
      <styleUrl>#cm0</styleUrl>
      <name>Opus The Italian Wine Bar &amp; Restaurant</name>
      <description>⭐ 4.6 (592 รีวิว) · Italian Steakhouse · Bang Rak · ฿฿฿
64 Thanon Pan, Si Lom, Khet Bang Rak, Krung Thep Maha Nakhon 10500, Thailand
https://www.google.com/maps/place/?q=place_id:ChIJY9qOds6Y4jAR7y-nEcW7gF0
ข้อมูลจาก ChefMinistry — chefministry.com</description>
      <ExtendedData>
        <Data name="rating"><value>4.6</value></Data>
        <Data name="reviews"><value>592</value></Data>
        <Data name="cuisine"><value>Italian Steakhouse</value></Data>
        <Data name="area"><value>Bang Rak</value></Data>
        <Data name="google_maps"><value>https://www.google.com/maps/place/?q=place_id:ChIJY9qOds6Y4jAR7y-nEcW7gF0</value></Data>
      </ExtendedData>
      <Point><coordinates>100.5234354,13.7218894,0</coordinates></Point>
    </Placemark>
    <Placemark>
      <styleUrl>#cm0</styleUrl>
      <name>Sorn</name>
      <description>⭐ 4.6 (588 รีวิว) · Southern Thai Fine Dining · Khlong Toei · ฿฿฿
56 Sukhumvit 26, Khwaeng Khlong Tan Nuea, Khet Khlong Toei, Krung Thep Maha Nakhon 10110, Thailand
https://www.google.com/maps/place/?q=place_id:ChIJWfYJ3QWf4jAR9erXv7kK7sA
ข้อมูลจาก ChefMinistry — chefministry.com</description>
      <ExtendedData>
        <Data name="rating"><value>4.6</value></Data>
        <Data name="reviews"><value>588</value></Data>
        <Data name="cuisine"><value>Southern Thai Fine Dining</value></Data>
        <Data name="area"><value>Khlong Toei</value></Data>
        <Data name="google_maps"><value>https://www.google.com/maps/place/?q=place_id:ChIJWfYJ3QWf4jAR9erXv7kK7sA</value></Data>
      </ExtendedData>
      <Point><coordinates>100.5685251,13.7231004,0</coordinates></Point>
    </Placemark>
    <Placemark>
      <styleUrl>#cm0</styleUrl>
      <name>ยากินิคุ คิราบิ</name>
      <description>⭐ 4.5 (588 รีวิว) · Yakiniku · Watthana · ฿฿฿
46 1 Soi Sukhumvit 51, Khwaeng Khlong Tan Nuea, Watthana, Krung Thep Maha Nakhon 10110, Thailand
https://www.google.com/maps/place/?q=place_id:ChIJn3XlNqqf4jARX_1HiS1YfsY
ข้อมูลจาก ChefMinistry — chefministry.com</description>
      <ExtendedData>
        <Data name="rating"><value>4.5</value></Data>
        <Data name="reviews"><value>588</value></Data>
        <Data name="cuisine"><value>Yakiniku</value></Data>
        <Data name="area"><value>Watthana</value></Data>
        <Data name="google_maps"><value>https://www.google.com/maps/place/?q=place_id:ChIJn3XlNqqf4jARX_1HiS1YfsY</value></Data>
      </ExtendedData>
      <Point><coordinates>100.5768775,13.728043,0</coordinates></Point>
    </Placemark>
    <Placemark>
      <styleUrl>#cm0</styleUrl>
      <name>KINKI Japanese Progressive Dining &amp;amp; Bar ทองหล่อ</name>
      <description>⭐ 4.7 (487 รีวิว) · Japanese · Thonglor · ฿฿฿฿
Ascott Thonglor Bangkok, 1 Sukhumvit 59, Khwaeng Khlong Tan Nuea, Watthana, Krung Thep Maha Nakhon 10110, Thailand
https://www.google.com/maps/place/?q=place_id:ChIJefk0zkCf4jARRkgTtr3XnUg
ข้อมูลจาก ChefMinistry — chefministry.com</description>
      <ExtendedData>
        <Data name="rating"><value>4.7</value></Data>
        <Data name="reviews"><value>487</value></Data>
        <Data name="cuisine"><value>Japanese</value></Data>
        <Data name="area"><value>Thonglor</value></Data>
        <Data name="google_maps"><value>https://www.google.com/maps/place/?q=place_id:ChIJefk0zkCf4jARRkgTtr3XnUg</value></Data>
      </ExtendedData>
      <Point><coordinates>100.5810987,13.722795,0</coordinates></Point>
    </Placemark>
    <Placemark>
      <styleUrl>#cm0</styleUrl>
      <name>Haoma Bangkok</name>
      <description>⭐ 4.6 (523 รีวิว) · Neo-Indian Sustainable · Watthana · ฿฿฿
231, 3 Sukhumvit 31, Khwaeng Khlong Toei Nuea, Watthana, Krung Thep Maha Nakhon 10110, Thailand
https://www.google.com/maps/place/?q=place_id:ChIJ8c3kP_qe4jARjg8dTyubyiA
ข้อมูลจาก ChefMinistry — chefministry.com</description>
      <ExtendedData>
        <Data name="rating"><value>4.6</value></Data>
        <Data name="reviews"><value>523</value></Data>
        <Data name="cuisine"><value>Neo-Indian Sustainable</value></Data>
        <Data name="area"><value>Watthana</value></Data>
        <Data name="google_maps"><value>https://www.google.com/maps/place/?q=place_id:ChIJ8c3kP_qe4jARjg8dTyubyiA</value></Data>
      </ExtendedData>
      <Point><coordinates>100.5676651,13.743003799999999,0</coordinates></Point>
    </Placemark>
    <Placemark>
      <styleUrl>#cm0</styleUrl>
      <name>ยากินิคุ โอนิคคุ โตะ โกฮัง ทองหล่อ</name>
      <description>⭐ 4.7 (482 รีวิว) · Yakiniku · Watthana · ฿฿฿
No.88 Room.1, B3 Soi Sukhumvit 53, Khwaeng Khlong Tan Nuea, Watthana, Krung Thep Maha Nakhon 10110, Thailand
https://www.google.com/maps/place/?q=place_id:ChIJIfUiH3if4jARux9ZMdRePtw
ข้อมูลจาก ChefMinistry — chefministry.com</description>
      <ExtendedData>
        <Data name="rating"><value>4.7</value></Data>
        <Data name="reviews"><value>482</value></Data>
        <Data name="cuisine"><value>Yakiniku</value></Data>
        <Data name="area"><value>Watthana</value></Data>
        <Data name="google_maps"><value>https://www.google.com/maps/place/?q=place_id:ChIJIfUiH3if4jARux9ZMdRePtw</value></Data>
      </ExtendedData>
      <Point><coordinates>100.5792773,13.7299297,0</coordinates></Point>
    </Placemark>
    <Placemark>
      <styleUrl>#cm0</styleUrl>
      <name>ชาบู โยโรโกบุ</name>
      <description>⭐ 4.6 (513 รีวิว) · Hot Pot / Suki · Watthana · ฿฿฿
39 9 Soi Ekkamai 12, Khwaeng Khlong Tan Nuea, Watthana, Krung Thep Maha Nakhon 10110, Thailand
https://www.google.com/maps/place/?q=place_id:ChIJy149fGSf4jARNn26ZDzSWho
ข้อมูลจาก ChefMinistry — chefministry.com</description>
      <ExtendedData>
        <Data name="rating"><value>4.6</value></Data>
        <Data name="reviews"><value>513</value></Data>
        <Data name="cuisine"><value>Hot Pot / Suki</value></Data>
        <Data name="area"><value>Watthana</value></Data>
        <Data name="google_maps"><value>https://www.google.com/maps/place/?q=place_id:ChIJy149fGSf4jARNn26ZDzSWho</value></Data>
      </ExtendedData>
      <Point><coordinates>100.5903226,13.730066500000001,0</coordinates></Point>
    </Placemark>
    <Placemark>
      <styleUrl>#cm0</styleUrl>
      <name>80/20 Eighty Twenty</name>
      <description>⭐ 4.5 (547 รีวิว) · Progressive Thai · Bang Rak · ฿฿฿
1052, 1054 Soi Nai Loet 1, Khwaeng Bang Rak, Khet Bang Rak, Krung Thep Maha Nakhon 10500, Thailand
https://www.google.com/maps/place/?q=place_id:ChIJz4dTqxCZ4jARg1Ozcy1B_XM
ข้อมูลจาก ChefMinistry — chefministry.com</description>
      <ExtendedData>
        <Data name="rating"><value>4.5</value></Data>
        <Data name="reviews"><value>547</value></Data>
        <Data name="cuisine"><value>Progressive Thai</value></Data>
        <Data name="area"><value>Bang Rak</value></Data>
        <Data name="google_maps"><value>https://www.google.com/maps/place/?q=place_id:ChIJz4dTqxCZ4jARg1Ozcy1B_XM</value></Data>
      </ExtendedData>
      <Point><coordinates>100.51547099999999,13.731106400000002,0</coordinates></Point>
    </Placemark>
    <Placemark>
      <styleUrl>#cm0</styleUrl>
      <name>Gaggan</name>
      <description>⭐ 4.5 (532 รีวิว) · Indian Progressive · Watthana · ฿฿฿
68 Sukhumvit 31, Khwaeng Khlong Tan Nuea, Watthana, Krung Thep Maha Nakhon 10110, Thailand
https://www.google.com/maps/place/?q=place_id:ChIJi_nHcf-f4jARAI6VOXH0wII
ข้อมูลจาก ChefMinistry — chefministry.com</description>
      <ExtendedData>
        <Data name="rating"><value>4.5</value></Data>
        <Data name="reviews"><value>532</value></Data>
        <Data name="cuisine"><value>Indian Progressive</value></Data>
        <Data name="area"><value>Watthana</value></Data>
        <Data name="google_maps"><value>https://www.google.com/maps/place/?q=place_id:ChIJi_nHcf-f4jARAI6VOXH0wII</value></Data>
      </ExtendedData>
      <Point><coordinates>100.56758669999999,13.740783899999998,0</coordinates></Point>
    </Placemark>
    <Placemark>
      <styleUrl>#cm0</styleUrl>
      <name>Gen Japanese Charcoal Grill</name>
      <description>⭐ 4.6 (480 รีวิว) · Japanese · Ekkamai · ฿฿฿฿
267 31 Soi Sukhumvit 63, Khwaeng Khlong Tan Nuea, Watthana, Krung Thep Maha Nakhon 10110, Thailand
https://www.google.com/maps/place/?q=place_id:ChIJkRyoDU2e4jARsXTtWOVhy3Q
ข้อมูลจาก ChefMinistry — chefministry.com</description>
      <ExtendedData>
        <Data name="rating"><value>4.6</value></Data>
        <Data name="reviews"><value>480</value></Data>
        <Data name="cuisine"><value>Japanese</value></Data>
        <Data name="area"><value>Ekkamai</value></Data>
        <Data name="google_maps"><value>https://www.google.com/maps/place/?q=place_id:ChIJkRyoDU2e4jARsXTtWOVhy3Q</value></Data>
      </ExtendedData>
      <Point><coordinates>100.58708299999999,13.734233399999999,0</coordinates></Point>
    </Placemark>
    <Placemark>
      <styleUrl>#cm0</styleUrl>
      <name>Baan Tepa Culinary Space</name>
      <description>⭐ 4.7 (436 รีวิว) · Thai Farm-To-Table · Bangkapi · ฿฿฿
561 Ramkhamhaeng Rd, Khwaeng Hua Mak, Khet Bang Kapi, Krung Thep Maha Nakhon 10240, Thailand
https://www.google.com/maps/place/?q=place_id:ChIJg1tidYdhHTER4NNOidyhVvc
ข้อมูลจาก ChefMinistry — chefministry.com</description>
      <ExtendedData>
        <Data name="rating"><value>4.7</value></Data>
        <Data name="reviews"><value>436</value></Data>
        <Data name="cuisine"><value>Thai Farm-To-Table</value></Data>
        <Data name="area"><value>Bangkapi</value></Data>
        <Data name="google_maps"><value>https://www.google.com/maps/place/?q=place_id:ChIJg1tidYdhHTER4NNOidyhVvc</value></Data>
      </ExtendedData>
      <Point><coordinates>100.6263537,13.7608005,0</coordinates></Point>
    </Placemark>
    <Placemark>
      <styleUrl>#cm0</styleUrl>
      <name>Blue by Alain Ducasse</name>
      <description>⭐ 4.5 (504 รีวิว) · French Fine Dining · Khlong San · ฿฿฿
Unit L101, 1st Floor, ICONLUXE ICONSIAM Shopping Centre, Klongtonsai, คลองสาน กรุงเทพมหานคร 10600, Thailand
https://www.google.com/maps/place/?q=place_id:ChIJaa9v9cKZ4jARCdXA1Oxli0A
ข้อมูลจาก ChefMinistry — chefministry.com</description>
      <ExtendedData>
        <Data name="rating"><value>4.5</value></Data>
        <Data name="reviews"><value>504</value></Data>
        <Data name="cuisine"><value>French Fine Dining</value></Data>
        <Data name="area"><value>Khlong San</value></Data>
        <Data name="google_maps"><value>https://www.google.com/maps/place/?q=place_id:ChIJaa9v9cKZ4jARCdXA1Oxli0A</value></Data>
      </ExtendedData>
      <Point><coordinates>100.51037079999999,13.726484399999999,0</coordinates></Point>
    </Placemark>
    <Placemark>
      <styleUrl>#cm0</styleUrl>
      <name>Nawa Thai Cuisine</name>
      <description>⭐ 4.8 (396 รีวิว) · Thai Fine Dining · Watthana · ฿฿฿
Park Lane Ekkamai, Khwaeng Khlong Tan Nuea, Watthana, Krung Thep Maha Nakhon 10110, Thailand
https://www.google.com/maps/place/?q=place_id:ChIJBcsS30qf4jARijfxeJq66YI
ข้อมูลจาก ChefMinistry — chefministry.com</description>
      <ExtendedData>
        <Data name="rating"><value>4.8</value></Data>
        <Data name="reviews"><value>396</value></Data>
        <Data name="cuisine"><value>Thai Fine Dining</value></Data>
        <Data name="area"><value>Watthana</value></Data>
        <Data name="google_maps"><value>https://www.google.com/maps/place/?q=place_id:ChIJBcsS30qf4jARijfxeJq66YI</value></Data>
      </ExtendedData>
      <Point><coordinates>100.5838735,13.723275600000001,0</coordinates></Point>
    </Placemark>
    <Placemark>
      <styleUrl>#cm0</styleUrl>
      <name>Shabu Baru Velaa Sindhorn Village Langsuan</name>
      <description>⭐ 4.6 (448 รีวิว) · Hot Pot / Suki · ปทุมวัน · ฿฿฿
เลขที่ A102, หอง, 87 Lang Suan Rd, Khwaeng Lumphini, Pathum Wan, Krung Thep Maha Nakhon 10330, Thailand
https://www.google.com/maps/place/?q=place_id:ChIJF_GiaJCf4jARDQ0Ar02auqw
ข้อมูลจาก ChefMinistry — chefministry.com</description>
      <ExtendedData>
        <Data name="rating"><value>4.6</value></Data>
        <Data name="reviews"><value>448</value></Data>
        <Data name="cuisine"><value>Hot Pot / Suki</value></Data>
        <Data name="area"><value>ปทุมวัน</value></Data>
        <Data name="google_maps"><value>https://www.google.com/maps/place/?q=place_id:ChIJF_GiaJCf4jARDQ0Ar02auqw</value></Data>
      </ExtendedData>
      <Point><coordinates>100.5431119,13.7376977,0</coordinates></Point>
    </Placemark>
    <Placemark>
      <styleUrl>#cm0</styleUrl>
      <name>INDDEE</name>
      <description>⭐ 4.8 (378 รีวิว) · Indian Fine Dining · Pathumwan · ฿฿฿
68, 1 Soi Langsuan, Khwaeng Lumphini, Pathum Wan, Krung Thep Maha Nakhon 10330, Thailand
https://www.google.com/maps/place/?q=place_id:ChIJkeHE36Gf4jARwYY0UIcD6-g
ข้อมูลจาก ChefMinistry — chefministry.com</description>
      <ExtendedData>
        <Data name="rating"><value>4.8</value></Data>
        <Data name="reviews"><value>378</value></Data>
        <Data name="cuisine"><value>Indian Fine Dining</value></Data>
        <Data name="area"><value>Pathumwan</value></Data>
        <Data name="google_maps"><value>https://www.google.com/maps/place/?q=place_id:ChIJkeHE36Gf4jARwYY0UIcD6-g</value></Data>
      </ExtendedData>
      <Point><coordinates>100.54229099999999,13.737682699999999,0</coordinates></Point>
    </Placemark>
    <Placemark>
      <styleUrl>#cm0</styleUrl>
      <name>Ginzado</name>
      <description>⭐ 4.5 (467 รีวิว) · Japanese · Thonglor · ฿฿฿
27, อาคาร โรงแรมนิกโก้กรุงเทพ ชั้น3, Soi Thong Lo, Khwaeng Khlong Tan Nuea, Watthana, Krung Thep Maha Nakhon 10110, Thailand
https://www.google.com/maps/place/?q=place_id:ChIJr9ud3yaf4jARlqq2hNNUT_A
ข้อมูลจาก ChefMinistry — chefministry.com</description>
      <ExtendedData>
        <Data name="rating"><value>4.5</value></Data>
        <Data name="reviews"><value>467</value></Data>
        <Data name="cuisine"><value>Japanese</value></Data>
        <Data name="area"><value>Thonglor</value></Data>
        <Data name="google_maps"><value>https://www.google.com/maps/place/?q=place_id:ChIJr9ud3yaf4jARlqq2hNNUT_A</value></Data>
      </ExtendedData>
      <Point><coordinates>100.5791103,13.7251953,0</coordinates></Point>
    </Placemark>
    <Placemark>
      <styleUrl>#cm0</styleUrl>
      <name>ซูมิเทอิ ยากินิคุ</name>
      <description>⭐ 4.6 (433 รีวิว) · Yakiniku · Watthana · ฿฿฿
Marche Thonglor, 2nd Floor Building B 144, Marche Thonglor Room, Number THL02LS205, แขวงคลองตันเหนือ เขตวัฒนา กรุงเทพมหานคร 10110, Thailand
https://www.google.com/maps/place/?q=place_id:ChIJcxoFO6uf4jARIkN8Bsq20p0
ข้อมูลจาก ChefMinistry — chefministry.com</description>
      <ExtendedData>
        <Data name="rating"><value>4.6</value></Data>
        <Data name="reviews"><value>433</value></Data>
        <Data name="cuisine"><value>Yakiniku</value></Data>
        <Data name="area"><value>Watthana</value></Data>
        <Data name="google_maps"><value>https://www.google.com/maps/place/?q=place_id:ChIJcxoFO6uf4jARIkN8Bsq20p0</value></Data>
      </ExtendedData>
      <Point><coordinates>100.5813921,13.7282762,0</coordinates></Point>
    </Placemark>
    <Placemark>
      <styleUrl>#cm0</styleUrl>
      <name>ยากินิคุ โอนิคุ โตะ โกฮัง</name>
      <description>⭐ 4.5 (439 รีวิว) · Yakiniku · คลองเตย · ฿฿฿
115 ห้อง113, นิฮอนมาชิ, Sukhumvit 26, Khwaeng Khlong Tan, Khet Khlong Toei, Krung Thep Maha Nakhon 10110, Thailand
https://www.google.com/maps/place/?q=place_id:ChIJbQmGQUKf4jARiB1UMFfUVmk
ข้อมูลจาก ChefMinistry — chefministry.com</description>
      <ExtendedData>
        <Data name="rating"><value>4.5</value></Data>
        <Data name="reviews"><value>439</value></Data>
        <Data name="cuisine"><value>Yakiniku</value></Data>
        <Data name="area"><value>คลองเตย</value></Data>
        <Data name="google_maps"><value>https://www.google.com/maps/place/?q=place_id:ChIJbQmGQUKf4jARiB1UMFfUVmk</value></Data>
      </ExtendedData>
      <Point><coordinates>100.5702481,13.720789199999999,0</coordinates></Point>
    </Placemark>
    <Placemark>
      <styleUrl>#cm0</styleUrl>
      <name>Maison Dunand</name>
      <description>⭐ 4.8 (342 รีวิว) · French Fine Dining · Bang Rak · ฿฿฿
55 Sathon Soi 10, Si Lom, Khet Bang Rak, Krung Thep Maha Nakhon 10500, Thailand
https://www.google.com/maps/place/?q=place_id:ChIJP2w4zdmf4jARdiVjvr2ZPWk
ข้อมูลจาก ChefMinistry — chefministry.com</description>
      <ExtendedData>
        <Data name="rating"><value>4.8</value></Data>
        <Data name="reviews"><value>342</value></Data>
        <Data name="cuisine"><value>French Fine Dining</value></Data>
        <Data name="area"><value>Bang Rak</value></Data>
        <Data name="google_maps"><value>https://www.google.com/maps/place/?q=place_id:ChIJP2w4zdmf4jARdiVjvr2ZPWk</value></Data>
      </ExtendedData>
      <Point><coordinates>100.52745350000001,13.7228824,0</coordinates></Point>
    </Placemark>
    <Placemark>
      <styleUrl>#cm0</styleUrl>
      <name>Restaurant Coda Bangkok</name>
      <description>⭐ 4.7 (364 รีวิว) · Contemporary Fine Dining · Pathumwan · ฿฿฿
130-132 Thanon Witthayu, Khwaeng Lumphini, Pathum Wan, Krung Thep Maha Nakhon 10330, Thailand
https://www.google.com/maps/place/?q=place_id:ChIJr81GL1ef4jARIBWQ8vluIr4
ข้อมูลจาก ChefMinistry — chefministry.com</description>
      <ExtendedData>
        <Data name="rating"><value>4.7</value></Data>
        <Data name="reviews"><value>364</value></Data>
        <Data name="cuisine"><value>Contemporary Fine Dining</value></Data>
        <Data name="area"><value>Pathumwan</value></Data>
        <Data name="google_maps"><value>https://www.google.com/maps/place/?q=place_id:ChIJr81GL1ef4jARIBWQ8vluIr4</value></Data>
      </ExtendedData>
      <Point><coordinates>100.5460214,13.7359882,0</coordinates></Point>
    </Placemark>
    <Placemark>
      <styleUrl>#cm0</styleUrl>
      <name>Elements, Inspired by Ciel Bleu</name>
      <description>⭐ 4.7 (340 รีวิว) · French Japanese Fine Dining · Pathumwan · ฿฿฿
57 Thanon Witthayu, Khwaeng Lumphini, Pathum Wan, Krung Thep Maha Nakhon 10330, Thailand
https://www.google.com/maps/place/?q=place_id:ChIJ5-kost6e4jARu60oSMCaKS4
ข้อมูลจาก ChefMinistry — chefministry.com</description>
      <ExtendedData>
        <Data name="rating"><value>4.7</value></Data>
        <Data name="reviews"><value>340</value></Data>
        <Data name="cuisine"><value>French Japanese Fine Dining</value></Data>
        <Data name="area"><value>Pathumwan</value></Data>
        <Data name="google_maps"><value>https://www.google.com/maps/place/?q=place_id:ChIJ5-kost6e4jARu60oSMCaKS4</value></Data>
      </ExtendedData>
      <Point><coordinates>100.54779300000001,13.742837999999999,0</coordinates></Point>
    </Placemark>
    <Placemark>
      <styleUrl>#cm0</styleUrl>
      <name>Ginza Sushi Ichi BKK</name>
      <description>⭐ 4.6 (356 รีวิว) · Japanese Omakase · Pathumwan · ฿฿฿
3rd Floor,999 Gaysorn Centre Room 3F-08 Khwaeng Lumphini, Pathum Wan, Krung Thep Maha Nakhon 10330, Thailand
https://www.google.com/maps/place/?q=place_id:ChIJbXUt8DOf4jARorr_XaFh6NU
ข้อมูลจาก ChefMinistry — chefministry.com</description>
      <ExtendedData>
        <Data name="rating"><value>4.6</value></Data>
        <Data name="reviews"><value>356</value></Data>
        <Data name="cuisine"><value>Japanese Omakase</value></Data>
        <Data name="area"><value>Pathumwan</value></Data>
        <Data name="google_maps"><value>https://www.google.com/maps/place/?q=place_id:ChIJbXUt8DOf4jARorr_XaFh6NU</value></Data>
      </ExtendedData>
      <Point><coordinates>100.54059269999999,13.744806299999999,0</coordinates></Point>
    </Placemark>
    <Placemark>
      <styleUrl>#cm0</styleUrl>
      <name>Mezzaluna</name>
      <description>⭐ 4.5 (367 รีวิว) · Innovative Fine Dining · Bang Rak · ฿฿฿
65th Floor State Tower Bangkok 1055 Si Lom Rd, Si Lom, Khet Bang Rak, Krung Thep Maha Nakhon 10500, Thailand
https://www.google.com/maps/place/?q=place_id:ChIJmXuobsWY4jARc3EtJwWV21s
ข้อมูลจาก ChefMinistry — chefministry.com</description>
      <ExtendedData>
        <Data name="rating"><value>4.5</value></Data>
        <Data name="reviews"><value>367</value></Data>
        <Data name="cuisine"><value>Innovative Fine Dining</value></Data>
        <Data name="area"><value>Bang Rak</value></Data>
        <Data name="google_maps"><value>https://www.google.com/maps/place/?q=place_id:ChIJmXuobsWY4jARc3EtJwWV21s</value></Data>
      </ExtendedData>
      <Point><coordinates>100.5170156,13.7219248,0</coordinates></Point>
    </Placemark>
    <Placemark>
      <styleUrl>#cm0</styleUrl>
      <name>AKKEE Thai Delicacies and Tasting Counter</name>
      <description>⭐ 4.7 (300 รีวิว) · Thai Fine Dining · Nonthaburi · ฿฿฿
42 99, ตำบลบางตลาด อำเภอปากเกร็ด นนทบุรี 11120, Thailand
https://www.google.com/maps/place/?q=place_id:ChIJGVvkeXCF4jARp6rXqZlVM18
ข้อมูลจาก ChefMinistry — chefministry.com</description>
      <ExtendedData>
        <Data name="rating"><value>4.7</value></Data>
        <Data name="reviews"><value>300</value></Data>
        <Data name="cuisine"><value>Thai Fine Dining</value></Data>
        <Data name="area"><value>Nonthaburi</value></Data>
        <Data name="google_maps"><value>https://www.google.com/maps/place/?q=place_id:ChIJGVvkeXCF4jARp6rXqZlVM18</value></Data>
      </ExtendedData>
      <Point><coordinates>100.5151264,13.8984112,0</coordinates></Point>
    </Placemark>
    <Placemark>
      <styleUrl>#cm0</styleUrl>
      <name>Chim by Siam Wisdom</name>
      <description>⭐ 4.4 (332 รีวิว) · Thai Fine Dining · Bangkok · ฿฿฿
315 Soi Ongkharak 13, Khwaeng Thanon Nakhon Chai Si, Khet Dusit, Krung Thep Maha Nakhon 10300, Thailand
https://www.google.com/maps/place/?q=place_id:ChIJg3htxvue4jARtGnzcjPrWnU
ข้อมูลจาก ChefMinistry — chefministry.com</description>
      <ExtendedData>
        <Data name="rating"><value>4.4</value></Data>
        <Data name="reviews"><value>332</value></Data>
        <Data name="cuisine"><value>Thai Fine Dining</value></Data>
        <Data name="area"><value>Bangkok</value></Data>
        <Data name="google_maps"><value>https://www.google.com/maps/place/?q=place_id:ChIJg3htxvue4jARtGnzcjPrWnU</value></Data>
      </ExtendedData>
      <Point><coordinates>100.5185558,13.7891696,0</coordinates></Point>
    </Placemark>
    <Placemark>
      <styleUrl>#cm0</styleUrl>
      <name>ÉPICURIEN FRENCH BAKERY (W District)</name>
      <description>⭐ 4.8 (248 รีวิว) · Bakery · Sukhumvit · ฿
W District Sukhumvit 71 Rd, Khwaeng Phra Khanong Nuea, Watthana, Krung Thep Maha Nakhon 10110, Thailand
https://www.google.com/maps/place/?q=place_id:ChIJew69NgCd4jAR96M_EWewmNA
ข้อมูลจาก ChefMinistry — chefministry.com</description>
      <ExtendedData>
        <Data name="rating"><value>4.8</value></Data>
        <Data name="reviews"><value>248</value></Data>
        <Data name="cuisine"><value>Bakery</value></Data>
        <Data name="area"><value>Sukhumvit</value></Data>
        <Data name="google_maps"><value>https://www.google.com/maps/place/?q=place_id:ChIJew69NgCd4jAR96M_EWewmNA</value></Data>
      </ExtendedData>
      <Point><coordinates>100.5933191,13.7142476,0</coordinates></Point>
    </Placemark>
    <Placemark>
      <styleUrl>#cm0</styleUrl>
      <name>IGNIV Bangkok อิกนีฟ แบงค็อก</name>
      <description>⭐ 4.6 (275 รีวิว) · Swiss Sharing Fine Dining · Pathumwan · ฿฿฿
159 Thanon Ratchadamri, Khwaeng Lumphini, Pathum Wan, Krung Thep Maha Nakhon 10330, Thailand
https://www.google.com/maps/place/?q=place_id:ChIJLcAZ8Kqf4jARcqRxTY1Ajx8
ข้อมูลจาก ChefMinistry — chefministry.com</description>
      <ExtendedData>
        <Data name="rating"><value>4.6</value></Data>
        <Data name="reviews"><value>275</value></Data>
        <Data name="cuisine"><value>Swiss Sharing Fine Dining</value></Data>
        <Data name="area"><value>Pathumwan</value></Data>
        <Data name="google_maps"><value>https://www.google.com/maps/place/?q=place_id:ChIJLcAZ8Kqf4jARcqRxTY1Ajx8</value></Data>
      </ExtendedData>
      <Point><coordinates>100.53996199999999,13.740062,0</coordinates></Point>
    </Placemark>
    <Placemark>
      <styleUrl>#cm0</styleUrl>
      <name>Sushi Ichizu 鮨いちづ</name>
      <description>⭐ 4.5 (287 รีวิว) · Japanese Omakase · Huai Khwang · ฿฿฿
1982 New, Khwaeng Bang Kapi, Khet Huai Khwang, Krung Thep Maha Nakhon 10310, Thailand
https://www.google.com/maps/place/?q=place_id:ChIJWxIQsfee4jARY3ZYfiGKMDM
ข้อมูลจาก ChefMinistry — chefministry.com</description>
      <ExtendedData>
        <Data name="rating"><value>4.5</value></Data>
        <Data name="reviews"><value>287</value></Data>
        <Data name="cuisine"><value>Japanese Omakase</value></Data>
        <Data name="area"><value>Huai Khwang</value></Data>
        <Data name="google_maps"><value>https://www.google.com/maps/place/?q=place_id:ChIJWxIQsfee4jARY3ZYfiGKMDM</value></Data>
      </ExtendedData>
      <Point><coordinates>100.57267990000001,13.7470255,0</coordinates></Point>
    </Placemark>
    <Placemark>
      <styleUrl>#cm0</styleUrl>
      <name>Wana Yook</name>
      <description>⭐ 4.6 (258 รีวิว) · Thai Fine Dining · Ratchathewi · ฿฿฿
5, 15 Phaya Thai Rd, Khwaeng Thanon Phaya Thai, Khet Ratchathewi, Krung Thep Maha Nakhon 10400, Thailand
https://www.google.com/maps/place/?q=place_id:ChIJOTiQRnKf4jAR5hsFRsOF2RM
ข้อมูลจาก ChefMinistry — chefministry.com</description>
      <ExtendedData>
        <Data name="rating"><value>4.6</value></Data>
        <Data name="reviews"><value>258</value></Data>
        <Data name="cuisine"><value>Thai Fine Dining</value></Data>
        <Data name="area"><value>Ratchathewi</value></Data>
        <Data name="google_maps"><value>https://www.google.com/maps/place/?q=place_id:ChIJOTiQRnKf4jAR5hsFRsOF2RM</value></Data>
      </ExtendedData>
      <Point><coordinates>100.5376004,13.7627843,0</coordinates></Point>
    </Placemark>
    <Placemark>
      <styleUrl>#cm0</styleUrl>
      <name>Samrub Samrub Thai</name>
      <description>⭐ 4.3 (297 รีวิว) · Thai Fine Dining · Bang Rak · ฿฿฿
39/11 Soi Yommarat, Si Lom, Khet Bang Rak, Krung Thep Maha Nakhon 10500, Thailand
https://www.google.com/maps/place/?q=place_id:ChIJP-vfELmZ4jARGlXpoG1esoU
ข้อมูลจาก ChefMinistry — chefministry.com</description>
      <ExtendedData>
        <Data name="rating"><value>4.3</value></Data>
        <Data name="reviews"><value>297</value></Data>
        <Data name="cuisine"><value>Thai Fine Dining</value></Data>
        <Data name="area"><value>Bang Rak</value></Data>
        <Data name="google_maps"><value>https://www.google.com/maps/place/?q=place_id:ChIJP-vfELmZ4jARGlXpoG1esoU</value></Data>
      </ExtendedData>
      <Point><coordinates>100.53746149999999,13.7268983,0</coordinates></Point>
    </Placemark>
    <Placemark>
      <styleUrl>#cm0</styleUrl>
      <name>HOMERUN IZAKAYA®</name>
      <description>⭐ 4.8 (195 รีวิว) · Japanese · Watthana · ฿฿฿
217, 8 Soi Sukhumvit 63, Khwaeng Khlong Tan Nuea, Watthana, Krung Thep Maha Nakhon 10110, Thailand
https://www.google.com/maps/place/?q=place_id:ChIJF1TAJACf4jARrGzuq0r3hQc
ข้อมูลจาก ChefMinistry — chefministry.com</description>
      <ExtendedData>
        <Data name="rating"><value>4.8</value></Data>
        <Data name="reviews"><value>195</value></Data>
        <Data name="cuisine"><value>Japanese</value></Data>
        <Data name="area"><value>Watthana</value></Data>
        <Data name="google_maps"><value>https://www.google.com/maps/place/?q=place_id:ChIJF1TAJACf4jARrGzuq0r3hQc</value></Data>
      </ExtendedData>
      <Point><coordinates>100.58609020000002,13.7318477,0</coordinates></Point>
    </Placemark>
    <Placemark>
      <styleUrl>#cm0</styleUrl>
      <name>Chef's Table by Lebua เชฟส์เทเบิล บาย เลอบัว</name>
      <description>⭐ 4.6 (215 รีวิว) · French Fine Dining · Bang Rak · ฿฿฿
61st Floor, State Tower, 1055 Si Lom Rd, Si Lom, Khet Bang Rak, Krung Thep Maha Nakhon 10500, Thailand
https://www.google.com/maps/place/?q=place_id:ChIJkbyJIMeZ4jARgc1-140HJkU
ข้อมูลจาก ChefMinistry — chefministry.com</description>
      <ExtendedData>
        <Data name="rating"><value>4.6</value></Data>
        <Data name="reviews"><value>215</value></Data>
        <Data name="cuisine"><value>French Fine Dining</value></Data>
        <Data name="area"><value>Bang Rak</value></Data>
        <Data name="google_maps"><value>https://www.google.com/maps/place/?q=place_id:ChIJkbyJIMeZ4jARgc1-140HJkU</value></Data>
      </ExtendedData>
      <Point><coordinates>100.51706,13.7219465,0</coordinates></Point>
    </Placemark>
    <Placemark>
      <styleUrl>#cm0</styleUrl>
      <name>Signature Bangkok</name>
      <description>⭐ 4.8 (185 รีวิว) · French Fine Dining · Ratchathewi · ฿฿฿
11th floor, Vie Hotel Bangkok MGallery Hotel Collection, 117/39-40 Phaya Thai Rd, Khwaeng Thanon Phetchaburi, Khet Ratchathewi, Krung Thep Maha Nakhon 10400, Thailand
https://www.google.com/maps/place/?q=place_id:ChIJRxVBdTyf4jARGLWgEHjEIq4
ข้อมูลจาก ChefMinistry — chefministry.com</description>
      <ExtendedData>
        <Data name="rating"><value>4.8</value></Data>
        <Data name="reviews"><value>185</value></Data>
        <Data name="cuisine"><value>French Fine Dining</value></Data>
        <Data name="area"><value>Ratchathewi</value></Data>
        <Data name="google_maps"><value>https://www.google.com/maps/place/?q=place_id:ChIJRxVBdTyf4jARGLWgEHjEIq4</value></Data>
      </ExtendedData>
      <Point><coordinates>100.53198069999999,13.750491499999999,0</coordinates></Point>
    </Placemark>
    <Placemark>
      <styleUrl>#cm0</styleUrl>
      <name>The China House by Chef Fei</name>
      <description>⭐ 4.5 (210 รีวิว) · Chinese · Bang Rak · ฿฿฿
48 Oriental Ave, Khwaeng Bang Rak, Khet Bang Rak, Krung Thep Maha Nakhon 10500, Thailand
https://www.google.com/maps/place/?q=place_id:ChIJF0QAycSY4jAR76FsDlPCh04
ข้อมูลจาก ChefMinistry — chefministry.com</description>
      <ExtendedData>
        <Data name="rating"><value>4.5</value></Data>
        <Data name="reviews"><value>210</value></Data>
        <Data name="cuisine"><value>Chinese</value></Data>
        <Data name="area"><value>Bang Rak</value></Data>
        <Data name="google_maps"><value>https://www.google.com/maps/place/?q=place_id:ChIJF0QAycSY4jAR76FsDlPCh04</value></Data>
      </ExtendedData>
      <Point><coordinates>100.51424899999999,13.723972999999999,0</coordinates></Point>
    </Placemark>
    <Placemark>
      <styleUrl>#cm0</styleUrl>
      <name>GOAT Bangkok</name>
      <description>⭐ 4.8 (158 รีวิว) · Contemporary Fine Dining · Watthana · ฿฿฿
12, Ekkamai 10, Yaek 2, แขวงคลองตันเหนือ เขตวัฒนา กรุงเทพมหานคร 10110, Thailand
https://www.google.com/maps/place/?q=place_id:ChIJpe0yABKf4jARAc0xgSi-RgY
ข้อมูลจาก ChefMinistry — chefministry.com</description>
      <ExtendedData>
        <Data name="rating"><value>4.8</value></Data>
        <Data name="reviews"><value>158</value></Data>
        <Data name="cuisine"><value>Contemporary Fine Dining</value></Data>
        <Data name="area"><value>Watthana</value></Data>
        <Data name="google_maps"><value>https://www.google.com/maps/place/?q=place_id:ChIJpe0yABKf4jARAc0xgSi-RgY</value></Data>
      </ExtendedData>
      <Point><coordinates>100.58726809999999,13.7274374,0</coordinates></Point>
    </Placemark>
    <Placemark>
      <styleUrl>#cm0</styleUrl>
      <name>Juksunchae</name>
      <description>⭐ 4.9 (136 รีวิว) · Korean Fine Dining · Watthana · ฿฿฿
PHMG+4PR Town Hall, Sukhumvit 49, Khwaeng Khlong Tan Nuea, Watthana, Krung Thep Maha Nakhon 10110, Thailand
https://www.google.com/maps/place/?q=place_id:ChIJ_xRKVDuf4jAR3CyXriUaZGA
ข้อมูลจาก ChefMinistry — chefministry.com</description>
      <ExtendedData>
        <Data name="rating"><value>4.9</value></Data>
        <Data name="reviews"><value>136</value></Data>
        <Data name="cuisine"><value>Korean Fine Dining</value></Data>
        <Data name="area"><value>Watthana</value></Data>
        <Data name="google_maps"><value>https://www.google.com/maps/place/?q=place_id:ChIJ_xRKVDuf4jAR3CyXriUaZGA</value></Data>
      </ExtendedData>
      <Point><coordinates>100.57668,13.732798599999999,0</coordinates></Point>
    </Placemark>
    <Placemark>
      <styleUrl>#cm0</styleUrl>
      <name>Restaurant Resonance</name>
      <description>⭐ 4.7 (156 รีวิว) · Contemporary Fine Dining · Bangkok · ฿฿฿
108, 4 สุขุมวิท 65 Khwaeng Phra Khanong Nuea, Watthana, Krung Thep Maha Nakhon 10110, Thailand
https://www.google.com/maps/place/?q=place_id:ChIJdZFTPMmf4jARVricLfz3k7M
ข้อมูลจาก ChefMinistry — chefministry.com</description>
      <ExtendedData>
        <Data name="rating"><value>4.7</value></Data>
        <Data name="reviews"><value>156</value></Data>
        <Data name="cuisine"><value>Contemporary Fine Dining</value></Data>
        <Data name="area"><value>Bangkok</value></Data>
        <Data name="google_maps"><value>https://www.google.com/maps/place/?q=place_id:ChIJdZFTPMmf4jARVricLfz3k7M</value></Data>
      </ExtendedData>
      <Point><coordinates>100.59198839999999,13.721366699999999,0</coordinates></Point>
    </Placemark>
    <Placemark>
      <styleUrl>#cm0</styleUrl>
      <name>ขวัญทิพย์ Kwantip - Samrub Thai Dining</name>
      <description>⭐ 4.6 (157 รีวิว) · Samrub Thai Dining · Phaya Thai · ฿฿฿
24 Soi Ari Samphan 6, Phayathai, Khet Phaya Thai, Krung Thep Maha Nakhon 10400, Thailand
https://www.google.com/maps/place/?q=place_id:ChIJzRYWLn-f4jARmNLLv5Ldd1E
ข้อมูลจาก ChefMinistry — chefministry.com</description>
      <ExtendedData>
        <Data name="rating"><value>4.6</value></Data>
        <Data name="reviews"><value>157</value></Data>
        <Data name="cuisine"><value>Samrub Thai Dining</value></Data>
        <Data name="area"><value>Phaya Thai</value></Data>
        <Data name="google_maps"><value>https://www.google.com/maps/place/?q=place_id:ChIJzRYWLn-f4jARmNLLv5Ldd1E</value></Data>
      </ExtendedData>
      <Point><coordinates>100.5358412,13.7773404,0</coordinates></Point>
    </Placemark>
    <Placemark>
      <styleUrl>#cm0</styleUrl>
      <name>Kaisenya ไคเซน-ยะ</name>
      <description>⭐ 4.5 (163 รีวิว) · Japanese · Khlong Toei · ฿฿฿
261/2 Sukhumvit Rd, Khwaeng Khlong Tan, Khet Khlong Toei, Krung Thep Maha Nakhon 10110, Thailand
https://www.google.com/maps/place/?q=place_id:ChIJ9SbzEAOf4jAReqyy_j0jXjM
ข้อมูลจาก ChefMinistry — chefministry.com</description>
      <ExtendedData>
        <Data name="rating"><value>4.5</value></Data>
        <Data name="reviews"><value>163</value></Data>
        <Data name="cuisine"><value>Japanese</value></Data>
        <Data name="area"><value>Khlong Toei</value></Data>
        <Data name="google_maps"><value>https://www.google.com/maps/place/?q=place_id:ChIJ9SbzEAOf4jAReqyy_j0jXjM</value></Data>
      </ExtendedData>
      <Point><coordinates>100.5652045,13.729669399999999,0</coordinates></Point>
    </Placemark>
    <Placemark>
      <styleUrl>#cm0</styleUrl>
      <name>Cannubi by Umberto Bombana</name>
      <description>⭐ 4.6 (144 รีวิว) · Italian Fine Dining · Bang Rak · ฿฿฿
L Floor, 98 Thanon Rama IV, Si Lom, Khet Bang Rak, Krung Thep Maha Nakhon 10500, Thailand
https://www.google.com/maps/place/?q=place_id:ChIJRz3UM0eZ4jAR5l4nHLAwqu4
ข้อมูลจาก ChefMinistry — chefministry.com</description>
      <ExtendedData>
        <Data name="rating"><value>4.6</value></Data>
        <Data name="reviews"><value>144</value></Data>
        <Data name="cuisine"><value>Italian Fine Dining</value></Data>
        <Data name="area"><value>Bang Rak</value></Data>
        <Data name="google_maps"><value>https://www.google.com/maps/place/?q=place_id:ChIJRz3UM0eZ4jAR5l4nHLAwqu4</value></Data>
      </ExtendedData>
      <Point><coordinates>100.53770809999999,13.728015899999999,0</coordinates></Point>
    </Placemark>
    <Placemark>
      <styleUrl>#cm0</styleUrl>
      <name>Sushi Saito Thailand</name>
      <description>⭐ 4.8 (123 รีวิว) · Omakase Fine Dining · Bangkok · ฿฿฿
Chaophraya Estate (Riverfront Promenade 300 ถ. เจริญกรุง Khwaeng Yan Nawa, Khet Sathon, Krung Thep Maha Nakhon 10120, Thailand
https://www.google.com/maps/place/?q=place_id:ChIJhyrbUDeZ4jARrb1yWJ54qGc
ข้อมูลจาก ChefMinistry — chefministry.com</description>
      <ExtendedData>
        <Data name="rating"><value>4.8</value></Data>
        <Data name="reviews"><value>123</value></Data>
        <Data name="cuisine"><value>Omakase Fine Dining</value></Data>
        <Data name="area"><value>Bangkok</value></Data>
        <Data name="google_maps"><value>https://www.google.com/maps/place/?q=place_id:ChIJhyrbUDeZ4jARrb1yWJ54qGc</value></Data>
      </ExtendedData>
      <Point><coordinates>100.5099212,13.7123478,0</coordinates></Point>
    </Placemark>
    <Placemark>
      <styleUrl>#cm0</styleUrl>
      <name>Chai Jia Chai 蔡家菜</name>
      <description>⭐ 4.8 (110 รีวิว) · Chinese · Minburi · ฿฿฿
265/2 ซ. สุขุมวิท 31 Khwaeng Khlong Toei Nuea, Watthana, Krung Thep Maha Nakhon 10110, Thailand
https://www.google.com/maps/place/?q=place_id:ChIJ89j4snef4jARdTcWImYz-B8
ข้อมูลจาก ChefMinistry — chefministry.com</description>
      <ExtendedData>
        <Data name="rating"><value>4.8</value></Data>
        <Data name="reviews"><value>110</value></Data>
        <Data name="cuisine"><value>Chinese</value></Data>
        <Data name="area"><value>Minburi</value></Data>
        <Data name="google_maps"><value>https://www.google.com/maps/place/?q=place_id:ChIJ89j4snef4jARdTcWImYz-B8</value></Data>
      </ExtendedData>
      <Point><coordinates>100.567312,13.740295,0</coordinates></Point>
    </Placemark>
    <Placemark>
      <styleUrl>#cm0</styleUrl>
      <name>Movida Bangkok</name>
      <description>⭐ 4.5 (118 รีวิว) · Bar · Bangkok · ฿฿฿
ห้อง A105 ที่อยู่ 267 15 Soi Sukhumvit 63, Khwaeng Khlong Tan Nuea, Watthana, Krung Thep Maha Nakhon 10110, Thailand
https://www.google.com/maps/place/?q=place_id:ChIJgTqJWQCf4jARqWJpVJzNPQs
ข้อมูลจาก ChefMinistry — chefministry.com</description>
      <ExtendedData>
        <Data name="rating"><value>4.5</value></Data>
        <Data name="reviews"><value>118</value></Data>
        <Data name="cuisine"><value>Bar</value></Data>
        <Data name="area"><value>Bangkok</value></Data>
        <Data name="google_maps"><value>https://www.google.com/maps/place/?q=place_id:ChIJgTqJWQCf4jARqWJpVJzNPQs</value></Data>
      </ExtendedData>
      <Point><coordinates>100.58732959999999,13.7344881,0</coordinates></Point>
    </Placemark>
    <Placemark>
      <styleUrl>#cm0</styleUrl>
      <name>etcha</name>
      <description>⭐ 4.8 (72 รีวิว) · Thai Fine Dining · Ratchathewi · ฿฿฿
7th Floor, Chatrium Grand Bangkok, 728 Thanon Phetchaburi, Khwaeng Thanon Phetchaburi, Khet Ratchathewi, Krung Thep Maha Nakhon 10400, Thailand
https://www.google.com/maps/place/?q=place_id:ChIJeY8lii2f4jARa9-Po0Ov8g8
ข้อมูลจาก ChefMinistry — chefministry.com</description>
      <ExtendedData>
        <Data name="rating"><value>4.8</value></Data>
        <Data name="reviews"><value>72</value></Data>
        <Data name="cuisine"><value>Thai Fine Dining</value></Data>
        <Data name="area"><value>Ratchathewi</value></Data>
        <Data name="google_maps"><value>https://www.google.com/maps/place/?q=place_id:ChIJeY8lii2f4jARa9-Po0Ov8g8</value></Data>
      </ExtendedData>
      <Point><coordinates>100.5348944,13.749887300000001,0</coordinates></Point>
    </Placemark>
    <Placemark>
      <styleUrl>#cm0</styleUrl>
      <name>Anne-Sophie Pic At Le Normandie</name>
      <description>⭐ 4.7 (61 รีวิว) · French Fine Dining · Bang Rak · ฿฿฿
48 Oriental Ave, Khwaeng Bang Rak, Khet Bang Rak, Krung Thep Maha Nakhon 10500, Thailand
https://www.google.com/maps/place/?q=place_id:ChIJe3wVISiZ4jARS_yp_4u6E_c
ข้อมูลจาก ChefMinistry — chefministry.com</description>
      <ExtendedData>
        <Data name="rating"><value>4.7</value></Data>
        <Data name="reviews"><value>61</value></Data>
        <Data name="cuisine"><value>French Fine Dining</value></Data>
        <Data name="area"><value>Bang Rak</value></Data>
        <Data name="google_maps"><value>https://www.google.com/maps/place/?q=place_id:ChIJe3wVISiZ4jARS_yp_4u6E_c</value></Data>
      </ExtendedData>
      <Point><coordinates>100.51426839999999,13.7237108,0</coordinates></Point>
    </Placemark>
  </Folder>
</Document></kml>