<?xml version="1.0" encoding="UTF-8"?>
<kml xmlns="http://www.opengis.net/kml/2.2">
<Document>
  <name>ChefMinistry — 🍜 ก๋วยเตี๋ยว &amp; เส้น</name>
  <description>อัปเดต 2026-07-30 — chefministry.com</description>
  <Style id="cm0"><IconStyle><color>ff64d19a</color><Icon><href>http://maps.google.com/mapfiles/kml/shapes/dining.png</href></Icon></IconStyle></Style>
  <Folder>
    <name>🍜 ก๋วยเตี๋ยว &amp; เส้น</name>
    <Placemark>
      <styleUrl>#cm0</styleUrl>
      <name>รุ่งเรือง (ตั๋ง) ก๋วยเตี๋ยวหมูต้มยำ</name>
      <description>⭐ 4.4 (9,206 รีวิว) · Noodles · Khlong Toei · ฿
10/3 Sukhumvit 26, Khwaeng Khlong Tan, Khet Khlong Toei, Krung Thep Maha Nakhon 10110, Thailand
https://www.google.com/maps/place/?q=place_id:ChIJMwKZPwGf4jARkgykQtmIoM8
ข้อมูลจาก ChefMinistry — chefministry.com</description>
      <ExtendedData>
        <Data name="rating"><value>4.4</value></Data>
        <Data name="reviews"><value>9206</value></Data>
        <Data name="cuisine"><value>Noodles</value></Data>
        <Data name="area"><value>Khlong Toei</value></Data>
        <Data name="google_maps"><value>https://www.google.com/maps/place/?q=place_id:ChIJMwKZPwGf4jARkgykQtmIoM8</value></Data>
      </ExtendedData>
      <Point><coordinates>100.57067239999999,13.728437099999999,0</coordinates></Point>
    </Placemark>
    <Placemark>
      <styleUrl>#cm0</styleUrl>
      <name>เล็กใหญ่ ก๋วยเตี๋ยวต้มยำโบราณ • สามย่าน</name>
      <description>⭐ 4.7 (5,437 รีวิว) · Noodles · Pathumwan · ฿
1440 Banthat Thong Rd, Khwaeng Wang Mai, Pathum Wan, Krung Thep Maha Nakhon 10110, Thailand
https://www.google.com/maps/place/?q=place_id:ChIJB_B7YUyZ4jARuPyeBAQ4EnI
ข้อมูลจาก ChefMinistry — chefministry.com</description>
      <ExtendedData>
        <Data name="rating"><value>4.7</value></Data>
        <Data name="reviews"><value>5437</value></Data>
        <Data name="cuisine"><value>Noodles</value></Data>
        <Data name="area"><value>Pathumwan</value></Data>
        <Data name="google_maps"><value>https://www.google.com/maps/place/?q=place_id:ChIJB_B7YUyZ4jARuPyeBAQ4EnI</value></Data>
      </ExtendedData>
      <Point><coordinates>100.5228213,13.7429054,0</coordinates></Point>
    </Placemark>
    <Placemark>
      <styleUrl>#cm0</styleUrl>
      <name>บ้านก๋วยเตี๋ยวเรือทอง อนุสาวรีย์ชัยสมรภูมิ</name>
      <description>⭐ 4.4 (3,205 รีวิว) · Noodles · Phaya Thai · ฿
1/7 Thanon Ratchawithi, Khwaeng Samsen Nai, Khet Phaya Thai, Krung Thep Maha Nakhon 10400, Thailand
https://www.google.com/maps/place/?q=place_id:ChIJ46MaYLCe4jARYgKxjbDAMYw
ข้อมูลจาก ChefMinistry — chefministry.com</description>
      <ExtendedData>
        <Data name="rating"><value>4.4</value></Data>
        <Data name="reviews"><value>3205</value></Data>
        <Data name="cuisine"><value>Noodles</value></Data>
        <Data name="area"><value>Phaya Thai</value></Data>
        <Data name="google_maps"><value>https://www.google.com/maps/place/?q=place_id:ChIJ46MaYLCe4jARYgKxjbDAMYw</value></Data>
      </ExtendedData>
      <Point><coordinates>100.5394974,13.765751799999999,0</coordinates></Point>
    </Placemark>
    <Placemark>
      <styleUrl>#cm0</styleUrl>
      <name>ร้านพี่อ้อก๋วยเตี๋ยวต้มยำกุ้ง</name>
      <description>⭐ 4.3 (3,381 รีวิว) · Noodles · Ratchathewi · ฿
68, 51 Thanon Phetchaburi, Khwaeng Thung Phaya Thai, Khet Ratchathewi, Krung Thep Maha Nakhon 10400, Thailand
https://www.google.com/maps/place/?q=place_id:ChIJsW06FTWZ4jARLILZg-S3ODU
ข้อมูลจาก ChefMinistry — chefministry.com</description>
      <ExtendedData>
        <Data name="rating"><value>4.3</value></Data>
        <Data name="reviews"><value>3381</value></Data>
        <Data name="cuisine"><value>Noodles</value></Data>
        <Data name="area"><value>Ratchathewi</value></Data>
        <Data name="google_maps"><value>https://www.google.com/maps/place/?q=place_id:ChIJsW06FTWZ4jARLILZg-S3ODU</value></Data>
      </ExtendedData>
      <Point><coordinates>100.52943479999999,13.7558844,0</coordinates></Point>
    </Placemark>
    <Placemark>
      <styleUrl>#cm0</styleUrl>
      <name>เล็กใหญ่ ก๋วยเตี๋ยวต้มยำโบราณ</name>
      <description>⭐ 4.8 (1,954 รีวิว) · Noodles · ดินแดง · ฿
126/13 ซ. วิภาวดิรังสิต2 แยก 6 Ratchadaphisek, Khet Din Daeng, Krung Thep Maha Nakhon 10400, Thailand
https://www.google.com/maps/place/?q=place_id:ChIJT9y3aMqf4jARRTx90LqDdU4
ข้อมูลจาก ChefMinistry — chefministry.com</description>
      <ExtendedData>
        <Data name="rating"><value>4.8</value></Data>
        <Data name="reviews"><value>1954</value></Data>
        <Data name="cuisine"><value>Noodles</value></Data>
        <Data name="area"><value>ดินแดง</value></Data>
        <Data name="google_maps"><value>https://www.google.com/maps/place/?q=place_id:ChIJT9y3aMqf4jARRTx90LqDdU4</value></Data>
      </ExtendedData>
      <Point><coordinates>100.5591116,13.7778919,0</coordinates></Point>
    </Placemark>
    <Placemark>
      <styleUrl>#cm0</styleUrl>
      <name>บะหมี่คนแซ่ลี ทองหล่อ</name>
      <description>⭐ 4.4 (2,582 รีวิว) · Noodles · Thonglor · ฿
1081 Sukhumvit Rd, แขวง วัฒนา Watthana, Krung Thep Maha Nakhon 10110, Thailand
https://www.google.com/maps/place/?q=place_id:ChIJXUzQ0Kif4jARpupfUL8zxTQ
ข้อมูลจาก ChefMinistry — chefministry.com</description>
      <ExtendedData>
        <Data name="rating"><value>4.4</value></Data>
        <Data name="reviews"><value>2582</value></Data>
        <Data name="cuisine"><value>Noodles</value></Data>
        <Data name="area"><value>Thonglor</value></Data>
        <Data name="google_maps"><value>https://www.google.com/maps/place/?q=place_id:ChIJXUzQ0Kif4jARpupfUL8zxTQ</value></Data>
      </ExtendedData>
      <Point><coordinates>100.57979139999999,13.7235613,0</coordinates></Point>
    </Placemark>
    <Placemark>
      <styleUrl>#cm0</styleUrl>
      <name>ก๋วยเตี๋ยวเรือสามแซ่บ โชคชัย4</name>
      <description>⭐ 4.8 (1,403 รีวิว) · Noodles · Lat Phrao · ฿
417 Chok Chai 4 Soi 49, ลาดพร้าว Khet Lat Phrao, Krung Thep Maha Nakhon 10230, Thailand
https://www.google.com/maps/place/?q=place_id:ChIJ42nFAfSd4jARAL_fOxX8ZIw
ข้อมูลจาก ChefMinistry — chefministry.com</description>
      <ExtendedData>
        <Data name="rating"><value>4.8</value></Data>
        <Data name="reviews"><value>1403</value></Data>
        <Data name="cuisine"><value>Noodles</value></Data>
        <Data name="area"><value>Lat Phrao</value></Data>
        <Data name="google_maps"><value>https://www.google.com/maps/place/?q=place_id:ChIJ42nFAfSd4jARAL_fOxX8ZIw</value></Data>
      </ExtendedData>
      <Point><coordinates>100.5961434,13.814485699999999,0</coordinates></Point>
    </Placemark>
    <Placemark>
      <styleUrl>#cm0</styleUrl>
      <name>ก๋วยเตี๋ยวเรือกรุงทอง สาขา อารีย์</name>
      <description>⭐ 4.9 (1,241 รีวิว) · Noodles · Phaya Thai · ฿
404 20-21 Phahon Yothin Road, Khwaeng Samsen Nai, Khet Phaya Thai, Krung Thep Maha Nakhon 10400, Thailand
https://www.google.com/maps/place/?q=place_id:ChIJSYzhdLSd4jARuqQajLQt6iU
ข้อมูลจาก ChefMinistry — chefministry.com</description>
      <ExtendedData>
        <Data name="rating"><value>4.9</value></Data>
        <Data name="reviews"><value>1241</value></Data>
        <Data name="cuisine"><value>Noodles</value></Data>
        <Data name="area"><value>Phaya Thai</value></Data>
        <Data name="google_maps"><value>https://www.google.com/maps/place/?q=place_id:ChIJSYzhdLSd4jARuqQajLQt6iU</value></Data>
      </ExtendedData>
      <Point><coordinates>100.5461521,13.782476299999999,0</coordinates></Point>
    </Placemark>
    <Placemark>
      <styleUrl>#cm0</styleUrl>
      <name>ก๋วยเตี๋ยวเรือ คุณชาย</name>
      <description>⭐ 4.3 (1,888 รีวิว) · Noodles · ตลิ่งชัน · ฿
18/3 หมู่ที่ 3 Khwaeng Chim Phli, Khet Taling Chan, Krung Thep Maha Nakhon 10170, Thailand
https://www.google.com/maps/place/?q=place_id:ChIJObsQvAGa4jAR6JIOd6FSNLU
ข้อมูลจาก ChefMinistry — chefministry.com</description>
      <ExtendedData>
        <Data name="rating"><value>4.3</value></Data>
        <Data name="reviews"><value>1888</value></Data>
        <Data name="cuisine"><value>Noodles</value></Data>
        <Data name="area"><value>ตลิ่งชัน</value></Data>
        <Data name="google_maps"><value>https://www.google.com/maps/place/?q=place_id:ChIJObsQvAGa4jAR6JIOd6FSNLU</value></Data>
      </ExtendedData>
      <Point><coordinates>100.4433713,13.786064699999999,0</coordinates></Point>
    </Placemark>
    <Placemark>
      <styleUrl>#cm0</styleUrl>
      <name>โอว ก๋วยเตี๋ยวพริกสด ซ.มัยลาภ(ย้ายจาก สุคนธสวัสดิ์)</name>
      <description>⭐ 4.4 (1,634 รีวิว) · Noodles · Bang Khen · ฿
91 Soi Rarm Intra 14, Khwaeng Tha Raeng, Khet Bang Khen, Krung Thep Maha Nakhon 10220, Thailand
https://www.google.com/maps/place/?q=place_id:ChIJeZgp14FiHTERKJ5qXZADweY
ข้อมูลจาก ChefMinistry — chefministry.com</description>
      <ExtendedData>
        <Data name="rating"><value>4.4</value></Data>
        <Data name="reviews"><value>1634</value></Data>
        <Data name="cuisine"><value>Noodles</value></Data>
        <Data name="area"><value>Bang Khen</value></Data>
        <Data name="google_maps"><value>https://www.google.com/maps/place/?q=place_id:ChIJeZgp14FiHTERKJ5qXZADweY</value></Data>
      </ExtendedData>
      <Point><coordinates>100.6240323,13.8485886,0</coordinates></Point>
    </Placemark>
    <Placemark>
      <styleUrl>#cm0</styleUrl>
      <name>ก๋วยเตี๋ยว ลุงหนั่นรัชดา</name>
      <description>⭐ 4.4 (1,533 รีวิว) · Noodles · Huai Khwang · ฿
Samsen Nok, Huai Khwang, Bangkok 10310, Thailand
https://www.google.com/maps/place/?q=place_id:ChIJYa6eVyyc4jARcONFu1TdUAY
ข้อมูลจาก ChefMinistry — chefministry.com</description>
      <ExtendedData>
        <Data name="rating"><value>4.4</value></Data>
        <Data name="reviews"><value>1533</value></Data>
        <Data name="cuisine"><value>Noodles</value></Data>
        <Data name="area"><value>Huai Khwang</value></Data>
        <Data name="google_maps"><value>https://www.google.com/maps/place/?q=place_id:ChIJYa6eVyyc4jARcONFu1TdUAY</value></Data>
      </ExtendedData>
      <Point><coordinates>100.58471829999999,13.7821169,0</coordinates></Point>
    </Placemark>
    <Placemark>
      <styleUrl>#cm0</styleUrl>
      <name>กลืนเส้น ก๋วยเตี๋ยวต้มยำ โชคชัย4</name>
      <description>⭐ 4.9 (1,053 รีวิว) · Noodles · Lat Phrao · ฿
206 หมู่10 Thanon Chok Chai 4, ลาดพร้าว Khet Lat Phrao, Krung Thep Maha Nakhon 10230, Thailand
https://www.google.com/maps/place/?q=place_id:ChIJyQDfPF2d4jARWG27SCyTEk0
ข้อมูลจาก ChefMinistry — chefministry.com</description>
      <ExtendedData>
        <Data name="rating"><value>4.9</value></Data>
        <Data name="reviews"><value>1053</value></Data>
        <Data name="cuisine"><value>Noodles</value></Data>
        <Data name="area"><value>Lat Phrao</value></Data>
        <Data name="google_maps"><value>https://www.google.com/maps/place/?q=place_id:ChIJyQDfPF2d4jARWG27SCyTEk0</value></Data>
      </ExtendedData>
      <Point><coordinates>100.59683079999999,13.803953799999999,0</coordinates></Point>
    </Placemark>
    <Placemark>
      <styleUrl>#cm0</styleUrl>
      <name>เปลว ก๋วยเตี๋ยวต้มยำโบราณนครปฐม</name>
      <description>⭐ 4.5 (1,311 รีวิว) · Noodles · Huai Khwang · ฿
633 Soi Pracha Rat Bamphen 21, Khwaeng Huai Khwang, Khet Huai Khwang, Krung Thep Maha Nakhon 10310, Thailand
https://www.google.com/maps/place/?q=place_id:ChIJfxhlxded4jAR0RkFWksUr9g
ข้อมูลจาก ChefMinistry — chefministry.com</description>
      <ExtendedData>
        <Data name="rating"><value>4.5</value></Data>
        <Data name="reviews"><value>1311</value></Data>
        <Data name="cuisine"><value>Noodles</value></Data>
        <Data name="area"><value>Huai Khwang</value></Data>
        <Data name="google_maps"><value>https://www.google.com/maps/place/?q=place_id:ChIJfxhlxded4jAR0RkFWksUr9g</value></Data>
      </ExtendedData>
      <Point><coordinates>100.5838775,13.7778569,0</coordinates></Point>
    </Placemark>
    <Placemark>
      <styleUrl>#cm0</styleUrl>
      <name>ต้อยก๋วยเตี๋ยวเรือ</name>
      <description>⭐ 4.4 (1,288 รีวิว) · Noodles · Ratchathewi · ฿
Soi Ratchawithi 18, Khwaeng Thung Phaya Thai, Khet Ratchathewi, Krung Thep Maha Nakhon 10400, Thailand
https://www.google.com/maps/place/?q=place_id:ChIJV3n3-rGe4jARrUnDLO8V4gY
ข้อมูลจาก ChefMinistry — chefministry.com</description>
      <ExtendedData>
        <Data name="rating"><value>4.4</value></Data>
        <Data name="reviews"><value>1288</value></Data>
        <Data name="cuisine"><value>Noodles</value></Data>
        <Data name="area"><value>Ratchathewi</value></Data>
        <Data name="google_maps"><value>https://www.google.com/maps/place/?q=place_id:ChIJV3n3-rGe4jARrUnDLO8V4gY</value></Data>
      </ExtendedData>
      <Point><coordinates>100.5359061,13.7681512,0</coordinates></Point>
    </Placemark>
    <Placemark>
      <styleUrl>#cm0</styleUrl>
      <name>ก๋วยเตี๋ยวต้มยำกากหมูสูตรโบราณ The Alley รามอินทรา</name>
      <description>⭐ 4.8 (950 รีวิว) · Noodles · Khan Na Yao · ฿
589 Ram Inthra Rd, Khwaeng Ram Inthra, Khet Khan Na Yao, Krung Thep Maha Nakhon 10230, Thailand
https://www.google.com/maps/place/?q=place_id:ChIJ1cl4YgBjHTERnUnihykA4Ow
ข้อมูลจาก ChefMinistry — chefministry.com</description>
      <ExtendedData>
        <Data name="rating"><value>4.8</value></Data>
        <Data name="reviews"><value>950</value></Data>
        <Data name="cuisine"><value>Noodles</value></Data>
        <Data name="area"><value>Khan Na Yao</value></Data>
        <Data name="google_maps"><value>https://www.google.com/maps/place/?q=place_id:ChIJ1cl4YgBjHTERnUnihykA4Ow</value></Data>
      </ExtendedData>
      <Point><coordinates>100.67031589999999,13.8335648,0</coordinates></Point>
    </Placemark>
    <Placemark>
      <styleUrl>#cm0</styleUrl>
      <name>ซ้งเตี๋ยวหมูต้มยำมะนาว Zongtiew Tom Yum Noodles</name>
      <description>⭐ 4.8 (924 รีวิว) · Noodles · Khlong San · ฿
912 Charoen Nakhon Rd, Khwaeng Bang Lamphu Lang, Khet Khlong San, Krung Thep Maha Nakhon 10600, Thailand
https://www.google.com/maps/place/?q=place_id:ChIJA8USHgCZ4jARO_rv3Kch4Yw
ข้อมูลจาก ChefMinistry — chefministry.com</description>
      <ExtendedData>
        <Data name="rating"><value>4.8</value></Data>
        <Data name="reviews"><value>924</value></Data>
        <Data name="cuisine"><value>Noodles</value></Data>
        <Data name="area"><value>Khlong San</value></Data>
        <Data name="google_maps"><value>https://www.google.com/maps/place/?q=place_id:ChIJA8USHgCZ4jARO_rv3Kch4Yw</value></Data>
      </ExtendedData>
      <Point><coordinates>100.5022515,13.7126468,0</coordinates></Point>
    </Placemark>
    <Placemark>
      <styleUrl>#cm0</styleUrl>
      <name>ก๋วยเตี๋ยวตรอกโรงหมู</name>
      <description>⭐ 4.4 (1,162 รีวิว) · Noodles · Yaowarat · ฿
23 10 Soi Sukon 1, Khwaeng Talat Noi, Khet Samphanthawong, Krung Thep Maha Nakhon 10100, Thailand
https://www.google.com/maps/place/?q=place_id:ChIJczXlESeZ4jAR7-MrzumXvKM
ข้อมูลจาก ChefMinistry — chefministry.com</description>
      <ExtendedData>
        <Data name="rating"><value>4.4</value></Data>
        <Data name="reviews"><value>1162</value></Data>
        <Data name="cuisine"><value>Noodles</value></Data>
        <Data name="area"><value>Yaowarat</value></Data>
        <Data name="google_maps"><value>https://www.google.com/maps/place/?q=place_id:ChIJczXlESeZ4jAR7-MrzumXvKM</value></Data>
      </ExtendedData>
      <Point><coordinates>100.51479510000001,13.737181,0</coordinates></Point>
    </Placemark>
    <Placemark>
      <styleUrl>#cm0</styleUrl>
      <name>เล้งเตี๋ยวหมูต้มยำ บรรทัดทอง (ร้านดั้งเดิม รสแซ่บ อร่อยคุ้มค่า)</name>
      <description>⭐ 4.9 (779 รีวิว) · Noodles · Pathumwan · ฿฿
1402 Banthat Thong Rd, Khwaeng Wang Mai, Pathum Wan, Krung Thep Maha Nakhon 10330, Thailand
https://www.google.com/maps/place/?q=place_id:ChIJcdV01cqZ4jARqO_-PU5X7kU
ข้อมูลจาก ChefMinistry — chefministry.com</description>
      <ExtendedData>
        <Data name="rating"><value>4.9</value></Data>
        <Data name="reviews"><value>779</value></Data>
        <Data name="cuisine"><value>Noodles</value></Data>
        <Data name="area"><value>Pathumwan</value></Data>
        <Data name="google_maps"><value>https://www.google.com/maps/place/?q=place_id:ChIJcdV01cqZ4jARqO_-PU5X7kU</value></Data>
      </ExtendedData>
      <Point><coordinates>100.5229104,13.7436068,0</coordinates></Point>
    </Placemark>
    <Placemark>
      <styleUrl>#cm0</styleUrl>
      <name>ก๋วยเตี๋ยวต้มยำกากหมูสูตรโบราณ รามคำแหง</name>
      <description>⭐ 4.8 (777 รีวิว) · Noodles · Saphan Sung · ฿
91 Soi 2, Khwaeng Saphan Sung, Khet Saphan Sung, Krung Thep Maha Nakhon 10240, Thailand
https://www.google.com/maps/place/?q=place_id:ChIJgb8_7_ZhHTERjBV_yKW8PZk
ข้อมูลจาก ChefMinistry — chefministry.com</description>
      <ExtendedData>
        <Data name="rating"><value>4.8</value></Data>
        <Data name="reviews"><value>777</value></Data>
        <Data name="cuisine"><value>Noodles</value></Data>
        <Data name="area"><value>Saphan Sung</value></Data>
        <Data name="google_maps"><value>https://www.google.com/maps/place/?q=place_id:ChIJgb8_7_ZhHTERjBV_yKW8PZk</value></Data>
      </ExtendedData>
      <Point><coordinates>100.67323490000001,13.7776718,0</coordinates></Point>
    </Placemark>
    <Placemark>
      <styleUrl>#cm0</styleUrl>
      <name>ก๋วยเตี๋ยว &quot;แซว&quot; 49</name>
      <description>⭐ 4.4 (1,030 รีวิว) · Noodles · Watthana · ฿
1 Sukhumvit 49, Khwaeng Khlong Tan Nuea, Watthana, Krung Thep Maha Nakhon 10110, Thailand
https://www.google.com/maps/place/?q=place_id:ChIJ3fcy96mf4jAR4Op5i05ZuzQ
ข้อมูลจาก ChefMinistry — chefministry.com</description>
      <ExtendedData>
        <Data name="rating"><value>4.4</value></Data>
        <Data name="reviews"><value>1030</value></Data>
        <Data name="cuisine"><value>Noodles</value></Data>
        <Data name="area"><value>Watthana</value></Data>
        <Data name="google_maps"><value>https://www.google.com/maps/place/?q=place_id:ChIJ3fcy96mf4jAR4Op5i05ZuzQ</value></Data>
      </ExtendedData>
      <Point><coordinates>100.57541959999999,13.7269594,0</coordinates></Point>
    </Placemark>
    <Placemark>
      <styleUrl>#cm0</styleUrl>
      <name>ก๋วยเตี๋ยว ต้มเลือดหมูนายใช้ ลาดพร้าว</name>
      <description>⭐ 4.3 (1,052 รีวิว) · Noodles · Lat Phrao · ฿
36 ถนน นาคนิวาส Sena Niwet Soi 125/2, Khwaeng Lat Phrao, Khet Lat Phrao, Krung Thep Maha Nakhon 10230, Thailand
https://www.google.com/maps/place/?q=place_id:ChIJK-MjOu2d4jARJXQXUhyrhhw
ข้อมูลจาก ChefMinistry — chefministry.com</description>
      <ExtendedData>
        <Data name="rating"><value>4.3</value></Data>
        <Data name="reviews"><value>1052</value></Data>
        <Data name="cuisine"><value>Noodles</value></Data>
        <Data name="area"><value>Lat Phrao</value></Data>
        <Data name="google_maps"><value>https://www.google.com/maps/place/?q=place_id:ChIJK-MjOu2d4jARJXQXUhyrhhw</value></Data>
      </ExtendedData>
      <Point><coordinates>100.6066488,13.7990588,0</coordinates></Point>
    </Placemark>
    <Placemark>
      <styleUrl>#cm0</styleUrl>
      <name>โคตรเฮงสาย2 ก๋วยเตี๋ยวเรือ ข้าวมันไก่สิงคโปร์ กะเพราถาด</name>
      <description>⭐ 4.3 (852 รีวิว) · Noodles · Bang Khae · ฿
Point Center Co.,Ltd., 2/62, Moo 5, Phutthamonthon Sai 2 Road North Khwaeng Bang Phai, Khet Bang Khae, Krung Thep Maha Nakhon 10160, Thailand
https://www.google.com/maps/place/?q=place_id:ChIJTWLDT2iX4jARroi4zcEAQtI
ข้อมูลจาก ChefMinistry — chefministry.com</description>
      <ExtendedData>
        <Data name="rating"><value>4.3</value></Data>
        <Data name="reviews"><value>852</value></Data>
        <Data name="cuisine"><value>Noodles</value></Data>
        <Data name="area"><value>Bang Khae</value></Data>
        <Data name="google_maps"><value>https://www.google.com/maps/place/?q=place_id:ChIJTWLDT2iX4jARroi4zcEAQtI</value></Data>
      </ExtendedData>
      <Point><coordinates>100.395241,13.737764799999999,0</coordinates></Point>
    </Placemark>
    <Placemark>
      <styleUrl>#cm0</styleUrl>
      <name>มานา ก๋วยเตี๋ยวหมูตำลึง</name>
      <description>⭐ 4.3 (833 รีวิว) · Noodles · จตุจักร · ฿
100/4 ถนน เทศบาลรังรักษ์เหนือ Khwaeng Lat Yao, Khet Chatuchak, Krung Thep Maha Nakhon 10900, Thailand
https://www.google.com/maps/place/?q=place_id:ChIJ7yBde5Gc4jARIpEbOyHIM2w
ข้อมูลจาก ChefMinistry — chefministry.com</description>
      <ExtendedData>
        <Data name="rating"><value>4.3</value></Data>
        <Data name="reviews"><value>833</value></Data>
        <Data name="cuisine"><value>Noodles</value></Data>
        <Data name="area"><value>จตุจักร</value></Data>
        <Data name="google_maps"><value>https://www.google.com/maps/place/?q=place_id:ChIJ7yBde5Gc4jARIpEbOyHIM2w</value></Data>
      </ExtendedData>
      <Point><coordinates>100.5466086,13.840724,0</coordinates></Point>
    </Placemark>
    <Placemark>
      <styleUrl>#cm0</styleUrl>
      <name>ก๋วยเตี๋ยวเรือศรีอยุธยา นางลิ้นจี่ Sri Ayutthaya Boat Noodle Nanglinchi</name>
      <description>⭐ 4.9 (488 รีวิว) · Noodles · Sathorn · ฿
Nang Linchi Rd, Khwaeng Thung Maha Mek, Khet Sathon, Krung Thep Maha Nakhon 10120, Thailand
https://www.google.com/maps/place/?q=place_id:ChIJZbP_OwCf4jARJ6oKeQTefvc
ข้อมูลจาก ChefMinistry — chefministry.com</description>
      <ExtendedData>
        <Data name="rating"><value>4.9</value></Data>
        <Data name="reviews"><value>488</value></Data>
        <Data name="cuisine"><value>Noodles</value></Data>
        <Data name="area"><value>Sathorn</value></Data>
        <Data name="google_maps"><value>https://www.google.com/maps/place/?q=place_id:ChIJZbP_OwCf4jARJ6oKeQTefvc</value></Data>
      </ExtendedData>
      <Point><coordinates>100.5399388,13.7142629,0</coordinates></Point>
    </Placemark>
    <Placemark>
      <styleUrl>#cm0</styleUrl>
      <name>ก๋วยเตี๋ยวเรือรสไทย สูตรโบราณ ตลาดเตาปูน</name>
      <description>⭐ 4.4 (691 รีวิว) · Noodles · Nonthaburi · ฿
44 36-37 ถ. กรุงเทพ - นนทบุรี Khwaeng Bang Sue, Khet Bang Sue, Krung Thep Maha Nakhon 10800, Thailand
https://www.google.com/maps/place/?q=place_id:ChIJJ5M1S3Sc4jAR34WGfkLcdU0
ข้อมูลจาก ChefMinistry — chefministry.com</description>
      <ExtendedData>
        <Data name="rating"><value>4.4</value></Data>
        <Data name="reviews"><value>691</value></Data>
        <Data name="cuisine"><value>Noodles</value></Data>
        <Data name="area"><value>Nonthaburi</value></Data>
        <Data name="google_maps"><value>https://www.google.com/maps/place/?q=place_id:ChIJJ5M1S3Sc4jAR34WGfkLcdU0</value></Data>
      </ExtendedData>
      <Point><coordinates>100.53240029999999,13.8070468,0</coordinates></Point>
    </Placemark>
    <Placemark>
      <styleUrl>#cm0</styleUrl>
      <name>ก๋วยเตี๋ยวเรืออยุธยา เจ๊จุ๋ม</name>
      <description>⭐ 4.3 (696 รีวิว) · Noodles · Bangkok Noi · ฿
23, 46 Thanon Bang Khun Non, Khwaeng Bang Khun Non, Khet Bangkok Noi, Krung Thep Maha Nakhon 10700, Thailand
https://www.google.com/maps/place/?q=place_id:ChIJgaSL3JCZ4jARtfMy1U2ubU8
ข้อมูลจาก ChefMinistry — chefministry.com</description>
      <ExtendedData>
        <Data name="rating"><value>4.3</value></Data>
        <Data name="reviews"><value>696</value></Data>
        <Data name="cuisine"><value>Noodles</value></Data>
        <Data name="area"><value>Bangkok Noi</value></Data>
        <Data name="google_maps"><value>https://www.google.com/maps/place/?q=place_id:ChIJgaSL3JCZ4jARtfMy1U2ubU8</value></Data>
      </ExtendedData>
      <Point><coordinates>100.4713242,13.7666855,0</coordinates></Point>
    </Placemark>
    <Placemark>
      <styleUrl>#cm0</styleUrl>
      <name>ก๋วยเตี๋ยวเรือ น้าเสริม รสเด็ด</name>
      <description>⭐ 4.9 (443 รีวิว) · Noodles · Lat Krabang · ฿
2 Soi Thai Samut, Khwaeng Lat Krabang, Khet Lat Krabang, Krung Thep Maha Nakhon 10520, Thailand
https://www.google.com/maps/place/?q=place_id:ChIJH19e4rJnHTERJQNw-MPrFXU
ข้อมูลจาก ChefMinistry — chefministry.com</description>
      <ExtendedData>
        <Data name="rating"><value>4.9</value></Data>
        <Data name="reviews"><value>443</value></Data>
        <Data name="cuisine"><value>Noodles</value></Data>
        <Data name="area"><value>Lat Krabang</value></Data>
        <Data name="google_maps"><value>https://www.google.com/maps/place/?q=place_id:ChIJH19e4rJnHTERJQNw-MPrFXU</value></Data>
      </ExtendedData>
      <Point><coordinates>100.7175795,13.721649,0</coordinates></Point>
    </Placemark>
    <Placemark>
      <styleUrl>#cm0</styleUrl>
      <name>Shindo Ramen</name>
      <description>⭐ 4.3 (645 รีวิว) · Japanese Ramen · Bangkok · ฿฿
65/29 Tambon Salaya, Amphoe Phutthamonthon, Chang Wat Nakhon Pathom 73170, Thailand
https://www.google.com/maps/place/?q=place_id:ChIJY86myZGT4jARM6NVxi4V0B4
ข้อมูลจาก ChefMinistry — chefministry.com</description>
      <ExtendedData>
        <Data name="rating"><value>4.3</value></Data>
        <Data name="reviews"><value>645</value></Data>
        <Data name="cuisine"><value>Japanese Ramen</value></Data>
        <Data name="area"><value>Bangkok</value></Data>
        <Data name="google_maps"><value>https://www.google.com/maps/place/?q=place_id:ChIJY86myZGT4jARM6NVxi4V0B4</value></Data>
      </ExtendedData>
      <Point><coordinates>100.31932230000001,13.802026999999999,0</coordinates></Point>
    </Placemark>
    <Placemark>
      <styleUrl>#cm0</styleUrl>
      <name>SENDO RAMEN</name>
      <description>⭐ 4.4 (569 รีวิว) · Japanese Ramen · Bang Rak · ฿฿
SENDO RAMEN, 4F Thaniya Building, 52 ถ.สีลม แขวงสุริยวงศ์ เขตบางรัก กรุงเทพมหานคร 10500, Thailand
https://www.google.com/maps/place/?q=place_id:ChIJlepoPZOf4jAR6BpXAs-dEkw
ข้อมูลจาก ChefMinistry — chefministry.com</description>
      <ExtendedData>
        <Data name="rating"><value>4.4</value></Data>
        <Data name="reviews"><value>569</value></Data>
        <Data name="cuisine"><value>Japanese Ramen</value></Data>
        <Data name="area"><value>Bang Rak</value></Data>
        <Data name="google_maps"><value>https://www.google.com/maps/place/?q=place_id:ChIJlepoPZOf4jAR6BpXAs-dEkw</value></Data>
      </ExtendedData>
      <Point><coordinates>100.53375820000001,13.7286443,0</coordinates></Point>
    </Placemark>
    <Placemark>
      <styleUrl>#cm0</styleUrl>
      <name>ก๋วยเตี๋ยวเรืออัศวิน สาขาบรรทัดทอง</name>
      <description>⭐ 4.7 (452 รีวิว) · Noodles · Pathumwan · ฿
989, 991 Banthat Thong Rd, Khwaeng Wang Mai, Pathum Wan, Krung Thep Maha Nakhon 10330, Thailand
https://www.google.com/maps/place/?q=place_id:ChIJdVWoztef4jARZLV_wRkB6aE
ข้อมูลจาก ChefMinistry — chefministry.com</description>
      <ExtendedData>
        <Data name="rating"><value>4.7</value></Data>
        <Data name="reviews"><value>452</value></Data>
        <Data name="cuisine"><value>Noodles</value></Data>
        <Data name="area"><value>Pathumwan</value></Data>
        <Data name="google_maps"><value>https://www.google.com/maps/place/?q=place_id:ChIJdVWoztef4jARZLV_wRkB6aE</value></Data>
      </ExtendedData>
      <Point><coordinates>100.52311859999999,13.7433953,0</coordinates></Point>
    </Placemark>
    <Placemark>
      <styleUrl>#cm0</styleUrl>
      <name>ก๋วยเตี๋ยวเรือศรีอยุธยา (เทเวศร์) Sri Ayutthaya Noodle</name>
      <description>⭐ 4.3 (600 รีวิว) · Noodles · ดุสิต · ฿
224 Thanon Si Ayutthaya, Khwaeng Dusit, Khet Dusit, Krung Thep Maha Nakhon 10300, Thailand
https://www.google.com/maps/place/?q=place_id:ChIJJ1RCj6YxEBERZfi0fOQhxpk
ข้อมูลจาก ChefMinistry — chefministry.com</description>
      <ExtendedData>
        <Data name="rating"><value>4.3</value></Data>
        <Data name="reviews"><value>600</value></Data>
        <Data name="cuisine"><value>Noodles</value></Data>
        <Data name="area"><value>ดุสิต</value></Data>
        <Data name="google_maps"><value>https://www.google.com/maps/place/?q=place_id:ChIJJ1RCj6YxEBERZfi0fOQhxpk</value></Data>
      </ExtendedData>
      <Point><coordinates>100.5061087,13.7704244,0</coordinates></Point>
    </Placemark>
    <Placemark>
      <styleUrl>#cm0</styleUrl>
      <name>ก๋วยเตี๋ยวเรืออยุธยา รสดั้งเดิม สูตรโบราณ</name>
      <description>⭐ 4.4 (537 รีวิว) · Noodles · Don Mueang · ฿
VHWP+WXM, Don Mueang, Bangkok 10210, Thailand
https://www.google.com/maps/place/?q=place_id:ChIJr2BoyOiC4jARETmijn0oZHo
ข้อมูลจาก ChefMinistry — chefministry.com</description>
      <ExtendedData>
        <Data name="rating"><value>4.4</value></Data>
        <Data name="reviews"><value>537</value></Data>
        <Data name="cuisine"><value>Noodles</value></Data>
        <Data name="area"><value>Don Mueang</value></Data>
        <Data name="google_maps"><value>https://www.google.com/maps/place/?q=place_id:ChIJr2BoyOiC4jARETmijn0oZHo</value></Data>
      </ExtendedData>
      <Point><coordinates>100.58742629999999,13.897330700000001,0</coordinates></Point>
    </Placemark>
    <Placemark>
      <styleUrl>#cm0</styleUrl>
      <name>เจ๊พร ก๋วยเตี๋ยวเรืออยุธยา (สูตรต้นตำรับ) Porn The Original Recipe Of The Ayutthaya Boat Noodle</name>
      <description>⭐ 4.9 (353 รีวิว) · Noodles · คลองสามวา · ฿฿
ห้องเลขที่ 1-3 หน้า CJ 244 Thanon Surao Khlong Nueng, บางชัน Khet Khlong Sam Wa, Krung Thep Maha Nakhon 10510, Thailand
https://www.google.com/maps/place/?q=place_id:ChIJb41ZUNpjHTER4U0i1mzlZRg
ข้อมูลจาก ChefMinistry — chefministry.com</description>
      <ExtendedData>
        <Data name="rating"><value>4.9</value></Data>
        <Data name="reviews"><value>353</value></Data>
        <Data name="cuisine"><value>Noodles</value></Data>
        <Data name="area"><value>คลองสามวา</value></Data>
        <Data name="google_maps"><value>https://www.google.com/maps/place/?q=place_id:ChIJb41ZUNpjHTER4U0i1mzlZRg</value></Data>
      </ExtendedData>
      <Point><coordinates>100.7013872,13.841145599999999,0</coordinates></Point>
    </Placemark>
    <Placemark>
      <styleUrl>#cm0</styleUrl>
      <name>ก๋วยเตี๋ยวต้มยำ ธิษณา</name>
      <description>⭐ 4.8 (364 รีวิว) · Noodles · พระโขนง · ฿
เลขที่171 Soi Chiam Udom 3, Khwaeng Bang Chak, Khet Phra Khanong, Krung Thep Maha Nakhon 10260, Thailand
https://www.google.com/maps/place/?q=place_id:ChIJV91sGwCh4jARQLMKL4feOLI
ข้อมูลจาก ChefMinistry — chefministry.com</description>
      <ExtendedData>
        <Data name="rating"><value>4.8</value></Data>
        <Data name="reviews"><value>364</value></Data>
        <Data name="cuisine"><value>Noodles</value></Data>
        <Data name="area"><value>พระโขนง</value></Data>
        <Data name="google_maps"><value>https://www.google.com/maps/place/?q=place_id:ChIJV91sGwCh4jARQLMKL4feOLI</value></Data>
      </ExtendedData>
      <Point><coordinates>100.61768029999999,13.6844979,0</coordinates></Point>
    </Placemark>
    <Placemark>
      <styleUrl>#cm0</styleUrl>
      <name>ก๋วยเตี๋ยวเรือร้านลุงประตูน้ำ</name>
      <description>⭐ 4.5 (387 รีวิว) · Noodles · Ratchathewi · ฿
1024, 2 Soi Petchburi 32, Khwaeng Makkasan, Khet Ratchathewi, Krung Thep Maha Nakhon 10400, Thailand
https://www.google.com/maps/place/?q=place_id:ChIJc1AsjsWe4jAR6lloU6c-JfA
ข้อมูลจาก ChefMinistry — chefministry.com</description>
      <ExtendedData>
        <Data name="rating"><value>4.5</value></Data>
        <Data name="reviews"><value>387</value></Data>
        <Data name="cuisine"><value>Noodles</value></Data>
        <Data name="area"><value>Ratchathewi</value></Data>
        <Data name="google_maps"><value>https://www.google.com/maps/place/?q=place_id:ChIJc1AsjsWe4jAR6lloU6c-JfA</value></Data>
      </ExtendedData>
      <Point><coordinates>100.5431045,13.749186799999999,0</coordinates></Point>
    </Placemark>
    <Placemark>
      <styleUrl>#cm0</styleUrl>
      <name>เกี๊ยวหนองบัว วังหลัง Kiew Nong Bua Wang Lang, Trat Original Egg Noodle &amp; Wonton/ Cafe &amp; Bar</name>
      <description>⭐ 4.4 (406 รีวิว) · Noodles · Bangkok Noi · ฿฿
264 Trok Wat Rakhang Khwaeng Siriraj, Khet Bangkok Noi, Krung Thep Maha Nakhon 10700, Thailand
https://www.google.com/maps/place/?q=place_id:ChIJl3kuzpSZ4jARqbw2E_mN0BM
ข้อมูลจาก ChefMinistry — chefministry.com</description>
      <ExtendedData>
        <Data name="rating"><value>4.4</value></Data>
        <Data name="reviews"><value>406</value></Data>
        <Data name="cuisine"><value>Noodles</value></Data>
        <Data name="area"><value>Bangkok Noi</value></Data>
        <Data name="google_maps"><value>https://www.google.com/maps/place/?q=place_id:ChIJl3kuzpSZ4jARqbw2E_mN0BM</value></Data>
      </ExtendedData>
      <Point><coordinates>100.4863508,13.7532581,0</coordinates></Point>
    </Placemark>
    <Placemark>
      <styleUrl>#cm0</styleUrl>
      <name>สาวเส้น ก๋วยเตี๋ยวต้มยำ บางรัก Zaozen Tomyum Noodle</name>
      <description>⭐ 4.8 (299 รีวิว) · Noodles · บางรัก · ฿
1483 ถ. เจริญกรุง Si Lom, Khet Bang Rak, Krung Thep Maha Nakhon 10500, Thailand
https://www.google.com/maps/place/?q=place_id:ChIJsYOnguCZ4jARzml-t57gEdA
ข้อมูลจาก ChefMinistry — chefministry.com</description>
      <ExtendedData>
        <Data name="rating"><value>4.8</value></Data>
        <Data name="reviews"><value>299</value></Data>
        <Data name="cuisine"><value>Noodles</value></Data>
        <Data name="area"><value>บางรัก</value></Data>
        <Data name="google_maps"><value>https://www.google.com/maps/place/?q=place_id:ChIJsYOnguCZ4jARzml-t57gEdA</value></Data>
      </ExtendedData>
      <Point><coordinates>100.5154293,13.7190748,0</coordinates></Point>
    </Placemark>
    <Placemark>
      <styleUrl>#cm0</styleUrl>
      <name>Ari Noodle</name>
      <description>⭐ 4.6 (318 รีวิว) · Noodles · Phaya Thai · ฿
Soi Ari 1, Phaya Thai, Khet Phaya Thai, Krung Thep Maha Nakhon 10400, Thailand
https://www.google.com/maps/place/?q=place_id:ChIJqzy8KQCd4jARm5z4aJ1hLmc
ข้อมูลจาก ChefMinistry — chefministry.com</description>
      <ExtendedData>
        <Data name="rating"><value>4.6</value></Data>
        <Data name="reviews"><value>318</value></Data>
        <Data name="cuisine"><value>Noodles</value></Data>
        <Data name="area"><value>Phaya Thai</value></Data>
        <Data name="google_maps"><value>https://www.google.com/maps/place/?q=place_id:ChIJqzy8KQCd4jARm5z4aJ1hLmc</value></Data>
      </ExtendedData>
      <Point><coordinates>100.54443619999999,13.780985699999999,0</coordinates></Point>
    </Placemark>
    <Placemark>
      <styleUrl>#cm0</styleUrl>
      <name>ก๋วยเตี๋ยวเอี่ยมน้อย</name>
      <description>⭐ 4.3 (385 รีวิว) · Noodles · Pathumwan · ฿
1864 Banthat Thong Rd, Khwaeng Rong Muang, Pathum Wan, Krung Thep Maha Nakhon 10330, Thailand
https://www.google.com/maps/place/?q=place_id:ChIJ94RVpimZ4jAR4EW1NTw5nvU
ข้อมูลจาก ChefMinistry — chefministry.com</description>
      <ExtendedData>
        <Data name="rating"><value>4.3</value></Data>
        <Data name="reviews"><value>385</value></Data>
        <Data name="cuisine"><value>Noodles</value></Data>
        <Data name="area"><value>Pathumwan</value></Data>
        <Data name="google_maps"><value>https://www.google.com/maps/place/?q=place_id:ChIJ94RVpimZ4jAR4EW1NTw5nvU</value></Data>
      </ExtendedData>
      <Point><coordinates>100.5218422,13.737805,0</coordinates></Point>
    </Placemark>
    <Placemark>
      <styleUrl>#cm0</styleUrl>
      <name>2พี่น้อง ก๋วยเตี๋ยวต้มยำ</name>
      <description>⭐ 4.4 (350 รีวิว) · Noodles · Lat Phrao · ฿
520 ถนน โชคชัย 4 ซอย 48 หัว มุม แขวง เขต ลาดพร้าว 10230 ซอย ลาดพร้าว ลาดพร้าว ลาดพร้าว Khwaeng Lat Phrao, Khet Lat Phrao, Krung Thep Maha Nakhon 10230, Thailand
https://www.google.com/maps/place/?q=place_id:ChIJjar8vKKd4jARPLWCHXsT9qs
ข้อมูลจาก ChefMinistry — chefministry.com</description>
      <ExtendedData>
        <Data name="rating"><value>4.4</value></Data>
        <Data name="reviews"><value>350</value></Data>
        <Data name="cuisine"><value>Noodles</value></Data>
        <Data name="area"><value>Lat Phrao</value></Data>
        <Data name="google_maps"><value>https://www.google.com/maps/place/?q=place_id:ChIJjar8vKKd4jARPLWCHXsT9qs</value></Data>
      </ExtendedData>
      <Point><coordinates>100.5963387,13.8129931,0</coordinates></Point>
    </Placemark>
    <Placemark>
      <styleUrl>#cm0</styleUrl>
      <name>นัวโภชนา (ก๋วยเตี๋ยวหมูต้มยำนัว)</name>
      <description>⭐ 4.3 (342 รีวิว) · Noodles · Phaya Thai · ฿
1511/9 Phahon Yothin Road, Khwaeng Samsen Nai, Khet Phaya Thai, Krung Thep Maha Nakhon 10400, Thailand
https://www.google.com/maps/place/?q=place_id:ChIJpSSVcxec4jARFV7ry810u3U
ข้อมูลจาก ChefMinistry — chefministry.com</description>
      <ExtendedData>
        <Data name="rating"><value>4.3</value></Data>
        <Data name="reviews"><value>342</value></Data>
        <Data name="cuisine"><value>Noodles</value></Data>
        <Data name="area"><value>Phaya Thai</value></Data>
        <Data name="google_maps"><value>https://www.google.com/maps/place/?q=place_id:ChIJpSSVcxec4jARFV7ry810u3U</value></Data>
      </ExtendedData>
      <Point><coordinates>100.54906129999999,13.792414899999999,0</coordinates></Point>
    </Placemark>
    <Placemark>
      <styleUrl>#cm0</styleUrl>
      <name>เมืองกรุง ก๋วยเตี๋ยวไก่มะระ วังหิน</name>
      <description>⭐ 4.3 (318 รีวิว) · Noodles · Lat Phrao · ฿
970 Thanon Lat Phrao Wanghin, Khwaeng Lat Phrao, Khet Lat Phrao, Krung Thep Maha Nakhon 10230, Thailand
https://www.google.com/maps/place/?q=place_id:ChIJMf5-Gwyd4jAR-hzQUNK4qw8
ข้อมูลจาก ChefMinistry — chefministry.com</description>
      <ExtendedData>
        <Data name="rating"><value>4.3</value></Data>
        <Data name="reviews"><value>318</value></Data>
        <Data name="cuisine"><value>Noodles</value></Data>
        <Data name="area"><value>Lat Phrao</value></Data>
        <Data name="google_maps"><value>https://www.google.com/maps/place/?q=place_id:ChIJMf5-Gwyd4jAR-hzQUNK4qw8</value></Data>
      </ExtendedData>
      <Point><coordinates>100.59189699999999,13.8300436,0</coordinates></Point>
    </Placemark>
    <Placemark>
      <styleUrl>#cm0</styleUrl>
      <name>ร้านตะ-หลอด ก๋วยเตี๋ยวหลอดทรงเครื่อง สูตรโบราณ</name>
      <description>⭐ 4.7 (206 รีวิว) · Noodles · Don Mueang · ฿
22, 169 Soi Vibhavadirangsit 35, Khwaeng Sanambin, Khet Don Mueang, Krung Thep Maha Nakhon 10210, Thailand
https://www.google.com/maps/place/?q=place_id:ChIJxXXE2DWD4jAR0P1XCg6ffK0
ข้อมูลจาก ChefMinistry — chefministry.com</description>
      <ExtendedData>
        <Data name="rating"><value>4.7</value></Data>
        <Data name="reviews"><value>206</value></Data>
        <Data name="cuisine"><value>Noodles</value></Data>
        <Data name="area"><value>Don Mueang</value></Data>
        <Data name="google_maps"><value>https://www.google.com/maps/place/?q=place_id:ChIJxXXE2DWD4jAR0P1XCg6ffK0</value></Data>
      </ExtendedData>
      <Point><coordinates>100.61039459999999,13.9406933,0</coordinates></Point>
    </Placemark>
    <Placemark>
      <styleUrl>#cm0</styleUrl>
      <name>ก๋วยเตี๋ยวเรือป้ามณ</name>
      <description>⭐ 4.5 (208 รีวิว) · Noodles · Bangkok · ฿
4/877 ซ. 65 Khwaeng Khlong Kum, Khet Bueng Kum, Krung Thep Maha Nakhon 10230, Thailand
https://www.google.com/maps/place/?q=place_id:ChIJjdLGC8pjHTERARZm0_GD_Vc
ข้อมูลจาก ChefMinistry — chefministry.com</description>
      <ExtendedData>
        <Data name="rating"><value>4.5</value></Data>
        <Data name="reviews"><value>208</value></Data>
        <Data name="cuisine"><value>Noodles</value></Data>
        <Data name="area"><value>Bangkok</value></Data>
        <Data name="google_maps"><value>https://www.google.com/maps/place/?q=place_id:ChIJjdLGC8pjHTERARZm0_GD_Vc</value></Data>
      </ExtendedData>
      <Point><coordinates>100.6691989,13.797000599999999,0</coordinates></Point>
    </Placemark>
    <Placemark>
      <styleUrl>#cm0</styleUrl>
      <name>Honaji Ramen เซ็นทรัล พระราม 9</name>
      <description>⭐ 4.4 (175 รีวิว) · Ramen · Suan Luang · ฿
135 Rama IX Rd, Khwaeng Suan Luang, Khet Suan Luang, Krung Thep Maha Nakhon 10310, Thailand
https://www.google.com/maps/place/?q=place_id:ChIJLUSieuif4jAR0zJ2mg2vJDs
ข้อมูลจาก ChefMinistry — chefministry.com</description>
      <ExtendedData>
        <Data name="rating"><value>4.4</value></Data>
        <Data name="reviews"><value>175</value></Data>
        <Data name="cuisine"><value>Ramen</value></Data>
        <Data name="area"><value>Suan Luang</value></Data>
        <Data name="google_maps"><value>https://www.google.com/maps/place/?q=place_id:ChIJLUSieuif4jAR0zJ2mg2vJDs</value></Data>
      </ExtendedData>
      <Point><coordinates>100.5658577,13.758443600000001,0</coordinates></Point>
    </Placemark>
    <Placemark>
      <styleUrl>#cm0</styleUrl>
      <name>ร้านเย็นตาโฟ สิงโตคืนชีพ</name>
      <description>⭐ 4.4 (172 รีวิว) · Noodles · Minburi · ฿
RPCQ+226, Min Buri, Bangkok 10510, Thailand
https://www.google.com/maps/place/?q=place_id:ChIJl9pA0_VkHTERlFVGHNwwpvY
ข้อมูลจาก ChefMinistry — chefministry.com</description>
      <ExtendedData>
        <Data name="rating"><value>4.4</value></Data>
        <Data name="reviews"><value>172</value></Data>
        <Data name="cuisine"><value>Noodles</value></Data>
        <Data name="area"><value>Minburi</value></Data>
        <Data name="google_maps"><value>https://www.google.com/maps/place/?q=place_id:ChIJl9pA0_VkHTERlFVGHNwwpvY</value></Data>
      </ExtendedData>
      <Point><coordinates>100.7375106,13.8200407,0</coordinates></Point>
    </Placemark>
    <Placemark>
      <styleUrl>#cm0</styleUrl>
      <name>ครัวแต้จิ๋ว - คั่วไก่ ข้าวผัดปู หอยจ๊อปู ออส่วน โกยซีหมี่</name>
      <description>⭐ 4.3 (175 รีวิว) · Noodles · Sukhumvit · ฿฿
ตลาด, 88 Thanon Vacharaphol, Khwaeng Tha Raeng, Khet Bang Khen, Krung Thep Maha Nakhon 10230, Thailand
https://www.google.com/maps/place/?q=place_id:ChIJOfFoVUmD4jARudL_PFetLRE
ข้อมูลจาก ChefMinistry — chefministry.com</description>
      <ExtendedData>
        <Data name="rating"><value>4.3</value></Data>
        <Data name="reviews"><value>175</value></Data>
        <Data name="cuisine"><value>Noodles</value></Data>
        <Data name="area"><value>Sukhumvit</value></Data>
        <Data name="google_maps"><value>https://www.google.com/maps/place/?q=place_id:ChIJOfFoVUmD4jARudL_PFetLRE</value></Data>
      </ExtendedData>
      <Point><coordinates>100.6439321,13.857189799999999,0</coordinates></Point>
    </Placemark>
    <Placemark>
      <styleUrl>#cm0</styleUrl>
      <name>ก๋วยเตี๋ยวเป็ด ซอยคอนแวนต์</name>
      <description>⭐ 4.5 (50 รีวิว) · Noodles · Silom · ฿
142 Soi Sathon 6, Si Lom, Khet Bang Rak, Krung Thep Maha Nakhon 10500, Thailand
https://www.google.com/maps/place/?q=place_id:ChIJKYL0mC2f4jARxKM-NBEDXjg
ข้อมูลจาก ChefMinistry — chefministry.com</description>
      <ExtendedData>
        <Data name="rating"><value>4.5</value></Data>
        <Data name="reviews"><value>50</value></Data>
        <Data name="cuisine"><value>Noodles</value></Data>
        <Data name="area"><value>Silom</value></Data>
        <Data name="google_maps"><value>https://www.google.com/maps/place/?q=place_id:ChIJKYL0mC2f4jARxKM-NBEDXjg</value></Data>
      </ExtendedData>
      <Point><coordinates>100.5328712,13.7251771,0</coordinates></Point>
    </Placemark>
  </Folder>
</Document></kml>