<?xml version="1.0" encoding="UTF-8"?>
<kml xmlns="http://www.opengis.net/kml/2.2">
<Document>
  <name>ChefMinistry — 🥩 ปิ้งย่าง &amp; ชาบู</name>
  <description>อัปเดต 2026-07-31 — chefministry.com</description>
  <Style id="cm0"><IconStyle><color>ff4b4bd6</color><Icon><href>http://maps.google.com/mapfiles/kml/shapes/dining.png</href></Icon></IconStyle></Style>
  <Folder>
    <name>🥩 ปิ้งย่าง &amp; ชาบู</name>
    <Placemark>
      <styleUrl>#cm0</styleUrl>
      <name>Shu Daxia Mala Hotpot ร้านหม่าล่า กรุงเทพ @MBK</name>
      <description>⭐ 4.9 (9,786 รีวิว) · Hot Pot / Suki · Pathumwan · ฿฿
Floor 6 MBK Center 444 Phaya Thai Rd, Khwaeng Wang Mai, Pathum Wan, Krung Thep Maha Nakhon 10330, Thailand
https://www.google.com/maps/place/?q=place_id:ChIJdwrpAQCf4jARLueOBrlPfQI
ข้อมูลจาก ChefMinistry — chefministry.com</description>
      <ExtendedData>
        <Data name="rating"><value>4.9</value></Data>
        <Data name="reviews"><value>9786</value></Data>
        <Data name="cuisine"><value>Hot Pot / Suki</value></Data>
        <Data name="area"><value>Pathumwan</value></Data>
        <Data name="google_maps"><value>https://www.google.com/maps/place/?q=place_id:ChIJdwrpAQCf4jARLueOBrlPfQI</value></Data>
      </ExtendedData>
      <Point><coordinates>100.5300979,13.7454547,0</coordinates></Point>
    </Placemark>
    <Placemark>
      <styleUrl>#cm0</styleUrl>
      <name>Niku Sho Sukhumvit 31</name>
      <description>⭐ 4.8 (8,710 รีวิว) · Yakiniku · Watthana · ฿฿
12 Sukhumvit 31, Khwaeng Khlong Toei Nuea, Watthana, Krung Thep Maha Nakhon 10110, Thailand
https://www.google.com/maps/place/?q=place_id:ChIJ46fu9HKf4jARupTR_jaL8cc
ข้อมูลจาก ChefMinistry — chefministry.com</description>
      <ExtendedData>
        <Data name="rating"><value>4.8</value></Data>
        <Data name="reviews"><value>8710</value></Data>
        <Data name="cuisine"><value>Yakiniku</value></Data>
        <Data name="area"><value>Watthana</value></Data>
        <Data name="google_maps"><value>https://www.google.com/maps/place/?q=place_id:ChIJ46fu9HKf4jARupTR_jaL8cc</value></Data>
      </ExtendedData>
      <Point><coordinates>100.56652229999999,13.7345872,0</coordinates></Point>
    </Placemark>
    <Placemark>
      <styleUrl>#cm0</styleUrl>
      <name>TenTen ชาบู 4 สี หมีออนเซน</name>
      <description>⭐ 4.8 (5,660 รีวิว) · Hot Pot / Suki · Pathumwan · ฿฿
388 5th Floor, Siam Square One, Rama I Rd, Khwaeng Pathum Wan, Pathum Wan, Krung Thep Maha Nakhon 10330, Thailand
https://www.google.com/maps/place/?q=place_id:ChIJOS7Ez9-f4jARk2lpG0azP2k
ข้อมูลจาก ChefMinistry — chefministry.com</description>
      <ExtendedData>
        <Data name="rating"><value>4.8</value></Data>
        <Data name="reviews"><value>5660</value></Data>
        <Data name="cuisine"><value>Hot Pot / Suki</value></Data>
        <Data name="area"><value>Pathumwan</value></Data>
        <Data name="google_maps"><value>https://www.google.com/maps/place/?q=place_id:ChIJOS7Ez9-f4jARk2lpG0azP2k</value></Data>
      </ExtendedData>
      <Point><coordinates>100.5338857,13.7452121,0</coordinates></Point>
    </Placemark>
    <Placemark>
      <styleUrl>#cm0</styleUrl>
      <name>ทวีโชคหมูกะทะ สาขา9 บรรทัดทอง</name>
      <description>⭐ 4.9 (5,020 รีวิว) · BBQ · Pathumwan · ฿฿
1196 Thanon Rama VI, Khwaeng Wang Mai, Pathum Wan, Krung Thep Maha Nakhon 10330, Thailand
https://www.google.com/maps/place/?q=place_id:ChIJjYtkDAmZ4jARVKOVErxm5xU
ข้อมูลจาก ChefMinistry — chefministry.com</description>
      <ExtendedData>
        <Data name="rating"><value>4.9</value></Data>
        <Data name="reviews"><value>5020</value></Data>
        <Data name="cuisine"><value>BBQ</value></Data>
        <Data name="area"><value>Pathumwan</value></Data>
        <Data name="google_maps"><value>https://www.google.com/maps/place/?q=place_id:ChIJjYtkDAmZ4jARVKOVErxm5xU</value></Data>
      </ExtendedData>
      <Point><coordinates>100.52360929999999,13.7471269,0</coordinates></Point>
    </Placemark>
    <Placemark>
      <styleUrl>#cm0</styleUrl>
      <name>ทวีโชคหมูกะทะ สาขา13 ประชาชื่น</name>
      <description>⭐ 4.9 (4,001 รีวิว) · BBQ · จตุจักร · ฿฿
ลาดยาว, 50 ถนน เทศบาลรังรักษ์เหนือ Khwaeng Lat Yao, Khet Chatuchak, Krung Thep Maha Nakhon 10900, Thailand
https://www.google.com/maps/place/?q=place_id:ChIJq7RFvOyd4jARFRTFmHV3Fb8
ข้อมูลจาก ChefMinistry — chefministry.com</description>
      <ExtendedData>
        <Data name="rating"><value>4.9</value></Data>
        <Data name="reviews"><value>4001</value></Data>
        <Data name="cuisine"><value>BBQ</value></Data>
        <Data name="area"><value>จตุจักร</value></Data>
        <Data name="google_maps"><value>https://www.google.com/maps/place/?q=place_id:ChIJq7RFvOyd4jARFRTFmHV3Fb8</value></Data>
      </ExtendedData>
      <Point><coordinates>100.54305199999999,13.8450875,0</coordinates></Point>
    </Placemark>
    <Placemark>
      <styleUrl>#cm0</styleUrl>
      <name>Red Panda Yakiniku (Phaya Thai)</name>
      <description>⭐ 4.8 (3,488 รีวิว) · Yakiniku · Ratchathewi · ฿฿
55, 26-27 Phaya Thai Rd, Khwaeng Thanon Phaya Thai, Khet Ratchathewi, Krung Thep Maha Nakhon 10400, Thailand
https://www.google.com/maps/place/?q=place_id:ChIJO3UE-uCf4jARpBGCSmdYoZc
ข้อมูลจาก ChefMinistry — chefministry.com</description>
      <ExtendedData>
        <Data name="rating"><value>4.8</value></Data>
        <Data name="reviews"><value>3488</value></Data>
        <Data name="cuisine"><value>Yakiniku</value></Data>
        <Data name="area"><value>Ratchathewi</value></Data>
        <Data name="google_maps"><value>https://www.google.com/maps/place/?q=place_id:ChIJO3UE-uCf4jARpBGCSmdYoZc</value></Data>
      </ExtendedData>
      <Point><coordinates>100.53385910000002,13.7562211,0</coordinates></Point>
    </Placemark>
    <Placemark>
      <styleUrl>#cm0</styleUrl>
      <name>หมูกระทะ ไทยเลอ บาร์กริล</name>
      <description>⭐ 4.9 (3,070 รีวิว) · BBQ · Sathorn · ฿฿
Thanon Chan, Khwaeng Thung Wat Don, Khet Sathon, Krung Thep Maha Nakhon 10120, Thailand
https://www.google.com/maps/place/?q=place_id:ChIJ3Rppr1GZ4jAR4Tp2G8r0QW0
ข้อมูลจาก ChefMinistry — chefministry.com</description>
      <ExtendedData>
        <Data name="rating"><value>4.9</value></Data>
        <Data name="reviews"><value>3070</value></Data>
        <Data name="cuisine"><value>BBQ</value></Data>
        <Data name="area"><value>Sathorn</value></Data>
        <Data name="google_maps"><value>https://www.google.com/maps/place/?q=place_id:ChIJ3Rppr1GZ4jAR4Tp2G8r0QW0</value></Data>
      </ExtendedData>
      <Point><coordinates>100.5249699,13.706745399999999,0</coordinates></Point>
    </Placemark>
    <Placemark>
      <styleUrl>#cm0</styleUrl>
      <name>ขาหมูกระทะทอง (ต้มถั่ว) เจริญนคร</name>
      <description>⭐ 4.9 (2,384 รีวิว) · BBQ · บางลำภูล่าง · ฿
ติดปั้มเชลล์ 1347 Soi Luang Kosa, Khwaeng Bang Lamphu Lang, Khet Khlong San, Krung Thep Maha Nakhon 10600, Thailand
https://www.google.com/maps/place/?q=place_id:ChIJOdYqIjGZ4jARlWHdceourMA
ข้อมูลจาก ChefMinistry — chefministry.com</description>
      <ExtendedData>
        <Data name="rating"><value>4.9</value></Data>
        <Data name="reviews"><value>2384</value></Data>
        <Data name="cuisine"><value>BBQ</value></Data>
        <Data name="area"><value>บางลำภูล่าง</value></Data>
        <Data name="google_maps"><value>https://www.google.com/maps/place/?q=place_id:ChIJOdYqIjGZ4jARlWHdceourMA</value></Data>
      </ExtendedData>
      <Point><coordinates>100.507189,13.716527200000002,0</coordinates></Point>
    </Placemark>
    <Placemark>
      <styleUrl>#cm0</styleUrl>
      <name>HITORI SHABU</name>
      <description>⭐ 4.7 (2,656 รีวิว) · Hot Pot / Suki · Pathumwan · ฿฿
Siam Paragon, G Fl, 991 ถ. พระรามที่ 1 แขวงปทุมวัน เขตปทุมวัน กรุงเทพมหานคร 10330, Thailand
https://www.google.com/maps/place/?q=place_id:ChIJh4qCVaif4jAR3B7egKQp3Wc
ข้อมูลจาก ChefMinistry — chefministry.com</description>
      <ExtendedData>
        <Data name="rating"><value>4.7</value></Data>
        <Data name="reviews"><value>2656</value></Data>
        <Data name="cuisine"><value>Hot Pot / Suki</value></Data>
        <Data name="area"><value>Pathumwan</value></Data>
        <Data name="google_maps"><value>https://www.google.com/maps/place/?q=place_id:ChIJh4qCVaif4jAR3B7egKQp3Wc</value></Data>
      </ExtendedData>
      <Point><coordinates>100.5347102,13.7461299,0</coordinates></Point>
    </Placemark>
    <Placemark>
      <styleUrl>#cm0</styleUrl>
      <name>Renga Sukiyaki(เรนกะ)-ราชพฤกษ์</name>
      <description>⭐ 4.9 (2,187 รีวิว) · Hot Pot / Suki · ตลิ่งชัน · ฿฿
54 หมู่ที่ 13 Thanon Ratchaphruek, Khwaeng Bang Ramat, Khet Taling Chan, Krung Thep Maha Nakhon 10170, Thailand
https://www.google.com/maps/place/?q=place_id:ChIJ-dqBmOWZ4jARiz_NJWw9hHI
ข้อมูลจาก ChefMinistry — chefministry.com</description>
      <ExtendedData>
        <Data name="rating"><value>4.9</value></Data>
        <Data name="reviews"><value>2187</value></Data>
        <Data name="cuisine"><value>Hot Pot / Suki</value></Data>
        <Data name="area"><value>ตลิ่งชัน</value></Data>
        <Data name="google_maps"><value>https://www.google.com/maps/place/?q=place_id:ChIJ-dqBmOWZ4jARiz_NJWw9hHI</value></Data>
      </ExtendedData>
      <Point><coordinates>100.4449106,13.766756899999999,0</coordinates></Point>
    </Placemark>
    <Placemark>
      <styleUrl>#cm0</styleUrl>
      <name>แห้วซีฟู๊ด ปูดองหัวปลาหม้อไฟ พุทธมณฑลสาย 2</name>
      <description>⭐ 4.3 (2,830 รีวิว) · Hot Pot / Suki · Bang Khae · ฿฿
289 1 Thanon PhutthaMonthon Sai 2, Khwaeng Bang Phai, Khet Bang Khae, Krung Thep Maha Nakhon 10160, Thailand
https://www.google.com/maps/place/?q=place_id:ChIJv6tdnkOX4jARF4RUhhyAUzY
ข้อมูลจาก ChefMinistry — chefministry.com</description>
      <ExtendedData>
        <Data name="rating"><value>4.3</value></Data>
        <Data name="reviews"><value>2830</value></Data>
        <Data name="cuisine"><value>Hot Pot / Suki</value></Data>
        <Data name="area"><value>Bang Khae</value></Data>
        <Data name="google_maps"><value>https://www.google.com/maps/place/?q=place_id:ChIJv6tdnkOX4jARF4RUhhyAUzY</value></Data>
      </ExtendedData>
      <Point><coordinates>100.3953151,13.7323268,0</coordinates></Point>
    </Placemark>
    <Placemark>
      <styleUrl>#cm0</styleUrl>
      <name>ชูกริลล์ชาบู ถนนบรรทัดทอง</name>
      <description>⭐ 4.9 (1,648 รีวิว) · Hot Pot / Suki · Pathumwan · ฿฿
971, 973 Banthat Thong Rd, Khwaeng Wang Mai, Pathum Wan, Krung Thep Maha Nakhon 10330, Thailand
https://www.google.com/maps/place/?q=place_id:ChIJn55SMlGZ4jARQ9aHIusSCpc
ข้อมูลจาก ChefMinistry — chefministry.com</description>
      <ExtendedData>
        <Data name="rating"><value>4.9</value></Data>
        <Data name="reviews"><value>1648</value></Data>
        <Data name="cuisine"><value>Hot Pot / Suki</value></Data>
        <Data name="area"><value>Pathumwan</value></Data>
        <Data name="google_maps"><value>https://www.google.com/maps/place/?q=place_id:ChIJn55SMlGZ4jARQ9aHIusSCpc</value></Data>
      </ExtendedData>
      <Point><coordinates>100.5232235,13.743575199999999,0</coordinates></Point>
    </Placemark>
    <Placemark>
      <styleUrl>#cm0</styleUrl>
      <name>ตั้งใจปิ้ง หมูกระทะ (TANG JAI PING MOOKATA)</name>
      <description>⭐ 5.0 (1,527 รีวิว) · BBQ · Bangkapi · ฿฿
Ramkhamhaeng Rd, Khwaeng Hua Mak, Khet Bang Kapi, Krung Thep Maha Nakhon 10240, Thailand
https://www.google.com/maps/place/?q=place_id:ChIJi5Rdt6mf4jARfOXdeXB_St4
ข้อมูลจาก ChefMinistry — chefministry.com</description>
      <ExtendedData>
        <Data name="rating"><value>5.0</value></Data>
        <Data name="reviews"><value>1527</value></Data>
        <Data name="cuisine"><value>BBQ</value></Data>
        <Data name="area"><value>Bangkapi</value></Data>
        <Data name="google_maps"><value>https://www.google.com/maps/place/?q=place_id:ChIJi5Rdt6mf4jARfOXdeXB_St4</value></Data>
      </ExtendedData>
      <Point><coordinates>100.6143895,13.7545342,0</coordinates></Point>
    </Placemark>
    <Placemark>
      <styleUrl>#cm0</styleUrl>
      <name>ทุกวันหมูกระทะ</name>
      <description>⭐ 4.9 (1,262 รีวิว) · BBQ · Bangkapi · ฿฿
23 Soi Ramkhamhaeng 52, Khwaeng Hua Mak, Khet Bang Kapi, Krung Thep Maha Nakhon 10240, Thailand
https://www.google.com/maps/place/?q=place_id:ChIJK21OKolhHTERTPlDpOstk5o
ข้อมูลจาก ChefMinistry — chefministry.com</description>
      <ExtendedData>
        <Data name="rating"><value>4.9</value></Data>
        <Data name="reviews"><value>1262</value></Data>
        <Data name="cuisine"><value>BBQ</value></Data>
        <Data name="area"><value>Bangkapi</value></Data>
        <Data name="google_maps"><value>https://www.google.com/maps/place/?q=place_id:ChIJK21OKolhHTERTPlDpOstk5o</value></Data>
      </ExtendedData>
      <Point><coordinates>100.6433,13.759988799999999,0</coordinates></Point>
    </Placemark>
    <Placemark>
      <styleUrl>#cm0</styleUrl>
      <name>KURA Premium Yakiniku and Sushi 蔵</name>
      <description>⭐ 4.9 (1,206 รีวิว) · Yakiniku · Pathumwan · ฿฿
B104, 87 Room no VELAA AT SINDHORN VILLAGE 105 Soi Langsuan, Khwaeng Lumphini, Pathum Wan, Krung Thep Maha Nakhon 10330, Thailand
https://www.google.com/maps/place/?q=place_id:ChIJkwe2prCf4jARypVZbxGoV8c
ข้อมูลจาก ChefMinistry — chefministry.com</description>
      <ExtendedData>
        <Data name="rating"><value>4.9</value></Data>
        <Data name="reviews"><value>1206</value></Data>
        <Data name="cuisine"><value>Yakiniku</value></Data>
        <Data name="area"><value>Pathumwan</value></Data>
        <Data name="google_maps"><value>https://www.google.com/maps/place/?q=place_id:ChIJkwe2prCf4jARypVZbxGoV8c</value></Data>
      </ExtendedData>
      <Point><coordinates>100.5431568,13.7373633,0</coordinates></Point>
    </Placemark>
    <Placemark>
      <styleUrl>#cm0</styleUrl>
      <name>ร้าน คุณ ภัฐ หมูกะทะ</name>
      <description>⭐ 4.9 (1,133 รีวิว) · BBQ · Huai Khwang · ฿฿
5 Soi 20 Mithuna, Lane 16, Khwaeng Huai Khwang, Khet Huai Khwang, Krung Thep Maha Nakhon 10310, Thailand
https://www.google.com/maps/place/?q=place_id:ChIJt7SQBKyf4jAR_j9zUVbWG5M
ข้อมูลจาก ChefMinistry — chefministry.com</description>
      <ExtendedData>
        <Data name="rating"><value>4.9</value></Data>
        <Data name="reviews"><value>1133</value></Data>
        <Data name="cuisine"><value>BBQ</value></Data>
        <Data name="area"><value>Huai Khwang</value></Data>
        <Data name="google_maps"><value>https://www.google.com/maps/place/?q=place_id:ChIJt7SQBKyf4jAR_j9zUVbWG5M</value></Data>
      </ExtendedData>
      <Point><coordinates>100.58238569999999,13.784231,0</coordinates></Point>
    </Placemark>
    <Placemark>
      <styleUrl>#cm0</styleUrl>
      <name>ฟู่ฟู่ ไต้หวันนีส ชาบู บุฟเฟต์ สาขาพระราม 4</name>
      <description>⭐ 4.5 (1,382 รีวิว) · Hot Pot / Suki · Khlong Toei · ฿฿
3243/1 Thanon Rama IV, Khwaeng Khlong Tan, Khet Khlong Toei, Krung Thep Maha Nakhon 10110, Thailand
https://www.google.com/maps/place/?q=place_id:ChIJg7yG-wmf4jARRify9AbXuyA
ข้อมูลจาก ChefMinistry — chefministry.com</description>
      <ExtendedData>
        <Data name="rating"><value>4.5</value></Data>
        <Data name="reviews"><value>1382</value></Data>
        <Data name="cuisine"><value>Hot Pot / Suki</value></Data>
        <Data name="area"><value>Khlong Toei</value></Data>
        <Data name="google_maps"><value>https://www.google.com/maps/place/?q=place_id:ChIJg7yG-wmf4jARRify9AbXuyA</value></Data>
      </ExtendedData>
      <Point><coordinates>100.57424089999999,13.716124599999999,0</coordinates></Point>
    </Placemark>
    <Placemark>
      <styleUrl>#cm0</styleUrl>
      <name>ร้านหมูกระทะคุณภัฐ รามคำแหง 65 (สาขา8)</name>
      <description>⭐ 4.9 (1,011 รีวิว) · BBQ · Wang Thonglang · ฿฿
395/1 Khwaeng Phlabphla, Khet Wang Thonglang, Krung Thep Maha Nakhon 10310, Thailand
https://www.google.com/maps/place/?q=place_id:ChIJpXc-R25hHTERhoSM1znX8s8
ข้อมูลจาก ChefMinistry — chefministry.com</description>
      <ExtendedData>
        <Data name="rating"><value>4.9</value></Data>
        <Data name="reviews"><value>1011</value></Data>
        <Data name="cuisine"><value>BBQ</value></Data>
        <Data name="area"><value>Wang Thonglang</value></Data>
        <Data name="google_maps"><value>https://www.google.com/maps/place/?q=place_id:ChIJpXc-R25hHTERhoSM1znX8s8</value></Data>
      </ExtendedData>
      <Point><coordinates>100.6236412,13.766085299999999,0</coordinates></Point>
    </Placemark>
    <Placemark>
      <styleUrl>#cm0</styleUrl>
      <name>Everyday Mookrata Silom</name>
      <description>⭐ 4.6 (1,204 รีวิว) · BBQ · Bang Rak · ฿฿
6 Thanon Naradhiwat Rajanagarindra, Khwaeng Suriya Wong, Khet Bang Rak, Krung Thep Maha Nakhon 10500, Thailand
https://www.google.com/maps/place/?q=place_id:ChIJVRjmztyZ4jARZqtMz-8SYso
ข้อมูลจาก ChefMinistry — chefministry.com</description>
      <ExtendedData>
        <Data name="rating"><value>4.6</value></Data>
        <Data name="reviews"><value>1204</value></Data>
        <Data name="cuisine"><value>BBQ</value></Data>
        <Data name="area"><value>Bang Rak</value></Data>
        <Data name="google_maps"><value>https://www.google.com/maps/place/?q=place_id:ChIJVRjmztyZ4jARZqtMz-8SYso</value></Data>
      </ExtendedData>
      <Point><coordinates>100.52708559999999,13.7276171,0</coordinates></Point>
    </Placemark>
    <Placemark>
      <styleUrl>#cm0</styleUrl>
      <name>ตั้งเตาส์หมูกระทะ-สาขาลาดพร้าววังหิน</name>
      <description>⭐ 4.7 (1,120 รีวิว) · BBQ · Lat Phrao · ฿฿
124/1 Thanon Lat Phrao Wanghin, Khwaeng Lat Phrao, Khet Lat Phrao, Krung Thep Maha Nakhon 10230, Thailand
https://www.google.com/maps/place/?q=place_id:ChIJv7orfj2d4jARaKVnKrSRtTs
ข้อมูลจาก ChefMinistry — chefministry.com</description>
      <ExtendedData>
        <Data name="rating"><value>4.7</value></Data>
        <Data name="reviews"><value>1120</value></Data>
        <Data name="cuisine"><value>BBQ</value></Data>
        <Data name="area"><value>Lat Phrao</value></Data>
        <Data name="google_maps"><value>https://www.google.com/maps/place/?q=place_id:ChIJv7orfj2d4jARaKVnKrSRtTs</value></Data>
      </ExtendedData>
      <Point><coordinates>100.59289109999999,13.803749999999999,0</coordinates></Point>
    </Placemark>
    <Placemark>
      <styleUrl>#cm0</styleUrl>
      <name>ชาบูคิง พระราม 9</name>
      <description>⭐ 4.8 (1,043 รีวิว) · Hot Pot / Suki · Bangkapi · ฿฿
29, Rama IX Soi 37, Khwaeng Hua Mak, Khet Bang Kapi, Krung Thep Maha Nakhon 10240, Thailand
https://www.google.com/maps/place/?q=place_id:ChIJM-YvBQCf4jARjL0EH6X511w
ข้อมูลจาก ChefMinistry — chefministry.com</description>
      <ExtendedData>
        <Data name="rating"><value>4.8</value></Data>
        <Data name="reviews"><value>1043</value></Data>
        <Data name="cuisine"><value>Hot Pot / Suki</value></Data>
        <Data name="area"><value>Bangkapi</value></Data>
        <Data name="google_maps"><value>https://www.google.com/maps/place/?q=place_id:ChIJM-YvBQCf4jARjL0EH6X511w</value></Data>
      </ExtendedData>
      <Point><coordinates>100.6097413,13.745496399999999,0</coordinates></Point>
    </Placemark>
    <Placemark>
      <styleUrl>#cm0</styleUrl>
      <name>ยากินิคุ มาเอดะ</name>
      <description>⭐ 4.9 (897 รีวิว) · Yakiniku · วัฒนา · ฿฿
ห้องเลขที่ 307, Donki Mall Thonglor ชั้น 3, 107 Soi Sukhumvit 63, Khwaeng Khlong Tan Nuea, Watthana, Krung Thep Maha Nakhon 10110, Thailand
https://www.google.com/maps/place/?q=place_id:ChIJ0wVCuiWf4jAREmPzwT-sTLs
ข้อมูลจาก ChefMinistry — chefministry.com</description>
      <ExtendedData>
        <Data name="rating"><value>4.9</value></Data>
        <Data name="reviews"><value>897</value></Data>
        <Data name="cuisine"><value>Yakiniku</value></Data>
        <Data name="area"><value>วัฒนา</value></Data>
        <Data name="google_maps"><value>https://www.google.com/maps/place/?q=place_id:ChIJ0wVCuiWf4jAREmPzwT-sTLs</value></Data>
      </ExtendedData>
      <Point><coordinates>100.5856994,13.7307491,0</coordinates></Point>
    </Placemark>
    <Placemark>
      <styleUrl>#cm0</styleUrl>
      <name>ทวีโชคหมูกะทะ สาขา5 ลาดพร้าว101</name>
      <description>⭐ 4.8 (904 รีวิว) · BBQ · Wang Thonglang · ฿฿
729 142 Thanon Lat Phrao 101, Khlong Chaokhun Sing, Khet Wang Thonglang, Krung Thep Maha Nakhon 10310, Thailand
https://www.google.com/maps/place/?q=place_id:ChIJmfnRrgxjHTERk5jD9Tez3OY
ข้อมูลจาก ChefMinistry — chefministry.com</description>
      <ExtendedData>
        <Data name="rating"><value>4.8</value></Data>
        <Data name="reviews"><value>904</value></Data>
        <Data name="cuisine"><value>BBQ</value></Data>
        <Data name="area"><value>Wang Thonglang</value></Data>
        <Data name="google_maps"><value>https://www.google.com/maps/place/?q=place_id:ChIJmfnRrgxjHTERk5jD9Tez3OY</value></Data>
      </ExtendedData>
      <Point><coordinates>100.62905479999999,13.7875859,0</coordinates></Point>
    </Placemark>
    <Placemark>
      <styleUrl>#cm0</styleUrl>
      <name>นักล่าหมูกระทะ เอ็ม บี เค เซ็นเตอร์</name>
      <description>⭐ 4.5 (1,102 รีวิว) · BBQ · Phaya Thai · ฿฿
444 ถนน พญาไท อาคารมาบุญครองเซ็นเตอร์ ชั้น 2 Khwaeng Wang Mai, Pathum Wan, Krung Thep Maha Nakhon 10330, Thailand
https://www.google.com/maps/place/?q=place_id:ChIJeeNC_kuf4jARhbLMNYU8vJE
ข้อมูลจาก ChefMinistry — chefministry.com</description>
      <ExtendedData>
        <Data name="rating"><value>4.5</value></Data>
        <Data name="reviews"><value>1102</value></Data>
        <Data name="cuisine"><value>BBQ</value></Data>
        <Data name="area"><value>Phaya Thai</value></Data>
        <Data name="google_maps"><value>https://www.google.com/maps/place/?q=place_id:ChIJeeNC_kuf4jARhbLMNYU8vJE</value></Data>
      </ExtendedData>
      <Point><coordinates>100.53012489999999,13.743626700000002,0</coordinates></Point>
    </Placemark>
    <Placemark>
      <styleUrl>#cm0</styleUrl>
      <name>คุณเปิ้ล หมูกระทะ</name>
      <description>⭐ 4.3 (1,273 รีวิว) · BBQ · Huai Khwang · ฿฿
Soi 20 Mithuna, Lane 22, Khwaeng Huai Khwang, Khet Huai Khwang, Krung Thep Maha Nakhon 10310, Thailand
https://www.google.com/maps/place/?q=place_id:ChIJFeKmu9ad4jARwI77uT0Y5j8
ข้อมูลจาก ChefMinistry — chefministry.com</description>
      <ExtendedData>
        <Data name="rating"><value>4.3</value></Data>
        <Data name="reviews"><value>1273</value></Data>
        <Data name="cuisine"><value>BBQ</value></Data>
        <Data name="area"><value>Huai Khwang</value></Data>
        <Data name="google_maps"><value>https://www.google.com/maps/place/?q=place_id:ChIJFeKmu9ad4jARwI77uT0Y5j8</value></Data>
      </ExtendedData>
      <Point><coordinates>100.58168549999999,13.782363199999999,0</coordinates></Point>
    </Placemark>
    <Placemark>
      <styleUrl>#cm0</styleUrl>
      <name>Nabezo Premium (Central Embassy)</name>
      <description>⭐ 4.7 (945 รีวิว) · Hot Pot / Suki · Pathumwan · ฿฿
1453 Thanon Phloen Chit, Khwaeng Lumphini, Pathum Wan, Krung Thep Maha Nakhon 10330, Thailand
https://www.google.com/maps/place/?q=place_id:ChIJf00sotye4jARLb3Kl5oVXBE
ข้อมูลจาก ChefMinistry — chefministry.com</description>
      <ExtendedData>
        <Data name="rating"><value>4.7</value></Data>
        <Data name="reviews"><value>945</value></Data>
        <Data name="cuisine"><value>Hot Pot / Suki</value></Data>
        <Data name="area"><value>Pathumwan</value></Data>
        <Data name="google_maps"><value>https://www.google.com/maps/place/?q=place_id:ChIJf00sotye4jARLb3Kl5oVXBE</value></Data>
      </ExtendedData>
      <Point><coordinates>100.54677769999999,13.7439348,0</coordinates></Point>
    </Placemark>
    <Placemark>
      <styleUrl>#cm0</styleUrl>
      <name>FuFu Taiwanese Shabu Buffet - G Tower (Fl.2) ( ฟู่ฟู่ ไต้หวันนีส ชาบู บุฟเฟต์ สาขา จี ทาวเวอร์ พระราม9)</name>
      <description>⭐ 4.6 (987 รีวิว) · Hot Pot / Suki · ห้วยขวาง · ฿฿
อาคาร จี ทาวเวอร์ ชั้น 2 Rama IX Rd, Khwaeng Huai Khwang, Khet Huai Khwang, Krung Thep Maha Nakhon 10310, Thailand
https://www.google.com/maps/place/?q=place_id:ChIJc_gawAGc4jARt4ctf0679oE
ข้อมูลจาก ChefMinistry — chefministry.com</description>
      <ExtendedData>
        <Data name="rating"><value>4.6</value></Data>
        <Data name="reviews"><value>987</value></Data>
        <Data name="cuisine"><value>Hot Pot / Suki</value></Data>
        <Data name="area"><value>ห้วยขวาง</value></Data>
        <Data name="google_maps"><value>https://www.google.com/maps/place/?q=place_id:ChIJc_gawAGc4jARt4ctf0679oE</value></Data>
      </ExtendedData>
      <Point><coordinates>100.5659536,13.7571003,0</coordinates></Point>
    </Placemark>
    <Placemark>
      <styleUrl>#cm0</styleUrl>
      <name>พลาญชัย บาร์บีคิว</name>
      <description>⭐ 4.3 (1,193 รีวิว) · BBQ · ลาดพร้าว · ฿฿
136ถนน Chok Chai 4 Soi 54, Khwaeng Lat Phrao, Khet Lat Phrao, Krung Thep Maha Nakhon 10230, Thailand
https://www.google.com/maps/place/?q=place_id:ChIJyfH5IZmd4jARRgDzBCA4Xu0
ข้อมูลจาก ChefMinistry — chefministry.com</description>
      <ExtendedData>
        <Data name="rating"><value>4.3</value></Data>
        <Data name="reviews"><value>1193</value></Data>
        <Data name="cuisine"><value>BBQ</value></Data>
        <Data name="area"><value>ลาดพร้าว</value></Data>
        <Data name="google_maps"><value>https://www.google.com/maps/place/?q=place_id:ChIJyfH5IZmd4jARRgDzBCA4Xu0</value></Data>
      </ExtendedData>
      <Point><coordinates>100.60031529999999,13.815964099999999,0</coordinates></Point>
    </Placemark>
    <Placemark>
      <styleUrl>#cm0</styleUrl>
      <name>焼肉 広島 YAKINIKU HIROSHIMA</name>
      <description>⭐ 4.8 (763 รีวิว) · Yakiniku · Khlong Toei · ฿฿
Thailand, Krung Thep Maha Nakhon, Khlong Toei, Krung Thep Maha Nakhon, Sukhumvit 42 Rd, 300/4
https://www.google.com/maps/place/?q=place_id:ChIJG9G_GmOf4jAROP3hbTZtwWo
ข้อมูลจาก ChefMinistry — chefministry.com</description>
      <ExtendedData>
        <Data name="rating"><value>4.8</value></Data>
        <Data name="reviews"><value>763</value></Data>
        <Data name="cuisine"><value>Yakiniku</value></Data>
        <Data name="area"><value>Khlong Toei</value></Data>
        <Data name="google_maps"><value>https://www.google.com/maps/place/?q=place_id:ChIJG9G_GmOf4jAROP3hbTZtwWo</value></Data>
      </ExtendedData>
      <Point><coordinates>100.582821,13.710673799999999,0</coordinates></Point>
    </Placemark>
    <Placemark>
      <styleUrl>#cm0</styleUrl>
      <name>โอเค ชาบู ชาบู</name>
      <description>⭐ 4.4 (1,004 รีวิว) · Hot Pot / Suki · Watthana · ฿฿
9 3 Soi Sukhumvit 49/4, Khwaeng Khlong Tan Nuea, Watthana, Krung Thep Maha Nakhon 10110, Thailand
https://www.google.com/maps/place/?q=place_id:ChIJabDCHFWe4jAR8SCM2525qpg
ข้อมูลจาก ChefMinistry — chefministry.com</description>
      <ExtendedData>
        <Data name="rating"><value>4.4</value></Data>
        <Data name="reviews"><value>1004</value></Data>
        <Data name="cuisine"><value>Hot Pot / Suki</value></Data>
        <Data name="area"><value>Watthana</value></Data>
        <Data name="google_maps"><value>https://www.google.com/maps/place/?q=place_id:ChIJabDCHFWe4jAR8SCM2525qpg</value></Data>
      </ExtendedData>
      <Point><coordinates>100.5776022,13.7347802,0</coordinates></Point>
    </Placemark>
    <Placemark>
      <styleUrl>#cm0</styleUrl>
      <name>ชาบูเชน หลังเซ็นทรัลบางนา - Shabu Chain</name>
      <description>⭐ 4.4 (939 รีวิว) · Hot Pot / Suki · Bangna · ฿
5 Soi Bang Na-Trat 23, Khwaeng Bang Na, Khet Bang Na, Krung Thep Maha Nakhon 10260, Thailand
https://www.google.com/maps/place/?q=place_id:ChIJpZl6Tu9fHTERM_CinTjdoRE
ข้อมูลจาก ChefMinistry — chefministry.com</description>
      <ExtendedData>
        <Data name="rating"><value>4.4</value></Data>
        <Data name="reviews"><value>939</value></Data>
        <Data name="cuisine"><value>Hot Pot / Suki</value></Data>
        <Data name="area"><value>Bangna</value></Data>
        <Data name="google_maps"><value>https://www.google.com/maps/place/?q=place_id:ChIJpZl6Tu9fHTERM_CinTjdoRE</value></Data>
      </ExtendedData>
      <Point><coordinates>100.63456169999999,13.671784800000001,0</coordinates></Point>
    </Placemark>
    <Placemark>
      <styleUrl>#cm0</styleUrl>
      <name>กูรูกิว</name>
      <description>⭐ 4.4 (927 รีวิว) · Yakiniku · Phaya Thai · ฿฿
466, 5 Phahon Yothin Road, Khwaeng Samsen Nai, Khet Phaya Thai, Krung Thep Maha Nakhon 10400, Thailand
https://www.google.com/maps/place/?q=place_id:ChIJGUALWqae4jARdVf5Z-G9jVU
ข้อมูลจาก ChefMinistry — chefministry.com</description>
      <ExtendedData>
        <Data name="rating"><value>4.4</value></Data>
        <Data name="reviews"><value>927</value></Data>
        <Data name="cuisine"><value>Yakiniku</value></Data>
        <Data name="area"><value>Phaya Thai</value></Data>
        <Data name="google_maps"><value>https://www.google.com/maps/place/?q=place_id:ChIJGUALWqae4jARdVf5Z-G9jVU</value></Data>
      </ExtendedData>
      <Point><coordinates>100.54777370000001,13.787718199999999,0</coordinates></Point>
    </Placemark>
    <Placemark>
      <styleUrl>#cm0</styleUrl>
      <name>หมีสุขสุกี้ ชาบูบุฟเฟ่ต์ HOTPOT BUFFET</name>
      <description>⭐ 4.9 (605 รีวิว) · Hot Pot / Suki · Bangkok Noi · ฿฿
165/4-5 Thanon Somdet Phra Pin Klao, Khwaeng Arun Amarin, Khet Bangkok Noi, Krung Thep Maha Nakhon 10700, Thailand
https://www.google.com/maps/place/?q=place_id:ChIJDRMapriZ4jARYZHHKnQVPq0
ข้อมูลจาก ChefMinistry — chefministry.com</description>
      <ExtendedData>
        <Data name="rating"><value>4.9</value></Data>
        <Data name="reviews"><value>605</value></Data>
        <Data name="cuisine"><value>Hot Pot / Suki</value></Data>
        <Data name="area"><value>Bangkok Noi</value></Data>
        <Data name="google_maps"><value>https://www.google.com/maps/place/?q=place_id:ChIJDRMapriZ4jARYZHHKnQVPq0</value></Data>
      </ExtendedData>
      <Point><coordinates>100.4840408,13.770406,0</coordinates></Point>
    </Placemark>
    <Placemark>
      <styleUrl>#cm0</styleUrl>
      <name>เฮ หมูกระทะ</name>
      <description>⭐ 4.7 (638 รีวิว) · BBQ · Khlong San · ฿฿
240, 1 Soi Pho Suwan, Khwaeng Khlong Ton Sai, Khet Khlong San, Krung Thep Maha Nakhon 10600, Thailand
https://www.google.com/maps/place/?q=place_id:ChIJ-VzpB76Z4jAR4-J-cQtNoMM
ข้อมูลจาก ChefMinistry — chefministry.com</description>
      <ExtendedData>
        <Data name="rating"><value>4.7</value></Data>
        <Data name="reviews"><value>638</value></Data>
        <Data name="cuisine"><value>BBQ</value></Data>
        <Data name="area"><value>Khlong San</value></Data>
        <Data name="google_maps"><value>https://www.google.com/maps/place/?q=place_id:ChIJ-VzpB76Z4jAR4-J-cQtNoMM</value></Data>
      </ExtendedData>
      <Point><coordinates>100.50498689999999,13.7247351,0</coordinates></Point>
    </Placemark>
    <Placemark>
      <styleUrl>#cm0</styleUrl>
      <name>หมูกระทะ เฮง เฮง เฮง ตรอกจันทน์</name>
      <description>⭐ 4.3 (832 รีวิว) · BBQ · สาทร · ฿฿
442/10 ถนน จันทร์ Khwaeng Thung Wat Don, Khet Sathon, Krung Thep Maha Nakhon 10120, Thailand
https://www.google.com/maps/place/?q=place_id:ChIJ628iIL-Y4jARiSqIZmJ9Xig
ข้อมูลจาก ChefMinistry — chefministry.com</description>
      <ExtendedData>
        <Data name="rating"><value>4.3</value></Data>
        <Data name="reviews"><value>832</value></Data>
        <Data name="cuisine"><value>BBQ</value></Data>
        <Data name="area"><value>สาทร</value></Data>
        <Data name="google_maps"><value>https://www.google.com/maps/place/?q=place_id:ChIJ628iIL-Y4jARiSqIZmJ9Xig</value></Data>
      </ExtendedData>
      <Point><coordinates>100.51142209999999,13.7098391,0</coordinates></Point>
    </Placemark>
    <Placemark>
      <styleUrl>#cm0</styleUrl>
      <name>Yakin Yakiniku</name>
      <description>⭐ 4.8 (576 รีวิว) · Yakiniku · Pathumwan · ฿฿
428 Khwaeng Wang Mai, Pathum Wan, Krung Thep Maha Nakhon 10330, Thailand
https://www.google.com/maps/place/?q=place_id:ChIJWSEMOz2Z4jARf1hYxariXXc
ข้อมูลจาก ChefMinistry — chefministry.com</description>
      <ExtendedData>
        <Data name="rating"><value>4.8</value></Data>
        <Data name="reviews"><value>576</value></Data>
        <Data name="cuisine"><value>Yakiniku</value></Data>
        <Data name="area"><value>Pathumwan</value></Data>
        <Data name="google_maps"><value>https://www.google.com/maps/place/?q=place_id:ChIJWSEMOz2Z4jARf1hYxariXXc</value></Data>
      </ExtendedData>
      <Point><coordinates>100.5228946,13.7406936,0</coordinates></Point>
    </Placemark>
    <Placemark>
      <styleUrl>#cm0</styleUrl>
      <name>กินกันจังชาบู สาขาบางซ่อน (กรุงเทพ-นนท์ 36)</name>
      <description>⭐ 4.9 (536 รีวิว) · Hot Pot / Suki · Nonthaburi · ฿฿
1432 ถ. กรุงเทพ - นนทบุรี Khwaeng Bang Sue, Khet Bang Sue, Krung Thep Maha Nakhon 10800, Thailand
https://www.google.com/maps/place/?q=place_id:ChIJz_cpZQGd4jARXnVGG69QnFA
ข้อมูลจาก ChefMinistry — chefministry.com</description>
      <ExtendedData>
        <Data name="rating"><value>4.9</value></Data>
        <Data name="reviews"><value>536</value></Data>
        <Data name="cuisine"><value>Hot Pot / Suki</value></Data>
        <Data name="area"><value>Nonthaburi</value></Data>
        <Data name="google_maps"><value>https://www.google.com/maps/place/?q=place_id:ChIJz_cpZQGd4jARXnVGG69QnFA</value></Data>
      </ExtendedData>
      <Point><coordinates>100.5328004,13.8206549,0</coordinates></Point>
    </Placemark>
    <Placemark>
      <styleUrl>#cm0</styleUrl>
      <name>17 หมูกระทะ (รัชดา36)</name>
      <description>⭐ 4.9 (496 รีวิว) · BBQ · Chatuchak · ฿
243 Soi Ratchadaphisek 36, Lane 9-3, Khwaeng Chatuchak, Khet Chatuchak, Krung Thep Maha Nakhon 10900, Thailand
https://www.google.com/maps/place/?q=place_id:ChIJp6tQTNWd4jAREffrfTTQ9Uk
ข้อมูลจาก ChefMinistry — chefministry.com</description>
      <ExtendedData>
        <Data name="rating"><value>4.9</value></Data>
        <Data name="reviews"><value>496</value></Data>
        <Data name="cuisine"><value>BBQ</value></Data>
        <Data name="area"><value>Chatuchak</value></Data>
        <Data name="google_maps"><value>https://www.google.com/maps/place/?q=place_id:ChIJp6tQTNWd4jAREffrfTTQ9Uk</value></Data>
      </ExtendedData>
      <Point><coordinates>100.5819815,13.825461599999999,0</coordinates></Point>
    </Placemark>
    <Placemark>
      <styleUrl>#cm0</styleUrl>
      <name>Shabuku ชาบูกู - พรานนก ปิ่นเกล้า</name>
      <description>⭐ 4.7 (539 รีวิว) · Hot Pot / Suki · Bangkok Noi · ฿฿
2/9 กรมสวัสดิการทหารเรือ Thanon Itsaraphap, Khwaeng Ban Chang Lo, Khet Bangkok Noi, Krung Thep Maha Nakhon 10700, Thailand
https://www.google.com/maps/place/?q=place_id:ChIJjU0G06WZ4jAR1QawOBp8Ab8
ข้อมูลจาก ChefMinistry — chefministry.com</description>
      <ExtendedData>
        <Data name="rating"><value>4.7</value></Data>
        <Data name="reviews"><value>539</value></Data>
        <Data name="cuisine"><value>Hot Pot / Suki</value></Data>
        <Data name="area"><value>Bangkok Noi</value></Data>
        <Data name="google_maps"><value>https://www.google.com/maps/place/?q=place_id:ChIJjU0G06WZ4jAR1QawOBp8Ab8</value></Data>
      </ExtendedData>
      <Point><coordinates>100.4784895,13.751017,0</coordinates></Point>
    </Placemark>
    <Placemark>
      <styleUrl>#cm0</styleUrl>
      <name>Suki Masa</name>
      <description>⭐ 4.6 (569 รีวิว) · Hot Pot / Suki · Watthana · ฿฿
111, 1 Soi Thong Lo 5, Khwaeng Khlong Tan Nuea, Watthana, Krung Thep Maha Nakhon 10110, Thailand
https://www.google.com/maps/place/?q=place_id:ChIJB3JBiauf4jARcvqAEmwGkIM
ข้อมูลจาก ChefMinistry — chefministry.com</description>
      <ExtendedData>
        <Data name="rating"><value>4.6</value></Data>
        <Data name="reviews"><value>569</value></Data>
        <Data name="cuisine"><value>Hot Pot / Suki</value></Data>
        <Data name="area"><value>Watthana</value></Data>
        <Data name="google_maps"><value>https://www.google.com/maps/place/?q=place_id:ChIJB3JBiauf4jARcvqAEmwGkIM</value></Data>
      </ExtendedData>
      <Point><coordinates>100.5798099,13.728680500000001,0</coordinates></Point>
    </Placemark>
    <Placemark>
      <styleUrl>#cm0</styleUrl>
      <name>Saneh Mookrata เสน่ห์ หมูกระทะ</name>
      <description>⭐ 4.8 (477 รีวิว) · BBQ · Khlong Toei · ฿฿
38/9 Sukhumvit Soi 22, Klongtoey, Khet Khlong Toei, Krung Thep Maha Nakhon 10110, Thailand
https://www.google.com/maps/place/?q=place_id:ChIJ9fzYRfWf4jAR4QUKAwqlyZY
ข้อมูลจาก ChefMinistry — chefministry.com</description>
      <ExtendedData>
        <Data name="rating"><value>4.8</value></Data>
        <Data name="reviews"><value>477</value></Data>
        <Data name="cuisine"><value>BBQ</value></Data>
        <Data name="area"><value>Khlong Toei</value></Data>
        <Data name="google_maps"><value>https://www.google.com/maps/place/?q=place_id:ChIJ9fzYRfWf4jAR4QUKAwqlyZY</value></Data>
      </ExtendedData>
      <Point><coordinates>100.5650685,13.728829399999999,0</coordinates></Point>
    </Placemark>
    <Placemark>
      <styleUrl>#cm0</styleUrl>
      <name>IKKYU Yakinikudokoro</name>
      <description>⭐ 4.7 (499 รีวิว) · Yakiniku · คลองตัน · ฿฿
40 soi Thonglor 13 Sukhumvit 49 RD Klongton-Nua Wattana, แขวงคลองตัน เหนือ, กรุงเทพมหานคร 10110, Thailand
https://www.google.com/maps/place/?q=place_id:ChIJKXe8olSe4jARyrGWFNJD6Tk
ข้อมูลจาก ChefMinistry — chefministry.com</description>
      <ExtendedData>
        <Data name="rating"><value>4.7</value></Data>
        <Data name="reviews"><value>499</value></Data>
        <Data name="cuisine"><value>Yakiniku</value></Data>
        <Data name="area"><value>คลองตัน</value></Data>
        <Data name="google_maps"><value>https://www.google.com/maps/place/?q=place_id:ChIJKXe8olSe4jARyrGWFNJD6Tk</value></Data>
      </ExtendedData>
      <Point><coordinates>100.5796592,13.733961899999999,0</coordinates></Point>
    </Placemark>
    <Placemark>
      <styleUrl>#cm0</styleUrl>
      <name>ชาบูบ้านจันท์ สาขาเตาปูน</name>
      <description>⭐ 4.5 (559 รีวิว) · Hot Pot / Suki · Nonthaburi · ฿
351 ถ. กรุงเทพ - นนทบุรี Khwaeng Bang Sue, Khet Bang Sue, Krung Thep Maha Nakhon 10800, Thailand
https://www.google.com/maps/place/?q=place_id:ChIJdyk7QXac4jAR7okeAihKAdc
ข้อมูลจาก ChefMinistry — chefministry.com</description>
      <ExtendedData>
        <Data name="rating"><value>4.5</value></Data>
        <Data name="reviews"><value>559</value></Data>
        <Data name="cuisine"><value>Hot Pot / Suki</value></Data>
        <Data name="area"><value>Nonthaburi</value></Data>
        <Data name="google_maps"><value>https://www.google.com/maps/place/?q=place_id:ChIJdyk7QXac4jAR7okeAihKAdc</value></Data>
      </ExtendedData>
      <Point><coordinates>100.5311847,13.8106993,0</coordinates></Point>
    </Placemark>
    <Placemark>
      <styleUrl>#cm0</styleUrl>
      <name>SAN KYU YAKINIKU</name>
      <description>⭐ 4.3 (628 รีวิว) · Yakiniku · Watthana · ฿฿
28 Soi Sukhumvit 23, Khwaeng Khlong Toei Nuea, Watthana, Krung Thep Maha Nakhon 10110, Thailand
https://www.google.com/maps/place/?q=place_id:ChIJ8YNgTPue4jARJ68Q_BiQWAU
ข้อมูลจาก ChefMinistry — chefministry.com</description>
      <ExtendedData>
        <Data name="rating"><value>4.3</value></Data>
        <Data name="reviews"><value>628</value></Data>
        <Data name="cuisine"><value>Yakiniku</value></Data>
        <Data name="area"><value>Watthana</value></Data>
        <Data name="google_maps"><value>https://www.google.com/maps/place/?q=place_id:ChIJ8YNgTPue4jARJ68Q_BiQWAU</value></Data>
      </ExtendedData>
      <Point><coordinates>100.5635087,13.7399495,0</coordinates></Point>
    </Placemark>
    <Placemark>
      <styleUrl>#cm0</styleUrl>
      <name>OKE หมูกะทะ &amp; ชาบู</name>
      <description>⭐ 4.9 (382 รีวิว) · BBQ · Lat Phrao · ฿฿
244/3 ซอยลาดพร้าว122 พลับพลา Soi Ramkhamhaeng 65, Khwaeng Phlabphla, Khet Wang Thonglang, Krung Thep Maha Nakhon 10310, Thailand
https://www.google.com/maps/place/?q=place_id:ChIJp72usiRhHTEROblO0-fLNBk
ข้อมูลจาก ChefMinistry — chefministry.com</description>
      <ExtendedData>
        <Data name="rating"><value>4.9</value></Data>
        <Data name="reviews"><value>382</value></Data>
        <Data name="cuisine"><value>BBQ</value></Data>
        <Data name="area"><value>Lat Phrao</value></Data>
        <Data name="google_maps"><value>https://www.google.com/maps/place/?q=place_id:ChIJp72usiRhHTEROblO0-fLNBk</value></Data>
      </ExtendedData>
      <Point><coordinates>100.6219438,13.7702154,0</coordinates></Point>
    </Placemark>
    <Placemark>
      <styleUrl>#cm0</styleUrl>
      <name>บุญหนุน หมูกระทะ พุทธบูชา บางมด</name>
      <description>⭐ 4.9 (375 รีวิว) · BBQ · ทุ่งครุ · ฿฿
ซอย พุทธบูชา 39 บางมด, Khet Thung Khru, Krung Thep Maha Nakhon 10140, Thailand
https://www.google.com/maps/place/?q=place_id:ChIJJUjydhej4jARxCmjkZv5agY
ข้อมูลจาก ChefMinistry — chefministry.com</description>
      <ExtendedData>
        <Data name="rating"><value>4.9</value></Data>
        <Data name="reviews"><value>375</value></Data>
        <Data name="cuisine"><value>BBQ</value></Data>
        <Data name="area"><value>ทุ่งครุ</value></Data>
        <Data name="google_maps"><value>https://www.google.com/maps/place/?q=place_id:ChIJJUjydhej4jARxCmjkZv5agY</value></Data>
      </ExtendedData>
      <Point><coordinates>100.4829747,13.6528315,0</coordinates></Point>
    </Placemark>
    <Placemark>
      <styleUrl>#cm0</styleUrl>
      <name>เทรเชอร์ บีฟ ชาบู</name>
      <description>⭐ 4.4 (512 รีวิว) · Hot Pot / Suki · Huai Khwang · ฿฿
29 18-21 Rama IX Rd, Khwaeng Bang Kapi, Khet Huai Khwang, Krung Thep Maha Nakhon 10310, Thailand
https://www.google.com/maps/place/?q=place_id:ChIJvVcGfPWe4jARwLMaOHSMIEY
ข้อมูลจาก ChefMinistry — chefministry.com</description>
      <ExtendedData>
        <Data name="rating"><value>4.4</value></Data>
        <Data name="reviews"><value>512</value></Data>
        <Data name="cuisine"><value>Hot Pot / Suki</value></Data>
        <Data name="area"><value>Huai Khwang</value></Data>
        <Data name="google_maps"><value>https://www.google.com/maps/place/?q=place_id:ChIJvVcGfPWe4jARwLMaOHSMIEY</value></Data>
      </ExtendedData>
      <Point><coordinates>100.5741686,13.7532315,0</coordinates></Point>
    </Placemark>
    <Placemark>
      <styleUrl>#cm0</styleUrl>
      <name>SAN KYU PREMIUM YAKINIKU</name>
      <description>⭐ 4.3 (527 รีวิว) · Yakiniku · Watthana · ฿฿
5 3 Soi Sukhumvit 39, Khwaeng Khlong Toei Nuea, Watthana, Krung Thep Maha Nakhon 10110, Thailand
https://www.google.com/maps/place/?q=place_id:ChIJ0yRIaP-e4jAR1h-BJyI3TxQ
ข้อมูลจาก ChefMinistry — chefministry.com</description>
      <ExtendedData>
        <Data name="rating"><value>4.3</value></Data>
        <Data name="reviews"><value>527</value></Data>
        <Data name="cuisine"><value>Yakiniku</value></Data>
        <Data name="area"><value>Watthana</value></Data>
        <Data name="google_maps"><value>https://www.google.com/maps/place/?q=place_id:ChIJ0yRIaP-e4jAR1h-BJyI3TxQ</value></Data>
      </ExtendedData>
      <Point><coordinates>100.57374680000001,13.7370129,0</coordinates></Point>
    </Placemark>
    <Placemark>
      <styleUrl>#cm0</styleUrl>
      <name>หมูหมึกกุ้ง หมูกระทะ Rooftop</name>
      <description>⭐ 4.6 (418 รีวิว) · BBQ · พญาไท · ฿฿
466/32 ชั้น 5, โครงการ โครงการ เดอะฮับ, Phahon Yothin Road, Khwaeng Samsen Nai, Khet Phaya Thai, Krung Thep Maha Nakhon 10400, Thailand
https://www.google.com/maps/place/?q=place_id:ChIJG9Kc2JSd4jARcsyngJnkJpQ
ข้อมูลจาก ChefMinistry — chefministry.com</description>
      <ExtendedData>
        <Data name="rating"><value>4.6</value></Data>
        <Data name="reviews"><value>418</value></Data>
        <Data name="cuisine"><value>BBQ</value></Data>
        <Data name="area"><value>พญาไท</value></Data>
        <Data name="google_maps"><value>https://www.google.com/maps/place/?q=place_id:ChIJG9Kc2JSd4jARcsyngJnkJpQ</value></Data>
      </ExtendedData>
      <Point><coordinates>100.5481662,13.7874027,0</coordinates></Point>
    </Placemark>
    <Placemark>
      <styleUrl>#cm0</styleUrl>
      <name>นิคุโระ เนื้อย่างเตาถ่านสไตล์ญี่ปุ่น</name>
      <description>⭐ 4.7 (357 รีวิว) · Yakiniku · Phaya Thai · ฿฿
1639/5-6 Phahon Yothin Road, Phaya Thai, Khet Phaya Thai, Krung Thep Maha Nakhon 10400, Thailand
https://www.google.com/maps/place/?q=place_id:ChIJHU_xcByd4jARwY4CR60WJE0
ข้อมูลจาก ChefMinistry — chefministry.com</description>
      <ExtendedData>
        <Data name="rating"><value>4.7</value></Data>
        <Data name="reviews"><value>357</value></Data>
        <Data name="cuisine"><value>Yakiniku</value></Data>
        <Data name="area"><value>Phaya Thai</value></Data>
        <Data name="google_maps"><value>https://www.google.com/maps/place/?q=place_id:ChIJHU_xcByd4jARwY4CR60WJE0</value></Data>
      </ExtendedData>
      <Point><coordinates>100.55017169999999,13.7954954,0</coordinates></Point>
    </Placemark>
    <Placemark>
      <styleUrl>#cm0</styleUrl>
      <name>ชวนกินหมูกระทะ บรรทัดทอง</name>
      <description>⭐ 4.6 (367 รีวิว) · BBQ · Pathumwan · ฿฿
981 Banthat Thong Rd, Khwaeng Wang Mai, Pathum Wan, Krung Thep Maha Nakhon 10330, Thailand
https://www.google.com/maps/place/?q=place_id:ChIJxQCIniGZ4jARduevNHdAAxo
ข้อมูลจาก ChefMinistry — chefministry.com</description>
      <ExtendedData>
        <Data name="rating"><value>4.6</value></Data>
        <Data name="reviews"><value>367</value></Data>
        <Data name="cuisine"><value>BBQ</value></Data>
        <Data name="area"><value>Pathumwan</value></Data>
        <Data name="google_maps"><value>https://www.google.com/maps/place/?q=place_id:ChIJxQCIniGZ4jARduevNHdAAxo</value></Data>
      </ExtendedData>
      <Point><coordinates>100.5231982,13.7434449,0</coordinates></Point>
    </Placemark>
    <Placemark>
      <styleUrl>#cm0</styleUrl>
      <name>เปรมสุข หมูกระทะ</name>
      <description>⭐ 4.8 (304 รีวิว) · BBQ · Din Daeng · ฿
84 Soi Prem Sombat, Khwaeng Din Daeng, Khet Din Daeng, Krung Thep Maha Nakhon 10400, Thailand
https://www.google.com/maps/place/?q=place_id:ChIJjfHfCACf4jARcE0zoGlED-I
ข้อมูลจาก ChefMinistry — chefministry.com</description>
      <ExtendedData>
        <Data name="rating"><value>4.8</value></Data>
        <Data name="reviews"><value>304</value></Data>
        <Data name="cuisine"><value>BBQ</value></Data>
        <Data name="area"><value>Din Daeng</value></Data>
        <Data name="google_maps"><value>https://www.google.com/maps/place/?q=place_id:ChIJjfHfCACf4jARcE0zoGlED-I</value></Data>
      </ExtendedData>
      <Point><coordinates>100.5680503,13.7730497,0</coordinates></Point>
    </Placemark>
    <Placemark>
      <styleUrl>#cm0</styleUrl>
      <name>Areeya X PROUD Rooftop อารียา x พราว รูฟท็อป หมูกระทะ</name>
      <description>⭐ 4.5 (366 รีวิว) · BBQ · ดินแดง · ฿฿
อินทรามระ 26/2 ถ. รัชดาภิเษก Ratchadaphisek, Khet Din Daeng, Krung Thep Maha Nakhon 10400, Thailand
https://www.google.com/maps/place/?q=place_id:ChIJkeNDLrGd4jARxbCQac_M7Kw
ข้อมูลจาก ChefMinistry — chefministry.com</description>
      <ExtendedData>
        <Data name="rating"><value>4.5</value></Data>
        <Data name="reviews"><value>366</value></Data>
        <Data name="cuisine"><value>BBQ</value></Data>
        <Data name="area"><value>ดินแดง</value></Data>
        <Data name="google_maps"><value>https://www.google.com/maps/place/?q=place_id:ChIJkeNDLrGd4jARxbCQac_M7Kw</value></Data>
      </ExtendedData>
      <Point><coordinates>100.5683937,13.7888814,0</coordinates></Point>
    </Placemark>
    <Placemark>
      <styleUrl>#cm0</styleUrl>
      <name>Yakiniku Kemuri Japanese BBQ</name>
      <description>⭐ 4.9 (270 รีวิว) · Yakiniku · Watthana · ฿฿
155/8-9 Soi Sukhumvit 11/1, Khwaeng Khlong Toei Nuea, Watthana, Krung Thep Maha Nakhon 10110, Thailand
https://www.google.com/maps/place/?q=place_id:ChIJneucYqOf4jARDrhYqbfB5Mw
ข้อมูลจาก ChefMinistry — chefministry.com</description>
      <ExtendedData>
        <Data name="rating"><value>4.9</value></Data>
        <Data name="reviews"><value>270</value></Data>
        <Data name="cuisine"><value>Yakiniku</value></Data>
        <Data name="area"><value>Watthana</value></Data>
        <Data name="google_maps"><value>https://www.google.com/maps/place/?q=place_id:ChIJneucYqOf4jARDrhYqbfB5Mw</value></Data>
      </ExtendedData>
      <Point><coordinates>100.5567097,13.7402828,0</coordinates></Point>
    </Placemark>
    <Placemark>
      <styleUrl>#cm0</styleUrl>
      <name>Gyu-Ya Yakiniku The Street</name>
      <description>⭐ 4.5 (336 รีวิว) · Yakiniku · Din Daeng · ฿฿
139 Thanon Ratchadaphisek, Khwaeng Din Daeng, Khet Din Daeng, Krung Thep Maha Nakhon 10400, Thailand
https://www.google.com/maps/place/?q=place_id:ChIJE4YkvwCf4jARMO9wYCSzqvE
ข้อมูลจาก ChefMinistry — chefministry.com</description>
      <ExtendedData>
        <Data name="rating"><value>4.5</value></Data>
        <Data name="reviews"><value>336</value></Data>
        <Data name="cuisine"><value>Yakiniku</value></Data>
        <Data name="area"><value>Din Daeng</value></Data>
        <Data name="google_maps"><value>https://www.google.com/maps/place/?q=place_id:ChIJE4YkvwCf4jARMO9wYCSzqvE</value></Data>
      </ExtendedData>
      <Point><coordinates>100.57243229999999,13.7702753,0</coordinates></Point>
    </Placemark>
    <Placemark>
      <styleUrl>#cm0</styleUrl>
      <name>เอกมัยหมูกระทะ</name>
      <description>⭐ 4.6 (274 รีวิว) · BBQ · Watthana · ฿฿
392 Soi Om Sin Sena 3, Khwaeng Khlong Tan Nuea, Watthana, Krung Thep Maha Nakhon 10110, Thailand
https://www.google.com/maps/place/?q=place_id:ChIJ7_g6IWCf4jARCB15EZJY77A
ข้อมูลจาก ChefMinistry — chefministry.com</description>
      <ExtendedData>
        <Data name="rating"><value>4.6</value></Data>
        <Data name="reviews"><value>274</value></Data>
        <Data name="cuisine"><value>BBQ</value></Data>
        <Data name="area"><value>Watthana</value></Data>
        <Data name="google_maps"><value>https://www.google.com/maps/place/?q=place_id:ChIJ7_g6IWCf4jARCB15EZJY77A</value></Data>
      </ExtendedData>
      <Point><coordinates>100.5892865,13.7357654,0</coordinates></Point>
    </Placemark>
    <Placemark>
      <styleUrl>#cm0</styleUrl>
      <name>Lok Toi Hotpot and Gallery</name>
      <description>⭐ 5.0 (195 รีวิว) · Hot Pot / Suki · Bangkok · ฿฿
Lok Toi Hot Pot สโมสรหมู่บ้านธารารมณ์หัวหมาก Soi Ramkhamhaeng 43/1, Khwaeng Phlabphla, Khet Wang Thonglang, Krung Thep Maha Nakhon 10310, Thailand
https://www.google.com/maps/place/?q=place_id:ChIJ7x0R7NCf4jAR4V2TI4n_oCY
ข้อมูลจาก ChefMinistry — chefministry.com</description>
      <ExtendedData>
        <Data name="rating"><value>5.0</value></Data>
        <Data name="reviews"><value>195</value></Data>
        <Data name="cuisine"><value>Hot Pot / Suki</value></Data>
        <Data name="area"><value>Bangkok</value></Data>
        <Data name="google_maps"><value>https://www.google.com/maps/place/?q=place_id:ChIJ7x0R7NCf4jAR4V2TI4n_oCY</value></Data>
      </ExtendedData>
      <Point><coordinates>100.6142004,13.762586899999999,0</coordinates></Point>
    </Placemark>
    <Placemark>
      <styleUrl>#cm0</styleUrl>
      <name>SUKIISM</name>
      <description>⭐ 4.6 (92 รีวิว) · Hot Pot / Suki · Watthana · ฿฿
672 Sukhumvit Rd, Khwaeng Phra Khanong Nuea, Watthana, Krung Thep Maha Nakhon 10110, Thailand
https://www.google.com/maps/place/?q=place_id:ChIJyducUwCf4jARixAQsCygOiE
ข้อมูลจาก ChefMinistry — chefministry.com</description>
      <ExtendedData>
        <Data name="rating"><value>4.6</value></Data>
        <Data name="reviews"><value>92</value></Data>
        <Data name="cuisine"><value>Hot Pot / Suki</value></Data>
        <Data name="area"><value>Watthana</value></Data>
        <Data name="google_maps"><value>https://www.google.com/maps/place/?q=place_id:ChIJyducUwCf4jARixAQsCygOiE</value></Data>
      </ExtendedData>
      <Point><coordinates>100.5891996,13.725557499999999,0</coordinates></Point>
    </Placemark>
  </Folder>
</Document></kml>