<?xml version="1.0" encoding="UTF-8"?>
<kml xmlns="http://www.opengis.net/kml/2.2">
<Document>
  <name>ChefMinistry — 🍕 ตะวันตก</name>
  <description>อัปเดต 2026-07-31 — chefministry.com</description>
  <Style id="cm0"><IconStyle><color>ff8fd14f</color><Icon><href>http://maps.google.com/mapfiles/kml/shapes/dining.png</href></Icon></IconStyle></Style>
  <Folder>
    <name>🍕 ตะวันตก</name>
    <Placemark>
      <styleUrl>#cm0</styleUrl>
      <name>The Gardens of Dinsor Palace</name>
      <description>⭐ 4.4 (1,819 รีวิว) · Italian · Ekkamai · ฿฿
1217/2 ซอย ชุมพล Khwaeng Khlong Tan Nuea, Watthana, Krung Thep Maha Nakhon 10110, Thailand
https://www.google.com/maps/place/?q=place_id:ChIJ947tbq-f4jARmqxnBY9oxv4
ข้อมูลจาก ChefMinistry — chefministry.com</description>
      <ExtendedData>
        <Data name="rating"><value>4.4</value></Data>
        <Data name="reviews"><value>1819</value></Data>
        <Data name="cuisine"><value>Italian</value></Data>
        <Data name="area"><value>Ekkamai</value></Data>
        <Data name="google_maps"><value>https://www.google.com/maps/place/?q=place_id:ChIJ947tbq-f4jARmqxnBY9oxv4</value></Data>
      </ExtendedData>
      <Point><coordinates>100.58228220000001,13.722617399999999,0</coordinates></Point>
    </Placemark>
    <Placemark>
      <styleUrl>#cm0</styleUrl>
      <name>คาซ่า พาสต้า</name>
      <description>⭐ 4.7 (1,358 รีวิว) · Italian · Ram Khamhaeng · ฿฿
101/1 ถนน สุขุมวิท 101/1 Khwaeng Bang Chak, Khet Phra Khanong, Krung Thep Maha Nakhon 10260, Thailand
https://www.google.com/maps/place/?q=place_id:ChIJQYkgJQCg4jARcf79HUg352w
ข้อมูลจาก ChefMinistry — chefministry.com</description>
      <ExtendedData>
        <Data name="rating"><value>4.7</value></Data>
        <Data name="reviews"><value>1358</value></Data>
        <Data name="cuisine"><value>Italian</value></Data>
        <Data name="area"><value>Ram Khamhaeng</value></Data>
        <Data name="google_maps"><value>https://www.google.com/maps/place/?q=place_id:ChIJQYkgJQCg4jARcf79HUg352w</value></Data>
      </ExtendedData>
      <Point><coordinates>100.6142246,13.6844813,0</coordinates></Point>
    </Placemark>
    <Placemark>
      <styleUrl>#cm0</styleUrl>
      <name>Featherstone</name>
      <description>⭐ 4.6 (977 รีวิว) · Italian · Sukhumvit · ฿฿
60 Soi Ekkamai 12, Khwaeng Khlong Tan Nuea, Watthana, Krung Thep Maha Nakhon 10110, Thailand
https://www.google.com/maps/place/?q=place_id:ChIJyZMyxEie4jARAxudnxGQbTA
ข้อมูลจาก ChefMinistry — chefministry.com</description>
      <ExtendedData>
        <Data name="rating"><value>4.6</value></Data>
        <Data name="reviews"><value>977</value></Data>
        <Data name="cuisine"><value>Italian</value></Data>
        <Data name="area"><value>Sukhumvit</value></Data>
        <Data name="google_maps"><value>https://www.google.com/maps/place/?q=place_id:ChIJyZMyxEie4jARAxudnxGQbTA</value></Data>
      </ExtendedData>
      <Point><coordinates>100.59303059999999,13.7297797,0</coordinates></Point>
    </Placemark>
    <Placemark>
      <styleUrl>#cm0</styleUrl>
      <name>DDC PIZZA ( Délices de Capoue )</name>
      <description>⭐ 4.7 (487 รีวิว) · Italian · Ekkamai · ฿฿
359/7 Ekamai Complex, ซ. สุขุมวิท 63 Klongtan Nua, เขตวัฒนา กรุงเทพมหานคร 10110, Thailand
https://www.google.com/maps/place/?q=place_id:ChIJ95N6uE2e4jARK7OM6zQB5LI
ข้อมูลจาก ChefMinistry — chefministry.com</description>
      <ExtendedData>
        <Data name="rating"><value>4.7</value></Data>
        <Data name="reviews"><value>487</value></Data>
        <Data name="cuisine"><value>Italian</value></Data>
        <Data name="area"><value>Ekkamai</value></Data>
        <Data name="google_maps"><value>https://www.google.com/maps/place/?q=place_id:ChIJ95N6uE2e4jARK7OM6zQB5LI</value></Data>
      </ExtendedData>
      <Point><coordinates>100.58775109999999,13.736444899999999,0</coordinates></Point>
    </Placemark>
    <Placemark>
      <styleUrl>#cm0</styleUrl>
      <name>MARU MARU PIZZA</name>
      <description>⭐ 4.7 (425 รีวิว) · Italian · Watthana · ฿฿
14 Soi Sukhumvit 67, Khwaeng Phra Khanong Nuea, Watthana, Krung Thep Maha Nakhon 10110, Thailand
https://www.google.com/maps/place/?q=place_id:ChIJad4_faGf4jARQ10zyW3P1N0
ข้อมูลจาก ChefMinistry — chefministry.com</description>
      <ExtendedData>
        <Data name="rating"><value>4.7</value></Data>
        <Data name="reviews"><value>425</value></Data>
        <Data name="cuisine"><value>Italian</value></Data>
        <Data name="area"><value>Watthana</value></Data>
        <Data name="google_maps"><value>https://www.google.com/maps/place/?q=place_id:ChIJad4_faGf4jARQ10zyW3P1N0</value></Data>
      </ExtendedData>
      <Point><coordinates>100.590795,13.717673399999999,0</coordinates></Point>
    </Placemark>
    <Placemark>
      <styleUrl>#cm0</styleUrl>
      <name>the sparrow</name>
      <description>⭐ 4.5 (478 รีวิว) · Italian · Ekkamai · ฿฿
28/12 Sukhumvit 61, Khwaeng Phra Khanong Nuea, Watthana, Krung Thep Maha Nakhon 10110, Thailand
https://www.google.com/maps/place/?q=place_id:ChIJQa58lluf4jARyHcBKr_HOY0
ข้อมูลจาก ChefMinistry — chefministry.com</description>
      <ExtendedData>
        <Data name="rating"><value>4.5</value></Data>
        <Data name="reviews"><value>478</value></Data>
        <Data name="cuisine"><value>Italian</value></Data>
        <Data name="area"><value>Ekkamai</value></Data>
        <Data name="google_maps"><value>https://www.google.com/maps/place/?q=place_id:ChIJQa58lluf4jARyHcBKr_HOY0</value></Data>
      </ExtendedData>
      <Point><coordinates>100.58340749999999,13.724198999999999,0</coordinates></Point>
    </Placemark>
    <Placemark>
      <styleUrl>#cm0</styleUrl>
      <name>Daniel Thaiger Burger &amp; STAX Burger</name>
      <description>⭐ 4.6 (379 รีวิว) · Thai-American Burger · Huai Khwang · ฿฿
419, 1 Soi Phetchaburi 47, Lane 3-4, Khwaeng Bang Kapi, Khet Huai Khwang, Krung Thep Maha Nakhon 10310, Thailand
https://www.google.com/maps/place/?q=place_id:ChIJPfsvjFue4jARRyUO6wg0dNQ
ข้อมูลจาก ChefMinistry — chefministry.com</description>
      <ExtendedData>
        <Data name="rating"><value>4.6</value></Data>
        <Data name="reviews"><value>379</value></Data>
        <Data name="cuisine"><value>Thai-American Burger</value></Data>
        <Data name="area"><value>Huai Khwang</value></Data>
        <Data name="google_maps"><value>https://www.google.com/maps/place/?q=place_id:ChIJPfsvjFue4jARRyUO6wg0dNQ</value></Data>
      </ExtendedData>
      <Point><coordinates>100.5819635,13.7490382,0</coordinates></Point>
    </Placemark>
    <Placemark>
      <styleUrl>#cm0</styleUrl>
      <name>Armenio's Modern Grandma</name>
      <description>⭐ 4.8 (304 รีวิว) · Italian · Sathorn · ฿฿
48 Soi Saphan Khu, Khwaeng Thung Maha Mek, Khet Sathon, Krung Thep Maha Nakhon 10120, Thailand
https://www.google.com/maps/place/?q=place_id:ChIJ29JGW2if4jARCjVU6F91zDc
ข้อมูลจาก ChefMinistry — chefministry.com</description>
      <ExtendedData>
        <Data name="rating"><value>4.8</value></Data>
        <Data name="reviews"><value>304</value></Data>
        <Data name="cuisine"><value>Italian</value></Data>
        <Data name="area"><value>Sathorn</value></Data>
        <Data name="google_maps"><value>https://www.google.com/maps/place/?q=place_id:ChIJ29JGW2if4jARCjVU6F91zDc</value></Data>
      </ExtendedData>
      <Point><coordinates>100.5479364,13.7219907,0</coordinates></Point>
    </Placemark>
    <Placemark>
      <styleUrl>#cm0</styleUrl>
      <name>Joe and Manoach Pizza</name>
      <description>⭐ 4.9 (190 รีวิว) · Italian · Yan Nawa · ฿฿
267 45 Thanon Naradhiwat Rajanagarindra, Khwaeng Yan Nawa, Khet Sathon, Krung Thep Maha Nakhon 10120, Thailand
https://www.google.com/maps/place/?q=place_id:ChIJTTtGzqSZ4jAR_aKz2hFi7bQ
ข้อมูลจาก ChefMinistry — chefministry.com</description>
      <ExtendedData>
        <Data name="rating"><value>4.9</value></Data>
        <Data name="reviews"><value>190</value></Data>
        <Data name="cuisine"><value>Italian</value></Data>
        <Data name="area"><value>Yan Nawa</value></Data>
        <Data name="google_maps"><value>https://www.google.com/maps/place/?q=place_id:ChIJTTtGzqSZ4jAR_aKz2hFi7bQ</value></Data>
      </ExtendedData>
      <Point><coordinates>100.5318171,13.7169373,0</coordinates></Point>
    </Placemark>
  </Folder>
</Document></kml>